<?xml version="1.0" encoding="UTF-8"?>
<osm version="0.6" generator="Overpass API 0.7.62.7 375dc00a">
<note>The data included in this document is from www.openstreetmap.org. The data is made available under ODbL.</note>
<meta osm_base="2025-07-11T07:07:23Z"/>

  <node id="42421769" lat="40.7826383" lon="-73.9750067">
    <tag k="highway" v="traffic_signals"/>
  </node>
  <node id="42421772" lat="40.7838280" lon="-73.9778254">
    <tag k="highway" v="traffic_signals"/>
  </node>
  <node id="42421775" lat="40.7845691" lon="-73.9795827">
    <tag k="highway" v="traffic_signals"/>
  </node>
  <node id="42421776" lat="40.7850352" lon="-73.9806732">
    <tag k="highway" v="traffic_signals"/>
  </node>
  <node id="42421806" lat="40.7863627" lon="-73.9759753">
    <tag k="highway" v="traffic_signals"/>
  </node>
  <node id="42421809" lat="40.7870876" lon="-73.9776916">
    <tag k="highway" v="traffic_signals"/>
    <tag k="traffic_signals" v="signal"/>
  </node>
  <node id="42421810" lat="40.7875711" lon="-73.9788225">
    <tag k="highway" v="traffic_signals"/>
  </node>
  <node id="42421820" lat="40.7884860" lon="-73.9810702">
    <tag k="highway" v="traffic_signals"/>
  </node>
  <node id="42422592" lat="40.7849764" lon="-73.9826519">
    <tag k="highway" v="traffic_signals"/>
    <tag k="traffic_signals" v="traffic_lights"/>
    <tag k="traffic_signals:direction" v="both"/>
  </node>
  <node id="42428061" lat="40.7812798" lon="-73.9759984">
    <tag k="highway" v="traffic_signals"/>
  </node>
  <node id="42428063" lat="40.7824641" lon="-73.9788209">
    <tag k="highway" v="traffic_signals"/>
  </node>
  <node id="42428065" lat="40.7832069" lon="-73.9805809">
    <tag k="highway" v="traffic_signals"/>
    <tag k="traffic_signals" v="signal"/>
    <tag k="traffic_signals:direction" v="forward"/>
  </node>
  <node id="42428068" lat="40.7836663" lon="-73.9816706">
    <tag k="highway" v="traffic_signals"/>
  </node>
  <node id="42428072" lat="40.7843551" lon="-73.9832997">
    <tag k="highway" v="traffic_signals"/>
  </node>
  <node id="42428640" lat="40.7803341" lon="-73.9816325">
    <tag k="highway" v="traffic_signals"/>
  </node>
  <node id="42428645" lat="40.7818019" lon="-73.9811764">
    <tag k="highway" v="traffic_signals"/>
    <tag k="traffic_signals" v="signal"/>
    <tag k="traffic_signals:direction" v="forward"/>
  </node>
  <node id="42428648" lat="40.7825317" lon="-73.9809157">
    <tag k="highway" v="traffic_signals"/>
  </node>
  <node id="42428653" lat="40.7838930" lon="-73.9800838">
    <tag k="highway" v="traffic_signals"/>
  </node>
  <node id="42428657" lat="40.7852101" lon="-73.9791163">
    <tag k="highway" v="traffic_signals"/>
  </node>
  <node id="42428661" lat="40.7858381" lon="-73.9786335">
    <tag k="highway" v="traffic_signals"/>
  </node>
  <node id="42428663" lat="40.7864652" lon="-73.9781723">
    <tag k="highway" v="traffic_signals"/>
  </node>
  <node id="42428670" lat="40.7877015" lon="-73.9771707">
    <tag k="highway" v="traffic_signals"/>
  </node>
  <node id="42428674" lat="40.7883617" lon="-73.9766064">
    <tag k="highway" v="traffic_signals"/>
  </node>
  <node id="42428678" lat="40.7890078" lon="-73.9760520">
    <tag k="highway" v="traffic_signals"/>
    <tag k="traffic_signals" v="signal"/>
  </node>
  <node id="42428682" lat="40.7896363" lon="-73.9755873">
    <tag k="highway" v="traffic_signals"/>
    <tag k="traffic_signals" v="signal"/>
  </node>
  <node id="42431005" lat="40.7804948" lon="-73.9839842">
    <tag k="highway" v="traffic_signals"/>
  </node>
  <node id="42431007" lat="40.7811287" lon="-73.9835232">
    <tag k="highway" v="traffic_signals"/>
  </node>
  <node id="42431008" lat="40.7817655" lon="-73.9830559">
    <tag k="highway" v="traffic_signals"/>
  </node>
  <node id="42431009" lat="40.7824008" lon="-73.9825964">
    <tag k="highway" v="traffic_signals"/>
  </node>
  <node id="42431015" lat="40.7830455" lon="-73.9821238">
    <tag k="highway" v="traffic_signals"/>
  </node>
  <node id="42431019" lat="40.7843536" lon="-73.9811697">
    <tag k="highway" v="traffic_signals"/>
  </node>
  <node id="42431024" lat="40.7856725" lon="-73.9802092">
    <tag k="highway" v="traffic_signals"/>
  </node>
  <node id="42431027" lat="40.7863040" lon="-73.9797464">
    <tag k="highway" v="traffic_signals"/>
  </node>
  <node id="42431030" lat="40.7869367" lon="-73.9792880">
    <tag k="highway" v="traffic_signals"/>
  </node>
  <node id="42431034" lat="40.7882037" lon="-73.9783631">
    <tag k="highway" v="traffic_signals"/>
  </node>
  <node id="42431037" lat="40.7888916" lon="-73.9778597">
    <tag k="highway" v="traffic_signals"/>
  </node>
  <node id="42431039" lat="40.7895635" lon="-73.9773679">
    <tag k="highway" v="traffic_signals"/>
  </node>
  <node id="42433567" lat="40.7851032" lon="-73.9768937">
    <tag k="highway" v="traffic_signals"/>
  </node>
  <node id="42433569" lat="40.7868921" lon="-73.9812269">
    <tag k="highway" v="traffic_signals"/>
  </node>
  <node id="42437305" lat="40.7857321" lon="-73.9764355">
    <tag k="highway" v="traffic_signals"/>
  </node>
  <node id="42437312" lat="40.7876839" lon="-73.9811521">
    <tag k="highway" v="traffic_signals"/>
  </node>
  <node id="42438859" lat="40.7806719" lon="-73.9764438">
    <tag k="highway" v="traffic_signals"/>
    <tag k="traffic_signals" v="signal"/>
    <tag k="traffic_signals:direction" v="forward"/>
  </node>
  <node id="42438862" lat="40.7818426" lon="-73.9792740">
    <tag k="highway" v="traffic_signals"/>
  </node>
  <node id="42441564" lat="40.7899463" lon="-73.9803596">
    <tag k="highway" v="traffic_signals"/>
  </node>
  <node id="42441569" lat="40.7892552" lon="-73.9808538">
    <tag k="highway" v="traffic_signals"/>
  </node>
  <node id="42441587" lat="40.7861933" lon="-73.9814421">
    <tag k="highway" v="traffic_signals"/>
  </node>
  <node id="42441668" lat="40.7831868" lon="-73.9844643">
    <tag k="highway" v="traffic_signals"/>
  </node>
  <node id="42442451" lat="40.7805610" lon="-73.9802100">
    <tag k="highway" v="traffic_signals"/>
    <tag k="traffic_signals" v="signal"/>
    <tag k="traffic_signals:direction" v="forward"/>
  </node>
  <node id="42442459" lat="40.7811846" lon="-73.9797549">
    <tag k="highway" v="traffic_signals"/>
    <tag k="traffic_signals" v="signal"/>
    <tag k="traffic_signals:direction" v="forward"/>
  </node>
  <node id="42442463" lat="40.7831527" lon="-73.9783277">
    <tag k="highway" v="traffic_signals"/>
  </node>
  <node id="42442469" lat="40.7844692" lon="-73.9773536">
    <tag k="highway" v="traffic_signals"/>
  </node>
  <node id="42442475" lat="40.7870011" lon="-73.9755093">
    <tag k="highway" v="traffic_signals"/>
  </node>
  <node id="42442480" lat="40.7876861" lon="-73.9750103">
    <tag k="highway" v="traffic_signals"/>
    <tag k="traffic_signals:direction" v="forward"/>
  </node>
  <node id="42443347" lat="40.7819606" lon="-73.9754991">
    <tag k="highway" v="traffic_signals"/>
  </node>
  <node id="61270993" lat="40.7850015" lon="-73.9831013">
    <tag k="highway" v="traffic_signals"/>
    <tag k="traffic_signals" v="signal"/>
    <tag k="traffic_signals:direction" v="forward"/>
  </node>
  <node id="1061531454" lat="40.7838080" lon="-73.9798812">
    <tag k="highway" v="traffic_signals"/>
  </node>
  <node id="1061531500" lat="40.7802483" lon="-73.9814211">
    <tag k="highway" v="traffic_signals"/>
  </node>
  <node id="1061531550" lat="40.7863807" lon="-73.9779716">
    <tag k="highway" v="traffic_signals"/>
  </node>
  <node id="1061531566" lat="40.7817194" lon="-73.9809824">
    <tag k="highway" v="traffic_signals"/>
  </node>
  <node id="1061531603" lat="40.7882886" lon="-73.9764311">
    <tag k="highway" v="traffic_signals"/>
  </node>
  <node id="1061531634" lat="40.7809928" lon="-73.9812112">
    <tag k="highway" v="traffic_signals"/>
  </node>
  <node id="1061531637" lat="40.7889354" lon="-73.9758801">
    <tag k="highway" v="traffic_signals"/>
    <tag k="traffic_signals" v="signal"/>
  </node>
  <node id="1061531695" lat="40.7824512" lon="-73.9807232">
    <tag k="highway" v="traffic_signals"/>
    <tag k="traffic_signals" v="signal"/>
    <tag k="traffic_signals:direction" v="forward"/>
  </node>
  <node id="1061531803" lat="40.7831278" lon="-73.9803916">
    <tag k="highway" v="traffic_signals"/>
  </node>
  <node id="1061531810" lat="40.7895628" lon="-73.9754158">
    <tag k="highway" v="traffic_signals"/>
    <tag k="traffic_signals" v="signal"/>
  </node>
  <node id="1061531839" lat="40.7876288" lon="-73.9769983">
    <tag k="highway" v="traffic_signals"/>
  </node>
  <node id="9906904524" lat="40.7851596" lon="-73.9830841">
    <tag k="highway" v="traffic_signals"/>
    <tag k="traffic_signals" v="signal"/>
    <tag k="traffic_signals:direction" v="forward"/>
  </node>
  <node id="11655721345" lat="40.7844847" lon="-73.9793825">
    <tag k="highway" v="traffic_signals"/>
    <tag k="traffic_signals" v="signal"/>
  </node>
  <node id="11655721348" lat="40.7851211" lon="-73.9789064">
    <tag k="highway" v="traffic_signals"/>
    <tag k="traffic_signals" v="signal"/>
  </node>
  <node id="11655721350" lat="40.7857555" lon="-73.9784379">
    <tag k="highway" v="traffic_signals"/>
    <tag k="traffic_signals" v="signal"/>
  </node>
  <node id="11655721355" lat="40.7870124" lon="-73.9775145">
    <tag k="highway" v="traffic_signals"/>
    <tag k="traffic_signals" v="signal"/>
  </node>
  <node id="11655721360" lat="40.7810772" lon="-73.9814187">
    <tag k="highway" v="traffic_signals"/>
    <tag k="traffic_signals" v="signal"/>
  </node>
  <way id="5668968">
    <bounds minlat="40.7826383" minlon="-73.9820041" maxlat="40.7855915" maxlon="-73.9750067"/>
    <nd ref="42421778" lat="40.7855915" lon="-73.9820041"/>
    <nd ref="10039628106" lat="40.7855519" lon="-73.9819094"/>
    <nd ref="8727756094" lat="40.7850874" lon="-73.9807991"/>
    <nd ref="42421776" lat="40.7850352" lon="-73.9806732"/>
    <nd ref="8727756090" lat="40.7849801" lon="-73.9805399"/>
    <nd ref="8709392086" lat="40.7846117" lon="-73.9796837"/>
    <nd ref="42421775" lat="40.7845691" lon="-73.9795827"/>
    <nd ref="11655721345" lat="40.7844847" lon="-73.9793825"/>
    <nd ref="8709392092" lat="40.7844428" lon="-73.9792832"/>
    <nd ref="10037505646" lat="40.7838846" lon="-73.9779614"/>
    <nd ref="6207264916" lat="40.7838690" lon="-73.9779225"/>
    <nd ref="42421772" lat="40.7838280" lon="-73.9778254"/>
    <nd ref="9897810868" lat="40.7837790" lon="-73.9777095"/>
    <nd ref="9897810863" lat="40.7826855" lon="-73.9751186"/>
    <nd ref="42421769" lat="40.7826383" lon="-73.9750067"/>
    <tag k="alt_name" v="West 80 Street"/>
    <tag k="highway" v="residential"/>
    <tag k="lanes" v="2"/>
    <tag k="name" v="West 80th Street"/>
    <tag k="name:ru" v="Западная 80-я стрит"/>
    <tag k="oneway" v="yes"/>
    <tag k="sidewalk:both" v="separate"/>
    <tag k="surface" v="asphalt"/>
    <tag k="tiger:cfcc" v="A41"/>
    <tag k="tiger:county" v="New York, NY"/>
    <tag k="tiger:name_base" v="80th"/>
    <tag k="tiger:name_base_1" v="80"/>
    <tag k="tiger:name_direction_prefix" v="W"/>
    <tag k="tiger:name_direction_prefix_1" v="W"/>
    <tag k="tiger:name_type" v="St"/>
    <tag k="tiger:name_type_1" v="St"/>
    <tag k="tiger:reviewed" v="no"/>
    <tag k="tiger:zip_left" v="10024"/>
    <tag k="tiger:zip_right" v="10024"/>
  </way>
  <way id="5668977">
    <bounds minlat="40.7851818" minlon="-73.9810702" maxlat="40.7884860" maxlon="-73.9731496"/>
    <nd ref="42421820" lat="40.7884860" lon="-73.9810702"/>
    <nd ref="9168918203" lat="40.7884811" lon="-73.9810202"/>
    <nd ref="9168918202" lat="40.7884732" lon="-73.9809780"/>
    <nd ref="10039741675" lat="40.7884674" lon="-73.9809588"/>
    <nd ref="9168918204" lat="40.7884609" lon="-73.9809372"/>
    <nd ref="9168918201" lat="40.7884456" lon="-73.9808989"/>
    <nd ref="8727756063" lat="40.7876221" lon="-73.9789416"/>
    <nd ref="42421810" lat="40.7875711" lon="-73.9788225"/>
    <nd ref="8727756059" lat="40.7875161" lon="-73.9786949"/>
    <nd ref="7182103205" lat="40.7871294" lon="-73.9777901"/>
    <nd ref="42421809" lat="40.7870876" lon="-73.9776916"/>
    <nd ref="11655721355" lat="40.7870124" lon="-73.9775145"/>
    <nd ref="7182103207" lat="40.7869661" lon="-73.9774019"/>
    <nd ref="10039932481" lat="40.7864198" lon="-73.9761105"/>
    <nd ref="42421806" lat="40.7863627" lon="-73.9759753"/>
    <nd ref="10039932492" lat="40.7863177" lon="-73.9758674"/>
    <nd ref="8402020636" lat="40.7858619" lon="-73.9747770"/>
    <nd ref="10042554907" lat="40.7852306" lon="-73.9732665"/>
    <nd ref="42421803" lat="40.7851818" lon="-73.9731496"/>
    <tag k="alt_name" v="Edgar Allen Poe Street"/>
    <tag k="highway" v="residential"/>
    <tag k="name" v="West 84th Street"/>
    <tag k="name:ru" v="Западная 84-я стрит"/>
    <tag k="name_1" v="West 84 Street"/>
    <tag k="oneway" v="yes"/>
    <tag k="surface" v="asphalt"/>
    <tag k="tiger:cfcc" v="A41"/>
    <tag k="tiger:county" v="New York, NY"/>
    <tag k="tiger:name_base" v="84th"/>
    <tag k="tiger:name_base_1" v="84"/>
    <tag k="tiger:name_base_2" v="Edgar Allen Poe"/>
    <tag k="tiger:name_direction_prefix" v="W"/>
    <tag k="tiger:name_direction_prefix_1" v="W"/>
    <tag k="tiger:name_type" v="St"/>
    <tag k="tiger:name_type_1" v="St"/>
    <tag k="tiger:name_type_2" v="St"/>
    <tag k="tiger:reviewed" v="no"/>
    <tag k="tiger:zip_left" v="10024"/>
    <tag k="tiger:zip_right" v="10024"/>
  </way>
  <way id="5669386">
    <bounds minlat="40.7856022" minlon="-73.9844232" maxlat="40.7859459" maxlon="-73.9840936"/>
    <nd ref="6996574447" lat="40.7859459" lon="-73.9844232"/>
    <nd ref="6996574488" lat="40.7859369" lon="-73.9843909"/>
    <nd ref="6996564334" lat="40.7859219" lon="-73.9843542"/>
    <nd ref="6996564374" lat="40.7859000" lon="-73.9843227"/>
    <nd ref="6996574543" lat="40.7858749" lon="-73.9842939"/>
    <nd ref="6996564348" lat="40.7858461" lon="-73.9842688"/>
    <nd ref="6996574431" lat="40.7858131" lon="-73.9842481"/>
    <nd ref="6996574388" lat="40.7857734" lon="-73.9842243"/>
    <nd ref="6996564319" lat="40.7857446" lon="-73.9842089"/>
    <nd ref="10160789949" lat="40.7857068" lon="-73.9841882"/>
    <nd ref="10160789952" lat="40.7856698" lon="-73.9841652"/>
    <nd ref="10160789950" lat="40.7856509" lon="-73.9841474"/>
    <nd ref="12162590067" lat="40.7856293" lon="-73.9841243"/>
    <nd ref="42425188" lat="40.7856022" lon="-73.9840936"/>
    <tag k="bicycle" v="no"/>
    <tag k="fixme" v="bicycle=no and oneway=yes are temporary during construction; restore oneway=no and cycleway tags after survey once construction is complete"/>
    <tag k="hgv" v="no"/>
    <tag k="highway" v="secondary"/>
    <tag k="junction" v="roundabout"/>
    <tag k="lanes" v="1"/>
    <tag k="surface" v="concrete"/>
    <tag k="tiger:cfcc" v="A63"/>
    <tag k="tiger:county" v="New York, NY"/>
    <tag k="tiger:reviewed" v="no"/>
  </way>
  <way id="5669710">
    <bounds minlat="40.7812798" minlon="-73.9832997" maxlat="40.7843551" maxlon="-73.9759984"/>
    <nd ref="42428072" lat="40.7843551" lon="-73.9832997"/>
    <nd ref="10164740263" lat="40.7843104" lon="-73.9832030"/>
    <nd ref="9492556517" lat="40.7837355" lon="-73.9818404"/>
    <nd ref="9492542211" lat="40.7837156" lon="-73.9817937"/>
    <nd ref="42428068" lat="40.7836663" lon="-73.9816706"/>
    <nd ref="9492556601" lat="40.7836155" lon="-73.9815477"/>
    <nd ref="8709392045" lat="40.7832529" lon="-73.9806896"/>
    <nd ref="42428065" lat="40.7832069" lon="-73.9805809"/>
    <nd ref="1061531803" lat="40.7831278" lon="-73.9803916"/>
    <nd ref="8709392051" lat="40.7830856" lon="-73.9802919"/>
    <nd ref="9897724595" lat="40.7825238" lon="-73.9789623"/>
    <nd ref="42428063" lat="40.7824641" lon="-73.9788209"/>
    <nd ref="9897654909" lat="40.7824140" lon="-73.9787016"/>
    <nd ref="9897654912" lat="40.7813246" lon="-73.9761035"/>
    <nd ref="42428061" lat="40.7812798" lon="-73.9759984"/>
    <tag k="bicycle" v="yes"/>
    <tag k="cycleway:left" v="lane"/>
    <tag k="highway" v="residential"/>
    <tag k="lane_markings" v="no"/>
    <tag k="name" v="West 78th Street"/>
    <tag k="name:ru" v="Западная 78-я стрит"/>
    <tag k="oneway" v="yes"/>
    <tag k="sidewalk:both" v="separate"/>
    <tag k="surface" v="asphalt"/>
    <tag k="tiger:cfcc" v="A41"/>
    <tag k="tiger:county" v="New York, NY"/>
    <tag k="tiger:name_base" v="78th"/>
    <tag k="tiger:name_base_1" v="78"/>
    <tag k="tiger:name_direction_prefix" v="W"/>
    <tag k="tiger:name_direction_prefix_1" v="W"/>
    <tag k="tiger:name_type" v="St"/>
    <tag k="tiger:name_type_1" v="St"/>
    <tag k="tiger:reviewed" v="no"/>
    <tag k="tiger:zip_left" v="10024"/>
    <tag k="tiger:zip_right" v="10024"/>
  </way>
  <way id="5670192">
    <bounds minlat="40.7839166" minlon="-73.9786335" maxlat="40.7858381" maxlon="-73.9740729"/>
    <nd ref="42428661" lat="40.7858381" lon="-73.9786335"/>
    <nd ref="11655721350" lat="40.7857555" lon="-73.9784379"/>
    <nd ref="8709397326" lat="40.7857152" lon="-73.9783425"/>
    <nd ref="10039927876" lat="40.7851610" lon="-73.9770304"/>
    <nd ref="42433567" lat="40.7851032" lon="-73.9768937"/>
    <nd ref="10039927867" lat="40.7850562" lon="-73.9767821"/>
    <nd ref="6877248401" lat="40.7841919" lon="-73.9747296"/>
    <nd ref="10039972343" lat="40.7839648" lon="-73.9741877"/>
    <nd ref="42433565" lat="40.7839166" lon="-73.9740729"/>
    <tag k="alt_name" v="West 82 Street"/>
    <tag k="hgv" v="local"/>
    <tag k="highway" v="residential"/>
    <tag k="name" v="West 82nd Street"/>
    <tag k="name:ru" v="Западная 82-я стрит"/>
    <tag k="oneway" v="yes"/>
    <tag k="surface" v="asphalt"/>
    <tag k="tiger:cfcc" v="A41"/>
    <tag k="tiger:county" v="New York, NY"/>
    <tag k="tiger:name_base" v="82nd"/>
    <tag k="tiger:name_base_1" v="82"/>
    <tag k="tiger:name_direction_prefix" v="W"/>
    <tag k="tiger:name_direction_prefix_1" v="W"/>
    <tag k="tiger:name_type" v="St"/>
    <tag k="tiger:name_type_1" v="St"/>
    <tag k="tiger:reviewed" v="no"/>
    <tag k="tiger:zip_left" v="10024"/>
    <tag k="tiger:zip_right" v="10024"/>
  </way>
  <way id="5670234">
    <bounds minlat="40.7859742" minlon="-73.9758801" maxlat="40.7889354" maxlon="-73.9688537"/>
    <nd ref="7106818623" lat="40.7859742" lon="-73.9688537"/>
    <nd ref="7106818634" lat="40.7860307" lon="-73.9689825"/>
    <nd ref="3718670421" lat="40.7871153" lon="-73.9715593"/>
    <nd ref="42434158" lat="40.7871744" lon="-73.9716995"/>
    <nd ref="9634645805" lat="40.7872206" lon="-73.9718092"/>
    <nd ref="10039808169" lat="40.7883121" lon="-73.9744004"/>
    <nd ref="42434160" lat="40.7883610" lon="-73.9745165"/>
    <nd ref="6207264911" lat="40.7884023" lon="-73.9746145"/>
    <nd ref="10039808181" lat="40.7884196" lon="-73.9746553"/>
    <nd ref="7004376645" lat="40.7888860" lon="-73.9757579"/>
    <nd ref="1061531637" lat="40.7889354" lon="-73.9758801"/>
    <tag k="alt_name" v="West 87 Street"/>
    <tag k="highway" v="residential"/>
    <tag k="lanes" v="2"/>
    <tag k="name" v="West 87th Street"/>
    <tag k="name:ru" v="Западная 87-я стрит"/>
    <tag k="oneway" v="yes"/>
    <tag k="surface" v="asphalt"/>
    <tag k="tiger:cfcc" v="A41"/>
    <tag k="tiger:county" v="New York, NY"/>
    <tag k="tiger:name_base" v="87th"/>
    <tag k="tiger:name_base_1" v="87"/>
    <tag k="tiger:name_direction_prefix" v="W"/>
    <tag k="tiger:name_direction_prefix_1" v="W"/>
    <tag k="tiger:name_type" v="St"/>
    <tag k="tiger:name_type_1" v="St"/>
    <tag k="tiger:reviewed" v="no"/>
    <tag k="tiger:zip_left" v="10024"/>
    <tag k="tiger:zip_right" v="10024"/>
  </way>
  <way id="5670553">
    <bounds minlat="40.7845451" minlon="-73.9764355" maxlat="40.7857321" maxlon="-73.9736127"/>
    <nd ref="42437300" lat="40.7845451" lon="-73.9736127"/>
    <nd ref="10039972351" lat="40.7845941" lon="-73.9737293"/>
    <nd ref="10039927888" lat="40.7856841" lon="-73.9763215"/>
    <nd ref="42437305" lat="40.7857321" lon="-73.9764355"/>
    <tag k="highway" v="residential"/>
    <tag k="name" v="West 83rd Street"/>
    <tag k="name:ru" v="Западная 83-я стрит"/>
    <tag k="name_1" v="West 83 Street"/>
    <tag k="oneway" v="yes"/>
    <tag k="tiger:cfcc" v="A41"/>
    <tag k="tiger:county" v="New York, NY"/>
    <tag k="tiger:name_base" v="83rd"/>
    <tag k="tiger:name_base_1" v="83"/>
    <tag k="tiger:name_direction_prefix" v="W"/>
    <tag k="tiger:name_direction_prefix_1" v="W"/>
    <tag k="tiger:name_type" v="St"/>
    <tag k="tiger:name_type_1" v="St"/>
    <tag k="tiger:reviewed" v="no"/>
    <tag k="tiger:zip_left" v="10024"/>
    <tag k="tiger:zip_right" v="10024"/>
  </way>
  <way id="5670659">
    <bounds minlat="40.7877988" minlon="-73.9794014" maxlat="40.7912444" maxlon="-73.9712361"/>
    <nd ref="42438052" lat="40.7912444" lon="-73.9794014"/>
    <nd ref="10039815557" lat="40.7912044" lon="-73.9793064"/>
    <nd ref="9492542200" lat="40.7902488" lon="-73.9770347"/>
    <nd ref="42431044" lat="40.7901949" lon="-73.9769096"/>
    <nd ref="9492556598" lat="40.7901442" lon="-73.9767862"/>
    <nd ref="8699239304" lat="40.7896794" lon="-73.9756852"/>
    <nd ref="42428682" lat="40.7896363" lon="-73.9755873"/>
    <nd ref="1061531810" lat="40.7895628" lon="-73.9754158"/>
    <nd ref="7004376644" lat="40.7895105" lon="-73.9752923"/>
    <nd ref="8699239293" lat="40.7890442" lon="-73.9741981"/>
    <nd ref="6207264906" lat="40.7890277" lon="-73.9741584"/>
    <nd ref="42438045" lat="40.7889871" lon="-73.9740595"/>
    <nd ref="8699239288" lat="40.7889359" lon="-73.9739373"/>
    <nd ref="8002696369" lat="40.7888392" lon="-73.9737080"/>
    <nd ref="10042608487" lat="40.7878474" lon="-73.9713515"/>
    <nd ref="42438043" lat="40.7877988" lon="-73.9712361"/>
    <tag k="alt_name" v="West 88 Street"/>
    <tag k="highway" v="residential"/>
    <tag k="name" v="West 88th Street"/>
    <tag k="name:ru" v="Западная 88-я стрит"/>
    <tag k="oneway" v="yes"/>
    <tag k="surface" v="asphalt"/>
    <tag k="tiger:cfcc" v="A41"/>
    <tag k="tiger:county" v="New York, NY"/>
    <tag k="tiger:name_base" v="88th"/>
    <tag k="tiger:name_base_1" v="88"/>
    <tag k="tiger:name_direction_prefix" v="W"/>
    <tag k="tiger:name_direction_prefix_1" v="W"/>
    <tag k="tiger:name_type" v="St"/>
    <tag k="tiger:name_type_1" v="St"/>
    <tag k="tiger:reviewed" v="no"/>
    <tag k="tiger:zip_left" v="10024"/>
    <tag k="tiger:zip_right" v="10024"/>
  </way>
  <way id="5670738">
    <bounds minlat="40.7794865" minlon="-73.9764438" maxlat="40.7806719" maxlon="-73.9735934"/>
    <nd ref="42424225" lat="40.7794865" lon="-73.9735934"/>
    <nd ref="7104619478" lat="40.7795440" lon="-73.9737066"/>
    <nd ref="9915560879" lat="40.7795587" lon="-73.9737424"/>
    <nd ref="3916376283" lat="40.7799769" lon="-73.9747351"/>
    <nd ref="3916376281" lat="40.7801899" lon="-73.9752452"/>
    <nd ref="9915560880" lat="40.7806159" lon="-73.9762556"/>
    <nd ref="3718672431" lat="40.7806322" lon="-73.9762958"/>
    <nd ref="42438859" lat="40.7806719" lon="-73.9764438"/>
    <tag k="alt_name" v="Richard Gilder Way"/>
    <tag k="bicycle" v="yes"/>
    <tag k="cycleway" v="lane"/>
    <tag k="highway" v="residential"/>
    <tag k="lanes" v="2"/>
    <tag k="lit" v="yes"/>
    <tag k="maxspeed" v="25 mph"/>
    <tag k="name" v="West 77th Street"/>
    <tag k="name:ru" v="Западная 77-я стрит"/>
    <tag k="sidewalk" v="separate"/>
    <tag k="surface" v="asphalt"/>
    <tag k="tiger:cfcc" v="A41"/>
    <tag k="tiger:county" v="New York, NY"/>
    <tag k="tiger:name_base" v="77th"/>
    <tag k="tiger:name_base_1" v="77"/>
    <tag k="tiger:name_direction_prefix" v="W"/>
    <tag k="tiger:name_direction_prefix_1" v="W"/>
    <tag k="tiger:name_type" v="St"/>
    <tag k="tiger:name_type_1" v="St"/>
    <tag k="tiger:reviewed" v="no"/>
    <tag k="tiger:zip_left" v="10024"/>
    <tag k="tiger:zip_right" v="10024"/>
  </way>
  <way id="5671628">
    <bounds minlat="40.7799947" minlon="-73.9844643" maxlat="40.7831868" maxlon="-73.9769106"/>
    <nd ref="42441668" lat="40.7831868" lon="-73.9844643"/>
    <nd ref="10039870535" lat="40.7831455" lon="-73.9843659"/>
    <nd ref="9492542186" lat="40.7824506" lon="-73.9827124"/>
    <nd ref="42431009" lat="40.7824008" lon="-73.9825964"/>
    <nd ref="9492542174" lat="40.7823471" lon="-73.9824638"/>
    <nd ref="8727760425" lat="40.7818430" lon="-73.9812701"/>
    <nd ref="42428645" lat="40.7818019" lon="-73.9811764"/>
    <nd ref="1061531566" lat="40.7817194" lon="-73.9809824"/>
    <nd ref="8727760419" lat="40.7816706" lon="-73.9808701"/>
    <nd ref="6207264931" lat="40.7812430" lon="-73.9798886"/>
    <nd ref="42442459" lat="40.7811846" lon="-73.9797549"/>
    <nd ref="9611179679" lat="40.7811364" lon="-73.9796396"/>
    <nd ref="9677631661" lat="40.7800508" lon="-73.9770448"/>
    <nd ref="42443346" lat="40.7799947" lon="-73.9769106"/>
    <tag k="alt_name" v="West 76 Street"/>
    <tag k="highway" v="residential"/>
    <tag k="lane_markings" v="no"/>
    <tag k="name" v="West 76th Street"/>
    <tag k="name:ru" v="Западная 76-я стрит"/>
    <tag k="oneway" v="yes"/>
    <tag k="sidewalk:both" v="separate"/>
    <tag k="surface" v="asphalt"/>
    <tag k="tiger:cfcc" v="A41"/>
    <tag k="tiger:county" v="New York, NY"/>
    <tag k="tiger:name_base" v="76th"/>
    <tag k="tiger:name_base_1" v="76"/>
    <tag k="tiger:name_direction_prefix" v="W"/>
    <tag k="tiger:name_direction_prefix_1" v="W"/>
    <tag k="tiger:name_type" v="St"/>
    <tag k="tiger:name_type_1" v="St"/>
    <tag k="tiger:reviewed" v="no"/>
    <tag k="tiger:zip_left" v="10023"/>
    <tag k="tiger:zip_right" v="10023"/>
  </way>
  <way id="5672180">
    <bounds minlat="40.7858123" minlon="-73.9755093" maxlat="40.7870011" maxlon="-73.9726868"/>
    <nd ref="42443349" lat="40.7858123" lon="-73.9726868"/>
    <nd ref="10042554901" lat="40.7858627" lon="-73.9728088"/>
    <nd ref="10039932506" lat="40.7869511" lon="-73.9753907"/>
    <nd ref="42442475" lat="40.7870011" lon="-73.9755093"/>
    <tag k="alt_name" v="West 85 Street"/>
    <tag k="highway" v="residential"/>
    <tag k="name" v="West 85th Street"/>
    <tag k="name:ru" v="Западная 85-я стрит"/>
    <tag k="oneway" v="yes"/>
    <tag k="tiger:cfcc" v="A41"/>
    <tag k="tiger:county" v="New York, NY"/>
    <tag k="tiger:name_base" v="85th"/>
    <tag k="tiger:name_base_1" v="85"/>
    <tag k="tiger:name_direction_prefix" v="W"/>
    <tag k="tiger:name_direction_prefix_1" v="W"/>
    <tag k="tiger:name_type" v="St"/>
    <tag k="tiger:name_type_1" v="St"/>
    <tag k="tiger:reviewed" v="no"/>
    <tag k="tiger:zip_left" v="10024"/>
    <tag k="tiger:zip_right" v="10024"/>
    <tag k="wikidata" v="Q4644879"/>
    <tag k="wikipedia" v="en:85th Street (Manhattan)"/>
  </way>
  <way id="5672315">
    <bounds minlat="40.7787449" minlon="-73.9850810" maxlat="40.7817710" maxlon="-73.9778503"/>
    <nd ref="42441654" lat="40.7817710" lon="-73.9850810"/>
    <nd ref="9168918188" lat="40.7817517" lon="-73.9850179"/>
    <nd ref="10039898981" lat="40.7817372" lon="-73.9849760"/>
    <nd ref="9168918187" lat="40.7817234" lon="-73.9849364"/>
    <nd ref="9492556541" lat="40.7811842" lon="-73.9836463"/>
    <nd ref="42431007" lat="40.7811287" lon="-73.9835232"/>
    <nd ref="9492542216" lat="40.7810709" lon="-73.9833894"/>
    <nd ref="11655743731" lat="40.7803725" lon="-73.9817240"/>
    <nd ref="42428640" lat="40.7803341" lon="-73.9816325"/>
    <nd ref="1061531500" lat="40.7802483" lon="-73.9814211"/>
    <nd ref="11655743730" lat="40.7802068" lon="-73.9813248"/>
    <nd ref="9441745386" lat="40.7799835" lon="-73.9808057"/>
    <nd ref="6207264913" lat="40.7799662" lon="-73.9807646"/>
    <nd ref="42442445" lat="40.7799206" lon="-73.9806592"/>
    <nd ref="9441745385" lat="40.7798770" lon="-73.9805549"/>
    <nd ref="9668181745" lat="40.7787904" lon="-73.9779594"/>
    <nd ref="42443341" lat="40.7787449" lon="-73.9778503"/>
    <tag k="alt_name" v="West 74 Street"/>
    <tag k="highway" v="residential"/>
    <tag k="name" v="West 74th Street"/>
    <tag k="name:ru" v="Западная 74-я стрит"/>
    <tag k="oneway" v="yes"/>
    <tag k="sidewalk:both" v="separate"/>
    <tag k="surface" v="asphalt"/>
    <tag k="tiger:cfcc" v="A41"/>
    <tag k="tiger:county" v="New York, NY"/>
    <tag k="tiger:name_base" v="74th"/>
    <tag k="tiger:name_base_1" v="74"/>
    <tag k="tiger:name_direction_prefix" v="W"/>
    <tag k="tiger:name_direction_prefix_1" v="W"/>
    <tag k="tiger:name_type" v="St"/>
    <tag k="tiger:name_type_1" v="St"/>
    <tag k="tiger:reviewed" v="no"/>
    <tag k="tiger:zip_left" v="10023"/>
    <tag k="tiger:zip_right" v="10023"/>
    <tag k="wikidata" v="Q12052613"/>
    <tag k="wikipedia" v="en:74th Street (Manhattan)"/>
  </way>
  <way id="5672389">
    <bounds minlat="40.7822414" minlon="-73.9783277" maxlat="40.7831527" maxlon="-73.9761686"/>
    <nd ref="5316108106" lat="40.7822414" lon="-73.9761686"/>
    <nd ref="9897810848" lat="40.7831013" lon="-73.9782023"/>
    <nd ref="42442463" lat="40.7831527" lon="-73.9783277"/>
    <tag k="bicycle" v="yes"/>
    <tag k="hgv" v="local"/>
    <tag k="highway" v="secondary"/>
    <tag k="lanes" v="4"/>
    <tag k="maxspeed" v="25 mph"/>
    <tag k="name" v="West 79th Street"/>
    <tag k="name:ru" v="Западная 79-я стрит"/>
    <tag k="name_1" v="West 79 Street"/>
    <tag k="sidewalk:both" v="separate"/>
    <tag k="surface" v="asphalt"/>
    <tag k="tiger:cfcc" v="A41"/>
    <tag k="tiger:county" v="New York, NY"/>
    <tag k="tiger:name_base" v="79th"/>
    <tag k="tiger:name_base_1" v="79"/>
    <tag k="tiger:name_direction_prefix" v="W"/>
    <tag k="tiger:name_direction_prefix_1" v="W"/>
    <tag k="tiger:name_type" v="St"/>
    <tag k="tiger:name_type_1" v="St"/>
    <tag k="tiger:reviewed" v="no"/>
    <tag k="tiger:zip_left" v="10024"/>
    <tag k="tiger:zip_right" v="10024"/>
    <tag k="wikidata" v="Q2818314"/>
    <tag k="wikipedia" v="en:79th Street (Manhattan)"/>
  </way>
  <way id="44164413">
    <bounds minlat="40.7794990" minlon="-73.9816284" maxlat="40.7838080" maxlon="-73.9798812"/>
    <nd ref="1061531757" lat="40.7794990" lon="-73.9816284"/>
    <nd ref="5115916406" lat="40.7795736" lon="-73.9816068"/>
    <nd ref="11655743728" lat="40.7801804" lon="-73.9814398"/>
    <nd ref="1061531500" lat="40.7802483" lon="-73.9814211"/>
    <nd ref="8727756039" lat="40.7803143" lon="-73.9814000"/>
    <nd ref="11655721363" lat="40.7809244" lon="-73.9812303"/>
    <nd ref="1061531634" lat="40.7809928" lon="-73.9812112"/>
    <nd ref="8727756105" lat="40.7810584" lon="-73.9811910"/>
    <nd ref="8727760421" lat="40.7816571" lon="-73.9810047"/>
    <nd ref="1061531566" lat="40.7817194" lon="-73.9809824"/>
    <nd ref="8727760417" lat="40.7817907" lon="-73.9809560"/>
    <nd ref="8709392034" lat="40.7823790" lon="-73.9807525"/>
    <nd ref="1061531695" lat="40.7824512" lon="-73.9807232"/>
    <nd ref="2047267755" lat="40.7825123" lon="-73.9807026"/>
    <nd ref="2047267757" lat="40.7826598" lon="-73.9806303"/>
    <nd ref="8709392053" lat="40.7830717" lon="-73.9804202"/>
    <nd ref="1061531803" lat="40.7831278" lon="-73.9803916"/>
    <nd ref="2240269257" lat="40.7831756" lon="-73.9803635"/>
    <nd ref="8709392049" lat="40.7831913" lon="-73.9803514"/>
    <nd ref="11655721341" lat="40.7837109" lon="-73.9799552"/>
    <nd ref="1061531454" lat="40.7838080" lon="-73.9798812"/>
    <tag k="hgv" v="local"/>
    <tag k="highway" v="primary"/>
    <tag k="lanes" v="4"/>
    <tag k="name" v="Broadway"/>
    <tag k="name:en" v="Broadway"/>
    <tag k="name:ja" v="ブロードウェイ"/>
    <tag k="name:ru" v="Бродвей"/>
    <tag k="oneway" v="yes"/>
    <tag k="surface" v="asphalt"/>
    <tag k="tiger:cfcc" v="A21"/>
    <tag k="tiger:county" v="New York, NY"/>
    <tag k="tiger:name_base" v="Broadway"/>
    <tag k="tiger:name_base_1" v="United States Highway 9"/>
    <tag k="tiger:reviewed" v="no"/>
    <tag k="wikidata" v="Q11260"/>
    <tag k="wikipedia" v="en:Broadway (Manhattan)"/>
  </way>
  <way id="46111607">
    <bounds minlat="40.7850613" minlon="-73.9825605" maxlat="40.7927869" maxlon="-73.9770460"/>
    <nd ref="595314125" lat="40.7927869" lon="-73.9770460"/>
    <nd ref="42441535" lat="40.7927220" lon="-73.9770873"/>
    <nd ref="10060800061" lat="40.7926657" lon="-73.9771238"/>
    <nd ref="9168918321" lat="40.7926442" lon="-73.9771378"/>
    <nd ref="2029349812" lat="40.7925661" lon="-73.9772024"/>
    <nd ref="9168918320" lat="40.7924909" lon="-73.9772718"/>
    <nd ref="2029349811" lat="40.7924188" lon="-73.9773442"/>
    <nd ref="2029349809" lat="40.7923462" lon="-73.9774250"/>
    <nd ref="2029349808" lat="40.7922871" lon="-73.9775019"/>
    <nd ref="11682710505" lat="40.7922315" lon="-73.9775778"/>
    <nd ref="2029349806" lat="40.7922230" lon="-73.9775894"/>
    <nd ref="42437058" lat="40.7921750" lon="-73.9776753"/>
    <nd ref="11682710503" lat="40.7921289" lon="-73.9777644"/>
    <nd ref="9168918319" lat="40.7921125" lon="-73.9777961"/>
    <nd ref="9168918318" lat="40.7920652" lon="-73.9778993"/>
    <nd ref="9168918317" lat="40.7920276" lon="-73.9779927"/>
    <nd ref="10039861888" lat="40.7918310" lon="-73.9785185"/>
    <nd ref="42422018" lat="40.7917878" lon="-73.9786190"/>
    <nd ref="10039861883" lat="40.7917445" lon="-73.9787197"/>
    <nd ref="42441540" lat="40.7917136" lon="-73.9787809"/>
    <nd ref="9168918209" lat="40.7916798" lon="-73.9788478"/>
    <nd ref="42441544" lat="40.7916419" lon="-73.9789123"/>
    <nd ref="2029349802" lat="40.7915974" lon="-73.9789866"/>
    <nd ref="42441550" lat="40.7915563" lon="-73.9790544"/>
    <nd ref="9168918210" lat="40.7915043" lon="-73.9791253"/>
    <nd ref="42441553" lat="40.7914550" lon="-73.9791886"/>
    <nd ref="9168918211" lat="40.7913980" lon="-73.9792510"/>
    <nd ref="42441559" lat="40.7913394" lon="-73.9793137"/>
    <nd ref="10039776315" lat="40.7913058" lon="-73.9793445"/>
    <nd ref="42438052" lat="40.7912444" lon="-73.9794014"/>
    <nd ref="9168918208" lat="40.7911807" lon="-73.9794491"/>
    <nd ref="2967753945" lat="40.7909777" lon="-73.9796026"/>
    <nd ref="10039795803" lat="40.7906763" lon="-73.9798228"/>
    <nd ref="42434161" lat="40.7906175" lon="-73.9798657"/>
    <nd ref="10039795798" lat="40.7905594" lon="-73.9799084"/>
    <nd ref="10039645591" lat="40.7900391" lon="-73.9802913"/>
    <nd ref="42441564" lat="40.7899463" lon="-73.9803596"/>
    <nd ref="10039645584" lat="40.7898522" lon="-73.9804274"/>
    <nd ref="9168918207" lat="40.7893329" lon="-73.9808015"/>
    <nd ref="10039645579" lat="40.7893198" lon="-73.9808103"/>
    <nd ref="42441569" lat="40.7892552" lon="-73.9808538"/>
    <nd ref="10039741698" lat="40.7891917" lon="-73.9808906"/>
    <nd ref="9168918206" lat="40.7891770" lon="-73.9808991"/>
    <nd ref="2329939933" lat="40.7891079" lon="-73.9809346"/>
    <nd ref="2329939931" lat="40.7890334" lon="-73.9809659"/>
    <nd ref="2329939928" lat="40.7889541" lon="-73.9809950"/>
    <nd ref="2329939925" lat="40.7888684" lon="-73.9810168"/>
    <nd ref="9168918205" lat="40.7887683" lon="-73.9810332"/>
    <nd ref="2329939922" lat="40.7886607" lon="-73.9810496"/>
    <nd ref="10039741678" lat="40.7885566" lon="-73.9810619"/>
    <nd ref="42421820" lat="40.7884860" lon="-73.9810702"/>
    <nd ref="10039741672" lat="40.7884170" lon="-73.9810780"/>
    <nd ref="7554188472" lat="40.7882529" lon="-73.9810965"/>
    <nd ref="10039656211" lat="40.7877628" lon="-73.9811444"/>
    <nd ref="42437312" lat="40.7876839" lon="-73.9811521"/>
    <nd ref="10039693563" lat="40.7876197" lon="-73.9811599"/>
    <nd ref="7554195690" lat="40.7876095" lon="-73.9811611"/>
    <nd ref="10039653305" lat="40.7869805" lon="-73.9812188"/>
    <nd ref="42433569" lat="40.7868921" lon="-73.9812269"/>
    <nd ref="10039653300" lat="40.7868277" lon="-73.9812363"/>
    <nd ref="42441576" lat="40.7867112" lon="-73.9812529"/>
    <nd ref="9168918196" lat="40.7866479" lon="-73.9812626"/>
    <nd ref="42441580" lat="40.7865777" lon="-73.9812774"/>
    <nd ref="42441581" lat="40.7865019" lon="-73.9812976"/>
    <nd ref="9168918195" lat="40.7864425" lon="-73.9813167"/>
    <nd ref="9168918170" lat="40.7863760" lon="-73.9813405"/>
    <nd ref="42441583" lat="40.7863047" lon="-73.9813761"/>
    <nd ref="9168918194" lat="40.7862518" lon="-73.9814048"/>
    <nd ref="42441587" lat="40.7861933" lon="-73.9814421"/>
    <nd ref="9168918193" lat="40.7861318" lon="-73.9814798"/>
    <nd ref="2329939920" lat="40.7860781" lon="-73.9815182"/>
    <nd ref="9168918169" lat="40.7860137" lon="-73.9815740"/>
    <nd ref="2329939917" lat="40.7859548" lon="-73.9816307"/>
    <nd ref="42421778" lat="40.7855915" lon="-73.9820041"/>
    <nd ref="4906056159" lat="40.7850613" lon="-73.9825605"/>
    <tag k="hgv" v="no"/>
    <tag k="highway" v="secondary"/>
    <tag k="name" v="Riverside Drive"/>
    <tag k="name:ru" v="Риверсайд-драйв"/>
    <tag k="tiger:cfcc" v="A41"/>
    <tag k="tiger:county" v="New York, NY"/>
    <tag k="tiger:name_base" v="Riverside"/>
    <tag k="tiger:name_type" v="Dr"/>
    <tag k="tiger:reviewed" v="no"/>
    <tag k="wikidata" v="Q2589766"/>
    <tag k="wikipedia" v="en:Riverside Drive (Manhattan)"/>
  </way>
  <way id="46334582">
    <bounds minlat="40.7809928" minlon="-73.9847754" maxlat="40.7824893" maxlon="-73.9812112"/>
    <nd ref="1061531634" lat="40.7809928" lon="-73.9812112"/>
    <nd ref="11655721360" lat="40.7810772" lon="-73.9814187"/>
    <nd ref="11655721361" lat="40.7811193" lon="-73.9815189"/>
    <nd ref="9492556604" lat="40.7817109" lon="-73.9829288"/>
    <nd ref="42431008" lat="40.7817655" lon="-73.9830559"/>
    <nd ref="9492556591" lat="40.7818199" lon="-73.9831794"/>
    <nd ref="11655743703" lat="40.7824205" lon="-73.9846115"/>
    <nd ref="10039919283" lat="40.7824450" lon="-73.9846698"/>
    <nd ref="42441670" lat="40.7824893" lon="-73.9847754"/>
    <tag k="access" v="yes"/>
    <tag k="alt_name" v="West 75 Street"/>
    <tag k="cycleway" v="shared_lane"/>
    <tag k="highway" v="residential"/>
    <tag k="motor_vehicle:conditional" v="no @ (08:00-20:00)"/>
    <tag k="name" v="West 75th Street"/>
    <tag k="name:ru" v="Западная 75-я стрит"/>
    <tag k="oneway" v="yes"/>
    <tag k="tiger:cfcc" v="A41"/>
    <tag k="tiger:county" v="New York, NY"/>
    <tag k="tiger:name_base" v="75th"/>
    <tag k="tiger:name_base_1" v="75"/>
    <tag k="tiger:name_direction_prefix" v="W"/>
    <tag k="tiger:name_direction_prefix_1" v="W"/>
    <tag k="tiger:name_type" v="St"/>
    <tag k="tiger:name_type_1" v="St"/>
    <tag k="tiger:reviewed" v="no"/>
    <tag k="tiger:zip_left" v="10023"/>
    <tag k="tiger:zip_right" v="10023"/>
  </way>
  <way id="46334583">
    <bounds minlat="40.7805610" minlon="-73.9812112" maxlat="40.7809928" maxlon="-73.9802100"/>
    <nd ref="42442451" lat="40.7805610" lon="-73.9802100"/>
    <nd ref="6207264909" lat="40.7805992" lon="-73.9803030"/>
    <nd ref="9897616161" lat="40.7806161" lon="-73.9803442"/>
    <nd ref="11655721362" lat="40.7809480" lon="-73.9811098"/>
    <nd ref="1061531634" lat="40.7809928" lon="-73.9812112"/>
    <tag k="alt_name" v="West 75 Street"/>
    <tag k="hgv" v="local"/>
    <tag k="highway" v="secondary"/>
    <tag k="name" v="West 75th Street"/>
    <tag k="name:ru" v="Западная 75-я стрит"/>
    <tag k="oneway" v="yes"/>
    <tag k="surface" v="asphalt"/>
    <tag k="tiger:cfcc" v="A41"/>
    <tag k="tiger:county" v="New York, NY"/>
    <tag k="tiger:name_base" v="75th"/>
    <tag k="tiger:name_base_1" v="75"/>
    <tag k="tiger:name_direction_prefix" v="W"/>
    <tag k="tiger:name_direction_prefix_1" v="W"/>
    <tag k="tiger:name_type" v="St"/>
    <tag k="tiger:name_type_1" v="St"/>
    <tag k="tiger:reviewed" v="no"/>
    <tag k="tiger:zip_left" v="10023"/>
    <tag k="tiger:zip_right" v="10023"/>
  </way>
  <way id="46334584">
    <bounds minlat="40.7832589" minlon="-73.9751019" maxlat="40.7835117" maxlon="-73.9745499"/>
    <nd ref="4205805391" lat="40.7835117" lon="-73.9751019"/>
    <nd ref="4689234439" lat="40.7833220" lon="-73.9746503"/>
    <nd ref="42443280" lat="40.7832589" lon="-73.9745499"/>
    <tag k="highway" v="secondary"/>
    <tag k="lanes" v="2"/>
    <tag k="maxspeed" v="25 mph"/>
    <tag k="name" v="West 81st Street"/>
    <tag k="name:ru" v="Западная 81-я стрит"/>
    <tag k="oneway" v="yes"/>
    <tag k="sidewalk:both" v="separate"/>
    <tag k="surface" v="asphalt"/>
    <tag k="tiger:cfcc" v="A41"/>
    <tag k="tiger:county" v="New York, NY"/>
    <tag k="tiger:name_base" v="81st"/>
    <tag k="tiger:name_base_1" v="81"/>
    <tag k="tiger:name_direction_prefix" v="W"/>
    <tag k="tiger:name_direction_prefix_1" v="W"/>
    <tag k="tiger:name_type" v="St"/>
    <tag k="tiger:name_type_1" v="St"/>
    <tag k="tiger:reviewed" v="no"/>
    <tag k="tiger:zip_left" v="10024"/>
    <tag k="tiger:zip_right" v="10024"/>
    <tag k="turn:lanes" v="through|right"/>
  </way>
  <way id="46334585">
    <bounds minlat="40.7858381" minlon="-73.9812269" maxlat="40.7868921" maxlon="-73.9786335"/>
    <nd ref="42433569" lat="40.7868921" lon="-73.9812269"/>
    <nd ref="9168918173" lat="40.7868848" lon="-73.9811642"/>
    <nd ref="9168918172" lat="40.7868754" lon="-73.9811201"/>
    <nd ref="9168918171" lat="40.7868619" lon="-73.9810774"/>
    <nd ref="8727756078" lat="40.7863559" lon="-73.9798679"/>
    <nd ref="42431027" lat="40.7863040" lon="-73.9797464"/>
    <nd ref="8727756074" lat="40.7862488" lon="-73.9796150"/>
    <nd ref="8709397321" lat="40.7858820" lon="-73.9787361"/>
    <nd ref="42428661" lat="40.7858381" lon="-73.9786335"/>
    <tag k="alt_name" v="West 82 Street"/>
    <tag k="highway" v="residential"/>
    <tag k="name" v="West 82nd Street"/>
    <tag k="name:ru" v="Западная 82-я стрит"/>
    <tag k="oneway" v="yes"/>
    <tag k="surface" v="asphalt"/>
    <tag k="tiger:cfcc" v="A41"/>
    <tag k="tiger:county" v="New York, NY"/>
    <tag k="tiger:name_base" v="82nd"/>
    <tag k="tiger:name_base_1" v="82"/>
    <tag k="tiger:name_direction_prefix" v="W"/>
    <tag k="tiger:name_direction_prefix_1" v="W"/>
    <tag k="tiger:name_type" v="St"/>
    <tag k="tiger:name_type_1" v="St"/>
    <tag k="tiger:reviewed" v="no"/>
    <tag k="tiger:zip_left" v="10024"/>
    <tag k="tiger:zip_right" v="10024"/>
  </way>
  <way id="46546728">
    <bounds minlat="40.7854887" minlon="-73.9841179" maxlat="40.7856546" maxlon="-73.9840057"/>
    <nd ref="595295436" lat="40.7856546" lon="-73.9840057"/>
    <nd ref="595295438" lat="40.7854887" lon="-73.9841179"/>
    <tag k="bridge" v="yes"/>
    <tag k="goods" v="no"/>
    <tag k="hgv" v="no"/>
    <tag k="highway" v="motorway"/>
    <tag k="lanes" v="3"/>
    <tag k="layer" v="1"/>
    <tag k="maxspeed" v="50 mph"/>
    <tag k="motorcar" v="designated"/>
    <tag k="name" v="Henry Hudson Parkway"/>
    <tag k="not:name" v="West Side Highway"/>
    <tag k="oneway" v="yes"/>
    <tag k="ref" v="HH;NY 9A"/>
    <tag k="surface" v="asphalt"/>
    <tag k="unsigned_ref" v="NY 907V"/>
  </way>
  <way id="46546737">
    <bounds minlat="40.7849764" minlon="-73.9828455" maxlat="40.7850603" maxlon="-73.9826519"/>
    <nd ref="42422592" lat="40.7849764" lon="-73.9826519"/>
    <nd ref="595295501" lat="40.7850294" lon="-73.9827753"/>
    <nd ref="7912855687" lat="40.7850603" lon="-73.9828455"/>
    <tag k="cycleway" v="shared_lane"/>
    <tag k="hgv" v="no"/>
    <tag k="highway" v="secondary"/>
    <tag k="lanes" v="3"/>
    <tag k="lanes:backward" v="2"/>
    <tag k="lanes:forward" v="1"/>
    <tag k="maxspeed" v="25 mph"/>
    <tag k="name" v="West 79th Street"/>
    <tag k="name:ru" v="Западная 79-я стрит"/>
    <tag k="name_1" v="West 79 Street"/>
    <tag k="tiger:cfcc" v="A41"/>
    <tag k="tiger:county" v="New York, NY"/>
    <tag k="tiger:name_base" v="79th"/>
    <tag k="tiger:name_direction_prefix" v="W"/>
    <tag k="tiger:name_type" v="St"/>
    <tag k="tiger:zip_left" v="10024"/>
    <tag k="tiger:zip_right" v="10024"/>
    <tag k="turn:lanes:backward" v="through|through;right"/>
    <tag k="wikidata" v="Q2818314"/>
    <tag k="wikipedia" v="en:79th Street (Manhattan)"/>
  </way>
  <way id="46546758">
    <bounds minlat="40.7854386" minlon="-73.9839963" maxlat="40.7856036" maxlon="-73.9838819"/>
    <nd ref="595295538" lat="40.7854386" lon="-73.9839963"/>
    <nd ref="595295542" lat="40.7856036" lon="-73.9838819"/>
    <tag k="bridge" v="yes"/>
    <tag k="goods" v="no"/>
    <tag k="hgv" v="no"/>
    <tag k="highway" v="motorway"/>
    <tag k="lanes" v="3"/>
    <tag k="layer" v="1"/>
    <tag k="maxspeed" v="50 mph"/>
    <tag k="motorcar" v="designated"/>
    <tag k="name" v="Henry Hudson Parkway"/>
    <tag k="not:name" v="West Side Highway"/>
    <tag k="oneway" v="yes"/>
    <tag k="ref" v="HH;NY 9A"/>
    <tag k="surface" v="asphalt"/>
    <tag k="unsigned_ref" v="NY 907V"/>
  </way>
  <way id="46546766">
    <bounds minlat="40.7856036" minlon="-73.9838819" maxlat="40.7942649" maxlon="-73.9784713"/>
    <nd ref="595295542" lat="40.7856036" lon="-73.9838819"/>
    <nd ref="42423331" lat="40.7858779" lon="-73.9836941"/>
    <nd ref="12162590070" lat="40.7860300" lon="-73.9836018"/>
    <nd ref="7910063578" lat="40.7861853" lon="-73.9835150"/>
    <nd ref="7910052657" lat="40.7863475" lon="-73.9834264"/>
    <nd ref="61240930" lat="40.7865017" lon="-73.9833496"/>
    <nd ref="7910052648" lat="40.7866776" lon="-73.9832683"/>
    <nd ref="61244670" lat="40.7868604" lon="-73.9831880"/>
    <nd ref="7910052667" lat="40.7870525" lon="-73.9831100"/>
    <nd ref="7910052659" lat="40.7872914" lon="-73.9830214"/>
    <nd ref="7910052650" lat="40.7874886" lon="-73.9829527"/>
    <nd ref="42422399" lat="40.7880027" lon="-73.9827592"/>
    <nd ref="7910052642" lat="40.7882582" lon="-73.9826549"/>
    <nd ref="7910052662" lat="40.7884139" lon="-73.9825926"/>
    <nd ref="7910052653" lat="40.7885998" lon="-73.9825141"/>
    <nd ref="7910052644" lat="40.7887846" lon="-73.9824302"/>
    <nd ref="7910052664" lat="40.7889268" lon="-73.9823648"/>
    <nd ref="61240933" lat="40.7891168" lon="-73.9822770"/>
    <nd ref="7910052655" lat="40.7892988" lon="-73.9821903"/>
    <nd ref="7910052646" lat="40.7894620" lon="-73.9821096"/>
    <nd ref="7910052665" lat="40.7896298" lon="-73.9820233"/>
    <nd ref="61243000" lat="40.7898090" lon="-73.9819284"/>
    <nd ref="7910052656" lat="40.7899823" lon="-73.9818334"/>
    <nd ref="7910052647" lat="40.7901469" lon="-73.9817414"/>
    <nd ref="7910052666" lat="40.7903188" lon="-73.9816401"/>
    <nd ref="42458418" lat="40.7904683" lon="-73.9815530"/>
    <nd ref="7910052658" lat="40.7906449" lon="-73.9814458"/>
    <nd ref="9168918184" lat="40.7908981" lon="-73.9812855"/>
    <nd ref="9168918185" lat="40.7911476" lon="-73.9811221"/>
    <nd ref="7910052660" lat="40.7913908" lon="-73.9809546"/>
    <nd ref="7910052651" lat="40.7916380" lon="-73.9807841"/>
    <nd ref="7910052641" lat="40.7918727" lon="-73.9806143"/>
    <nd ref="7910052643" lat="40.7920990" lon="-73.9804432"/>
    <nd ref="7910052663" lat="40.7922809" lon="-73.9803119"/>
    <nd ref="61243002" lat="40.7924422" lon="-73.9801848"/>
    <nd ref="7910052654" lat="40.7925787" lon="-73.9800746"/>
    <nd ref="7910052645" lat="40.7927397" lon="-73.9799447"/>
    <nd ref="7908637458" lat="40.7928950" lon="-73.9798136"/>
    <nd ref="61243003" lat="40.7930384" lon="-73.9796921"/>
    <nd ref="7908637461" lat="40.7931858" lon="-73.9795621"/>
    <nd ref="7908637464" lat="40.7933320" lon="-73.9794279"/>
    <nd ref="61243004" lat="40.7935123" lon="-73.9792603"/>
    <nd ref="7908637467" lat="40.7936546" lon="-73.9791219"/>
    <nd ref="61243005" lat="40.7938066" lon="-73.9789659"/>
    <nd ref="7908637470" lat="40.7939469" lon="-73.9788211"/>
    <nd ref="2029349824" lat="40.7940864" lon="-73.9786712"/>
    <nd ref="595314118" lat="40.7942649" lon="-73.9784713"/>
    <tag k="goods" v="no"/>
    <tag k="hgv" v="no"/>
    <tag k="highway" v="motorway"/>
    <tag k="lanes" v="3"/>
    <tag k="maxspeed" v="50 mph"/>
    <tag k="motorcar" v="designated"/>
    <tag k="name" v="Henry Hudson Parkway"/>
    <tag k="not:name" v="West Side Highway"/>
    <tag k="oneway" v="yes"/>
    <tag k="ref" v="HH;NY 9A"/>
    <tag k="surface" v="asphalt"/>
    <tag k="unsigned_ref" v="NY 907V"/>
  </way>
  <way id="46563174">
    <bounds minlat="40.7873443" minlon="-73.9831775" maxlat="40.7943548" maxlon="-73.9786013"/>
    <nd ref="595314116" lat="40.7943548" lon="-73.9786013"/>
    <nd ref="61261110" lat="40.7941940" lon="-73.9787812"/>
    <nd ref="7908594129" lat="40.7940229" lon="-73.9789676"/>
    <nd ref="61261111" lat="40.7938546" lon="-73.9791418"/>
    <nd ref="7908594124" lat="40.7936811" lon="-73.9793160"/>
    <nd ref="61261113" lat="40.7935056" lon="-73.9794865"/>
    <nd ref="7908594118" lat="40.7933265" lon="-73.9796506"/>
    <nd ref="61261114" lat="40.7931469" lon="-73.9798099"/>
    <nd ref="7908594168" lat="40.7929631" lon="-73.9799660"/>
    <nd ref="7910007169" lat="40.7927810" lon="-73.9801165"/>
    <nd ref="61261115" lat="40.7925970" lon="-73.9802673"/>
    <nd ref="61269389" lat="40.7924142" lon="-73.9804129"/>
    <nd ref="7910007153" lat="40.7922242" lon="-73.9805575"/>
    <nd ref="61269390" lat="40.7920364" lon="-73.9807007"/>
    <nd ref="7910007160" lat="40.7918464" lon="-73.9808415"/>
    <nd ref="7910007167" lat="40.7916562" lon="-73.9809768"/>
    <nd ref="61269391" lat="40.7914647" lon="-73.9811101"/>
    <nd ref="7910007151" lat="40.7912727" lon="-73.9812412"/>
    <nd ref="61269392" lat="40.7910799" lon="-73.9813706"/>
    <nd ref="7910007158" lat="40.7908835" lon="-73.9814967"/>
    <nd ref="7910007165" lat="40.7906903" lon="-73.9816178"/>
    <nd ref="61269393" lat="40.7904921" lon="-73.9817391"/>
    <nd ref="7910007149" lat="40.7902955" lon="-73.9818551"/>
    <nd ref="7910007157" lat="40.7900937" lon="-73.9819696"/>
    <nd ref="61269394" lat="40.7898942" lon="-73.9820798"/>
    <nd ref="7910007164" lat="40.7896953" lon="-73.9821840"/>
    <nd ref="61269395" lat="40.7894930" lon="-73.9822870"/>
    <nd ref="7910007148" lat="40.7892887" lon="-73.9823868"/>
    <nd ref="61269397" lat="40.7890849" lon="-73.9824831"/>
    <nd ref="7910007156" lat="40.7888784" lon="-73.9825767"/>
    <nd ref="7910007163" lat="40.7886751" lon="-73.9826657"/>
    <nd ref="61269398" lat="40.7884690" lon="-73.9827527"/>
    <nd ref="7910007147" lat="40.7882646" lon="-73.9828357"/>
    <nd ref="61269399" lat="40.7880541" lon="-73.9829146"/>
    <nd ref="61269400" lat="40.7873443" lon="-73.9831775"/>
    <tag k="destination:lanes" v="none|none|none;79th Street;Boat Basin;Metropolitan Museum of Art;American Museum of Natural History;Children's Museum Of Manhattan;JCC in Manhattan;Lincoln Center;New York Historical Society;New York Institute of Technology"/>
    <tag k="goods" v="no"/>
    <tag k="hgv" v="no"/>
    <tag k="highway" v="motorway"/>
    <tag k="lanes" v="3"/>
    <tag k="maxspeed" v="50 mph"/>
    <tag k="motorcar" v="designated"/>
    <tag k="name" v="Henry Hudson Parkway"/>
    <tag k="not:name" v="West Side Highway"/>
    <tag k="oneway" v="yes"/>
    <tag k="ref" v="HH;NY 9A"/>
    <tag k="surface" v="asphalt"/>
    <tag k="turn:lanes" v="none|none|through;slight_right"/>
    <tag k="unsigned_ref" v="NY 907V"/>
  </way>
  <way id="46613701">
    <bounds minlat="40.7844692" minlon="-73.9791163" maxlat="40.7852101" maxlon="-73.9773536"/>
    <nd ref="42442469" lat="40.7844692" lon="-73.9773536"/>
    <nd ref="9906904522" lat="40.7845269" lon="-73.9774897"/>
    <nd ref="8709392108" lat="40.7850795" lon="-73.9788082"/>
    <nd ref="11655721348" lat="40.7851211" lon="-73.9789064"/>
    <nd ref="42428657" lat="40.7852101" lon="-73.9791163"/>
    <tag k="highway" v="residential"/>
    <tag k="lanes" v="1"/>
    <tag k="maxspeed" v="25 mph"/>
    <tag k="name" v="West 81st Street"/>
    <tag k="name:ru" v="Западная 81-я стрит"/>
    <tag k="oneway" v="yes"/>
    <tag k="sidewalk:both" v="separate"/>
    <tag k="surface" v="asphalt"/>
    <tag k="tiger:cfcc" v="A41"/>
    <tag k="tiger:county" v="New York, NY"/>
    <tag k="tiger:name_base" v="81st"/>
    <tag k="tiger:name_base_1" v="81"/>
    <tag k="tiger:name_direction_prefix" v="W"/>
    <tag k="tiger:name_direction_prefix_1" v="W"/>
    <tag k="tiger:name_type" v="St"/>
    <tag k="tiger:name_type_1" v="St"/>
    <tag k="tiger:reviewed" v="no"/>
    <tag k="tiger:zip_left" v="10024"/>
    <tag k="tiger:zip_right" v="10024"/>
  </way>
  <way id="68668533">
    <bounds minlat="40.7838930" minlon="-73.9821955" maxlat="40.7847833" maxlon="-73.9800838"/>
    <nd ref="42428653" lat="40.7838930" lon="-73.9800838"/>
    <nd ref="8709392078" lat="40.7839370" lon="-73.9801883"/>
    <nd ref="8727756097" lat="40.7842965" lon="-73.9810361"/>
    <nd ref="42431019" lat="40.7843536" lon="-73.9811697"/>
    <nd ref="8727756101" lat="40.7844025" lon="-73.9812917"/>
    <nd ref="9906904523" lat="40.7847833" lon="-73.9821955"/>
    <tag k="alt_name" v="West 79 Street"/>
    <tag k="bicycle" v="yes"/>
    <tag k="hgv" v="destination"/>
    <tag k="highway" v="secondary"/>
    <tag k="lanes" v="4"/>
    <tag k="maxspeed" v="25 mph"/>
    <tag k="name" v="West 79th Street"/>
    <tag k="name:ru" v="Западная 79-я стрит"/>
    <tag k="sidewalk:both" v="separate"/>
    <tag k="surface" v="asphalt"/>
    <tag k="tiger:cfcc" v="A41"/>
    <tag k="tiger:county" v="New York, NY"/>
    <tag k="tiger:name_base" v="79th"/>
    <tag k="tiger:name_base_1" v="79"/>
    <tag k="tiger:name_direction_prefix" v="W"/>
    <tag k="tiger:name_direction_prefix_1" v="W"/>
    <tag k="tiger:name_type" v="St"/>
    <tag k="tiger:name_type_1" v="St"/>
    <tag k="tiger:reviewed" v="no"/>
    <tag k="tiger:zip_left" v="10024"/>
    <tag k="tiger:zip_right" v="10024"/>
    <tag k="wikidata" v="Q2818314"/>
    <tag k="wikipedia" v="en:79th Street (Manhattan)"/>
  </way>
  <way id="68668560">
    <bounds minlat="40.7883617" minlon="-73.9778597" maxlat="40.7888916" maxlon="-73.9766064"/>
    <nd ref="42428674" lat="40.7883617" lon="-73.9766064"/>
    <nd ref="9906904531" lat="40.7883715" lon="-73.9766291"/>
    <nd ref="8699239255" lat="40.7884067" lon="-73.9767104"/>
    <nd ref="9492556589" lat="40.7888382" lon="-73.9777312"/>
    <nd ref="42431037" lat="40.7888916" lon="-73.9778597"/>
    <tag k="alt_name" v="West 86 Street"/>
    <tag k="hgv" v="destination"/>
    <tag k="highway" v="secondary"/>
    <tag k="lanes" v="4"/>
    <tag k="maxspeed" v="25 mph"/>
    <tag k="name" v="West 86th Street"/>
    <tag k="name:ru" v="Западная 86-я стрит"/>
    <tag k="surface" v="asphalt"/>
    <tag k="tiger:cfcc" v="A41"/>
    <tag k="tiger:county" v="New York, NY"/>
    <tag k="tiger:name_base" v="86th"/>
    <tag k="tiger:name_base_1" v="86"/>
    <tag k="tiger:name_direction_prefix" v="W"/>
    <tag k="tiger:name_direction_prefix_1" v="W"/>
    <tag k="tiger:name_type" v="St"/>
    <tag k="tiger:name_type_1" v="St"/>
    <tag k="tiger:reviewed" v="no"/>
    <tag k="tiger:zip_left" v="10024"/>
    <tag k="tiger:zip_right" v="10024"/>
    <tag k="wikidata" v="Q4644949"/>
    <tag k="wikipedia" v="en:86th Street (Manhattan)"/>
  </way>
  <way id="169381959">
    <bounds minlat="40.7798127" minlon="-73.9844806" maxlat="40.7801950" maxlon="-73.9842013"/>
    <nd ref="42431004" lat="40.7798127" lon="-73.9844806"/>
    <nd ref="9177400762" lat="40.7799150" lon="-73.9844100"/>
    <nd ref="7818397388" lat="40.7801950" lon="-73.9842013"/>
    <tag k="cycleway:both" v="no"/>
    <tag k="goods" v="no"/>
    <tag k="highway" v="tertiary"/>
    <tag k="lanes" v="3"/>
    <tag k="lanes:backward" v="2"/>
    <tag k="lanes:forward" v="1"/>
    <tag k="maxspeed" v="25 mph"/>
    <tag k="name" v="West End Avenue"/>
    <tag k="name:ru" v="Вест-Энд-авеню"/>
    <tag k="network" v="lcn"/>
    <tag k="oneway" v="no"/>
    <tag k="route" v="bicycle"/>
    <tag k="sidewalk" v="both"/>
    <tag k="surface" v="asphalt"/>
    <tag k="tiger:cfcc" v="A41"/>
    <tag k="tiger:county" v="New York, NY"/>
    <tag k="tiger:name_base" v="End"/>
    <tag k="tiger:name_direction_prefix" v="W"/>
    <tag k="tiger:name_type" v="Ave"/>
    <tag k="tiger:reviewed" v="no"/>
    <tag k="turn:lanes:backward" v="through|right"/>
    <tag k="wikidata" v="Q130405"/>
    <tag k="wikipedia" v="en:Eleventh Avenue (Manhattan)"/>
  </way>
  <way id="169381964">
    <bounds minlat="40.7798127" minlon="-73.9849613" maxlat="40.7800179" maxlon="-73.9844806"/>
    <nd ref="42431004" lat="40.7798127" lon="-73.9844806"/>
    <nd ref="9492556584" lat="40.7798683" lon="-73.9846121"/>
    <nd ref="4207865790" lat="40.7800179" lon="-73.9849613"/>
    <tag k="cycleway:both" v="no"/>
    <tag k="hgv" v="destination"/>
    <tag k="highway" v="secondary"/>
    <tag k="lanes" v="4"/>
    <tag k="maxspeed" v="25 mph"/>
    <tag k="name" v="West 72nd Street"/>
    <tag k="name:ru" v="Западная 72-я стрит"/>
    <tag k="surface" v="asphalt"/>
    <tag k="tiger:cfcc" v="A41"/>
    <tag k="tiger:county" v="New York, NY"/>
    <tag k="tiger:name_base" v="72nd"/>
    <tag k="tiger:name_base_1" v="72"/>
    <tag k="tiger:name_direction_prefix" v="W"/>
    <tag k="tiger:name_direction_prefix_1" v="W"/>
    <tag k="tiger:name_type" v="St"/>
    <tag k="tiger:name_type_1" v="St"/>
    <tag k="tiger:reviewed" v="no"/>
    <tag k="tiger:zip_left" v="10023"/>
    <tag k="tiger:zip_right" v="10023"/>
    <tag k="wikidata" v="Q264022"/>
    <tag k="wikipedia" v="en:72nd Street (Manhattan)"/>
  </way>
  <way id="188290057">
    <bounds minlat="40.7806719" minlon="-73.9838929" maxlat="40.7837916" maxlon="-73.9764438"/>
    <nd ref="42438859" lat="40.7806719" lon="-73.9764438"/>
    <nd ref="8318991974" lat="40.7807053" lon="-73.9765701"/>
    <nd ref="12850047598" lat="40.7807910" lon="-73.9767736"/>
    <nd ref="9916170494" lat="40.7817806" lon="-73.9791227"/>
    <nd ref="9611179674" lat="40.7817941" lon="-73.9791584"/>
    <nd ref="42438862" lat="40.7818426" lon="-73.9792740"/>
    <nd ref="9611179673" lat="40.7818980" lon="-73.9794056"/>
    <nd ref="8709392032" lat="40.7824058" lon="-73.9806155"/>
    <nd ref="1061531695" lat="40.7824512" lon="-73.9807232"/>
    <nd ref="42428648" lat="40.7825317" lon="-73.9809157"/>
    <nd ref="10039514106" lat="40.7825777" lon="-73.9810146"/>
    <nd ref="8831879421" lat="40.7829776" lon="-73.9819665"/>
    <nd ref="9492556537" lat="40.7829929" lon="-73.9820043"/>
    <nd ref="42431015" lat="40.7830455" lon="-73.9821238"/>
    <nd ref="9492556566" lat="40.7830978" lon="-73.9822482"/>
    <nd ref="9916170493" lat="40.7837253" lon="-73.9837357"/>
    <nd ref="10039870521" lat="40.7837462" lon="-73.9837852"/>
    <nd ref="42438867" lat="40.7837916" lon="-73.9838929"/>
    <tag k="alt_name" v="West 77 Street"/>
    <tag k="bicycle" v="yes"/>
    <tag k="cycleway:left" v="lane"/>
    <tag k="highway" v="residential"/>
    <tag k="lanes" v="1"/>
    <tag k="maxspeed" v="25 mph"/>
    <tag k="name" v="West 77th Street"/>
    <tag k="name:ru" v="Западная 77-я стрит"/>
    <tag k="oneway" v="yes"/>
    <tag k="sidewalk" v="both"/>
    <tag k="surface" v="asphalt"/>
    <tag k="tiger:cfcc" v="A41"/>
    <tag k="tiger:county" v="New York, NY"/>
    <tag k="tiger:name_base" v="77th"/>
    <tag k="tiger:name_base_1" v="77"/>
    <tag k="tiger:name_direction_prefix" v="W"/>
    <tag k="tiger:name_direction_prefix_1" v="W"/>
    <tag k="tiger:name_type" v="St"/>
    <tag k="tiger:name_type_1" v="St"/>
    <tag k="tiger:reviewed" v="no"/>
    <tag k="tiger:zip_left" v="10024"/>
    <tag k="tiger:zip_right" v="10024"/>
  </way>
  <way id="195743132">
    <bounds minlat="40.7831527" minlon="-73.9783277" maxlat="40.7843100" maxlon="-73.9774740"/>
    <nd ref="42442463" lat="40.7831527" lon="-73.9783277"/>
    <nd ref="9897810872" lat="40.7832469" lon="-73.9782584"/>
    <nd ref="10037505649" lat="40.7837777" lon="-73.9778629"/>
    <nd ref="42421772" lat="40.7838280" lon="-73.9778254"/>
    <nd ref="10037505644" lat="40.7838930" lon="-73.9777779"/>
    <nd ref="6929267030" lat="40.7841721" lon="-73.9775743"/>
    <nd ref="9457151133" lat="40.7843100" lon="-73.9774740"/>
    <tag k="cycleway:left" v="track"/>
    <tag k="cycleway:left:oneway" v="yes"/>
    <tag k="hgv" v="local"/>
    <tag k="highway" v="primary"/>
    <tag k="lanes" v="3"/>
    <tag k="name" v="Amsterdam Avenue"/>
    <tag k="name:ru" v="Амстердам-авеню"/>
    <tag k="oneway" v="yes"/>
    <tag k="sidewalk:both" v="separate"/>
    <tag k="surface" v="asphalt"/>
    <tag k="tiger:cfcc" v="A41"/>
    <tag k="tiger:county" v="New York, NY"/>
    <tag k="tiger:name_base" v="Amsterdam"/>
    <tag k="tiger:name_type" v="Ave"/>
    <tag k="tiger:reviewed" v="no"/>
    <tag k="tiger:zip_left" v="10040"/>
    <tag k="tiger:zip_left_1" v="10040"/>
    <tag k="wikidata" v="Q130388"/>
    <tag k="wikipedia" v="en:Tenth Avenue (Manhattan)"/>
  </way>
  <way id="195743133">
    <bounds minlat="40.7844692" minlon="-73.9773536" maxlat="40.7855632" maxlon="-73.9765601"/>
    <nd ref="42442469" lat="40.7844692" lon="-73.9773536"/>
    <nd ref="9906904521" lat="40.7845276" lon="-73.9773109"/>
    <nd ref="10039878624" lat="40.7850492" lon="-73.9769328"/>
    <nd ref="42433567" lat="40.7851032" lon="-73.9768937"/>
    <nd ref="10039927872" lat="40.7851624" lon="-73.9768507"/>
    <nd ref="6929267014" lat="40.7855632" lon="-73.9765601"/>
    <tag k="cycleway:left" v="track"/>
    <tag k="cycleway:left:oneway" v="yes"/>
    <tag k="hgv" v="local"/>
    <tag k="highway" v="primary"/>
    <tag k="lanes" v="3"/>
    <tag k="name" v="Amsterdam Avenue"/>
    <tag k="name:ru" v="Амстердам-авеню"/>
    <tag k="oneway" v="yes"/>
    <tag k="sidewalk:both" v="separate"/>
    <tag k="surface" v="asphalt"/>
    <tag k="tiger:cfcc" v="A41"/>
    <tag k="tiger:county" v="New York, NY"/>
    <tag k="tiger:name_base" v="Amsterdam"/>
    <tag k="tiger:name_type" v="Ave"/>
    <tag k="tiger:reviewed" v="no"/>
    <tag k="tiger:zip_left" v="10040"/>
    <tag k="tiger:zip_left_1" v="10040"/>
    <tag k="wikidata" v="Q130388"/>
    <tag k="wikipedia" v="en:Tenth Avenue (Manhattan)"/>
  </way>
  <way id="195743136">
    <bounds minlat="40.7792840" minlon="-73.9811164" maxlat="40.7804048" maxlon="-73.9803202"/>
    <nd ref="42432564" lat="40.7792840" lon="-73.9811164"/>
    <nd ref="11655743685" lat="40.7793463" lon="-73.9810717"/>
    <nd ref="9177424870" lat="40.7798692" lon="-73.9806966"/>
    <nd ref="42442445" lat="40.7799206" lon="-73.9806592"/>
    <nd ref="9441745384" lat="40.7799791" lon="-73.9806212"/>
    <nd ref="8323051889" lat="40.7804048" lon="-73.9803202"/>
    <tag k="cycleway:left" v="track"/>
    <tag k="cycleway:left:oneway" v="yes"/>
    <tag k="hgv" v="local"/>
    <tag k="highway" v="primary"/>
    <tag k="lanes" v="3"/>
    <tag k="name" v="Amsterdam Avenue"/>
    <tag k="name:ru" v="Амстердам-авеню"/>
    <tag k="oneway" v="yes"/>
    <tag k="surface" v="asphalt"/>
    <tag k="tiger:cfcc" v="A41"/>
    <tag k="tiger:county" v="New York, NY"/>
    <tag k="tiger:name_base" v="Amsterdam"/>
    <tag k="tiger:name_type" v="Ave"/>
    <tag k="tiger:reviewed" v="no"/>
    <tag k="tiger:zip_left" v="10040"/>
    <tag k="tiger:zip_left_1" v="10040"/>
    <tag k="wikidata" v="Q130388"/>
    <tag k="wikipedia" v="en:Tenth Avenue (Manhattan)"/>
  </way>
  <way id="195743158">
    <bounds minlat="40.7812798" minlon="-73.9759984" maxlat="40.7819606" maxlon="-73.9754991"/>
    <nd ref="42443347" lat="40.7819606" lon="-73.9754991"/>
    <nd ref="9897810836" lat="40.7818684" lon="-73.9755666"/>
    <nd ref="10156924788" lat="40.7813282" lon="-73.9759631"/>
    <nd ref="42428061" lat="40.7812798" lon="-73.9759984"/>
    <tag k="cycleway:left" v="track"/>
    <tag k="cycleway:left:oneway" v="yes"/>
    <tag k="hgv" v="local"/>
    <tag k="highway" v="primary"/>
    <tag k="lanes" v="3"/>
    <tag k="lit" v="yes"/>
    <tag k="maxspeed" v="25 mph"/>
    <tag k="maxspeed:type" v="sign"/>
    <tag k="name" v="Columbus Avenue"/>
    <tag k="name:ru" v="Коламбус-авеню"/>
    <tag k="oneway" v="yes"/>
    <tag k="sidewalk" v="separate"/>
    <tag k="surface" v="asphalt"/>
    <tag k="tiger:cfcc" v="A41"/>
    <tag k="tiger:county" v="New York, NY"/>
    <tag k="tiger:name_base" v="Columbus"/>
    <tag k="tiger:name_type" v="Ave"/>
    <tag k="tiger:reviewed" v="no"/>
    <tag k="tiger:zip_left" v="10025"/>
    <tag k="tiger:zip_right" v="10025"/>
    <tag k="wikidata" v="Q130378"/>
    <tag k="wikipedia" v="en:Ninth Avenue (Manhattan)"/>
  </way>
  <way id="195743159">
    <bounds minlat="40.7819606" minlon="-73.9754991" maxlat="40.7826383" maxlon="-73.9750067"/>
    <nd ref="42421769" lat="40.7826383" lon="-73.9750067"/>
    <nd ref="9897810855" lat="40.7825978" lon="-73.9750368"/>
    <nd ref="9897810844" lat="40.7820554" lon="-73.9754275"/>
    <nd ref="42443347" lat="40.7819606" lon="-73.9754991"/>
    <tag k="cycleway:left" v="track"/>
    <tag k="cycleway:left:oneway" v="yes"/>
    <tag k="hgv" v="local"/>
    <tag k="highway" v="primary"/>
    <tag k="lanes" v="3"/>
    <tag k="lit" v="yes"/>
    <tag k="maxspeed" v="25 mph"/>
    <tag k="maxspeed:type" v="sign"/>
    <tag k="name" v="Columbus Avenue"/>
    <tag k="name:ru" v="Коламбус-авеню"/>
    <tag k="oneway" v="yes"/>
    <tag k="sidewalk" v="separate"/>
    <tag k="surface" v="asphalt"/>
    <tag k="tiger:cfcc" v="A41"/>
    <tag k="tiger:county" v="New York, NY"/>
    <tag k="tiger:name_base" v="Columbus"/>
    <tag k="tiger:name_type" v="Ave"/>
    <tag k="tiger:reviewed" v="no"/>
    <tag k="tiger:zip_left" v="10025"/>
    <tag k="tiger:zip_right" v="10025"/>
    <tag k="turn:lanes" v="||right"/>
    <tag k="wikidata" v="Q130378"/>
    <tag k="wikipedia" v="en:Ninth Avenue (Manhattan)"/>
  </way>
  <way id="195743217">
    <bounds minlat="40.7795842" minlon="-73.9853731" maxlat="40.7810707" maxlon="-73.9818317"/>
    <nd ref="42428637" lat="40.7795842" lon="-73.9818317"/>
    <nd ref="5115916418" lat="40.7796254" lon="-73.9819284"/>
    <nd ref="9492542173" lat="40.7804401" lon="-73.9838547"/>
    <nd ref="42431005" lat="40.7804948" lon="-73.9839842"/>
    <nd ref="9492542182" lat="40.7805486" lon="-73.9841119"/>
    <nd ref="5115922043" lat="40.7810325" lon="-73.9852621"/>
    <nd ref="9168918186" lat="40.7810529" lon="-73.9853186"/>
    <nd ref="42432572" lat="40.7810707" lon="-73.9853731"/>
    <tag k="highway" v="residential"/>
    <tag k="name" v="West 73rd Street"/>
    <tag k="name:ru" v="Западная 73-я стрит"/>
    <tag k="name_1" v="West 73 Street"/>
    <tag k="oneway" v="yes"/>
    <tag k="tiger:cfcc" v="A41"/>
    <tag k="tiger:county" v="New York, NY"/>
    <tag k="tiger:name_base" v="73rd"/>
    <tag k="tiger:name_base_1" v="73"/>
    <tag k="tiger:name_direction_prefix" v="W"/>
    <tag k="tiger:name_direction_prefix_1" v="W"/>
    <tag k="tiger:name_type" v="St"/>
    <tag k="tiger:name_type_1" v="St"/>
    <tag k="tiger:reviewed" v="no"/>
    <tag k="tiger:zip_left" v="10023"/>
    <tag k="tiger:zip_right" v="10023"/>
  </way>
  <way id="209462186">
    <bounds minlat="40.7856725" minlon="-73.9814421" maxlat="40.7861933" maxlon="-73.9802092"/>
    <nd ref="42431024" lat="40.7856725" lon="-73.9802092"/>
    <nd ref="8727756086" lat="40.7857230" lon="-73.9803332"/>
    <nd ref="10039664852" lat="40.7861533" lon="-73.9813480"/>
    <nd ref="42441587" lat="40.7861933" lon="-73.9814421"/>
    <tag k="highway" v="residential"/>
    <tag k="name" v="West 81st Street"/>
    <tag k="name:ru" v="Западная 81-я стрит"/>
    <tag k="oneway" v="yes"/>
    <tag k="tiger:cfcc" v="A41"/>
    <tag k="tiger:county" v="New York, NY"/>
    <tag k="tiger:name_base" v="81st"/>
    <tag k="tiger:name_base_1" v="81"/>
    <tag k="tiger:name_direction_prefix" v="W"/>
    <tag k="tiger:name_direction_prefix_1" v="W"/>
    <tag k="tiger:name_type" v="St"/>
    <tag k="tiger:name_type_1" v="St"/>
    <tag k="tiger:reviewed" v="no"/>
    <tag k="tiger:zip_left" v="10024"/>
    <tag k="tiger:zip_right" v="10024"/>
  </way>
  <way id="209462187">
    <bounds minlat="40.7852101" minlon="-73.9802092" maxlat="40.7856725" maxlon="-73.9791163"/>
    <nd ref="42428657" lat="40.7852101" lon="-73.9791163"/>
    <nd ref="8709392114" lat="40.7852494" lon="-73.9792086"/>
    <nd ref="8727756082" lat="40.7856173" lon="-73.9800775"/>
    <nd ref="42431024" lat="40.7856725" lon="-73.9802092"/>
    <tag k="alt_name" v="Victor Wald Way"/>
    <tag k="highway" v="residential"/>
    <tag k="name" v="West 81st Street"/>
    <tag k="name:ru" v="Западная 81-я стрит"/>
    <tag k="oneway" v="yes"/>
    <tag k="tiger:cfcc" v="A41"/>
    <tag k="tiger:county" v="New York, NY"/>
    <tag k="tiger:name_base" v="81st"/>
    <tag k="tiger:name_base_1" v="81"/>
    <tag k="tiger:name_direction_prefix" v="W"/>
    <tag k="tiger:name_direction_prefix_1" v="W"/>
    <tag k="tiger:name_type" v="St"/>
    <tag k="tiger:name_type_1" v="St"/>
    <tag k="tiger:reviewed" v="no"/>
    <tag k="tiger:zip_left" v="10024"/>
    <tag k="tiger:zip_right" v="10024"/>
  </way>
  <way id="275298552">
    <bounds minlat="40.7793715" minlon="-73.9802100" maxlat="40.7805610" maxlon="-73.9773846"/>
    <nd ref="42443344" lat="40.7793715" lon="-73.9773846"/>
    <nd ref="9677631659" lat="40.7794155" lon="-73.9774860"/>
    <nd ref="9891508838" lat="40.7805101" lon="-73.9800883"/>
    <nd ref="42442451" lat="40.7805610" lon="-73.9802100"/>
    <tag k="highway" v="residential"/>
    <tag k="name" v="West 75th Street"/>
    <tag k="name:ru" v="Западная 75-я стрит"/>
    <tag k="name_1" v="West 75 Street"/>
    <tag k="oneway" v="yes"/>
    <tag k="sidewalk:both" v="separate"/>
    <tag k="surface" v="asphalt"/>
    <tag k="tiger:cfcc" v="A41"/>
    <tag k="tiger:county" v="New York, NY"/>
    <tag k="tiger:name_base" v="75th"/>
    <tag k="tiger:name_base_1" v="75"/>
    <tag k="tiger:name_direction_prefix" v="W"/>
    <tag k="tiger:name_direction_prefix_1" v="W"/>
    <tag k="tiger:name_type" v="St"/>
    <tag k="tiger:name_type_1" v="St"/>
    <tag k="tiger:reviewed" v="no"/>
    <tag k="tiger:zip_left" v="10023"/>
    <tag k="tiger:zip_right" v="10023"/>
  </way>
  <way id="320464096">
    <bounds minlat="40.7888916" minlon="-73.9778597" maxlat="40.7892539" maxlon="-73.9775934"/>
    <nd ref="42431037" lat="40.7888916" lon="-73.9778597"/>
    <nd ref="9492556545" lat="40.7889828" lon="-73.9777934"/>
    <nd ref="7818397397" lat="40.7892539" lon="-73.9775934"/>
    <tag k="goods" v="no"/>
    <tag k="highway" v="tertiary"/>
    <tag k="lanes" v="3"/>
    <tag k="lanes:backward" v="2"/>
    <tag k="lanes:forward" v="1"/>
    <tag k="name" v="West End Avenue"/>
    <tag k="name:ru" v="Вест-Энд-авеню"/>
    <tag k="network" v="lcn"/>
    <tag k="oneway" v="no"/>
    <tag k="route" v="bicycle"/>
    <tag k="sidewalk" v="both"/>
    <tag k="surface" v="asphalt"/>
    <tag k="tiger:cfcc" v="A41"/>
    <tag k="tiger:county" v="New York, NY"/>
    <tag k="tiger:name_base" v="End"/>
    <tag k="tiger:name_direction_prefix" v="W"/>
    <tag k="tiger:name_type" v="Ave"/>
    <tag k="tiger:reviewed" v="no"/>
    <tag k="turn:lanes:backward" v="left|"/>
    <tag k="wikidata" v="Q130405"/>
    <tag k="wikipedia" v="en:Eleventh Avenue (Manhattan)"/>
  </way>
  <way id="320464097">
    <bounds minlat="40.7888916" minlon="-73.9803596" maxlat="40.7899463" maxlon="-73.9778597"/>
    <nd ref="42431037" lat="40.7888916" lon="-73.9778597"/>
    <nd ref="9492556533" lat="40.7889441" lon="-73.9779857"/>
    <nd ref="10039645587" lat="40.7899025" lon="-73.9802558"/>
    <nd ref="42441564" lat="40.7899463" lon="-73.9803596"/>
    <tag k="hgv" v="destination"/>
    <tag k="highway" v="secondary"/>
    <tag k="lanes" v="4"/>
    <tag k="maxspeed" v="25 mph"/>
    <tag k="name" v="West 86th Street"/>
    <tag k="name:ru" v="Западная 86-я стрит"/>
    <tag k="name_1" v="West 86 Street"/>
    <tag k="surface" v="asphalt"/>
    <tag k="tiger:cfcc" v="A41"/>
    <tag k="tiger:county" v="New York, NY"/>
    <tag k="tiger:name_base" v="86th"/>
    <tag k="tiger:name_base_1" v="86"/>
    <tag k="tiger:name_direction_prefix" v="W"/>
    <tag k="tiger:name_direction_prefix_1" v="W"/>
    <tag k="tiger:name_type" v="St"/>
    <tag k="tiger:name_type_1" v="St"/>
    <tag k="tiger:reviewed" v="no"/>
    <tag k="tiger:zip_left" v="10024"/>
    <tag k="tiger:zip_right" v="10024"/>
    <tag k="wikidata" v="Q4644949"/>
    <tag k="wikipedia" v="en:86th Street (Manhattan)"/>
  </way>
  <way id="320516786">
    <bounds minlat="40.7882886" minlon="-73.9764311" maxlat="40.7889354" maxlon="-73.9758801"/>
    <nd ref="1061531603" lat="40.7882886" lon="-73.9764311"/>
    <nd ref="10039783368" lat="40.7883839" lon="-73.9763516"/>
    <nd ref="8699239270" lat="40.7888850" lon="-73.9759235"/>
    <nd ref="1061531637" lat="40.7889354" lon="-73.9758801"/>
    <tag k="hgv" v="local"/>
    <tag k="highway" v="primary"/>
    <tag k="name" v="Broadway"/>
    <tag k="name:en" v="Broadway"/>
    <tag k="name:ja" v="ブロードウェイ"/>
    <tag k="name:ru" v="Бродвей"/>
    <tag k="oneway" v="yes"/>
    <tag k="surface" v="asphalt"/>
    <tag k="tiger:cfcc" v="A21"/>
    <tag k="tiger:county" v="New York, NY"/>
    <tag k="tiger:name_base" v="Broadway"/>
    <tag k="tiger:name_base_1" v="United States Highway 9"/>
    <tag k="tiger:reviewed" v="no"/>
    <tag k="wikidata" v="Q11260"/>
    <tag k="wikipedia" v="en:Broadway (Manhattan)"/>
  </way>
  <way id="320516787">
    <bounds minlat="40.7882886" minlon="-73.9766064" maxlat="40.7883617" maxlon="-73.9764311"/>
    <nd ref="1061531603" lat="40.7882886" lon="-73.9764311"/>
    <nd ref="42428674" lat="40.7883617" lon="-73.9766064"/>
    <tag k="hgv" v="local"/>
    <tag k="highway" v="secondary"/>
    <tag k="maxspeed" v="25 mph"/>
    <tag k="name" v="West 86th Street"/>
    <tag k="name:ru" v="Западная 86-я стрит"/>
    <tag k="name_1" v="West 86 Street"/>
    <tag k="surface" v="asphalt"/>
    <tag k="tiger:cfcc" v="A41"/>
    <tag k="tiger:county" v="New York, NY"/>
    <tag k="tiger:name_base" v="86th"/>
    <tag k="tiger:name_base_1" v="86"/>
    <tag k="tiger:name_direction_prefix" v="W"/>
    <tag k="tiger:name_direction_prefix_1" v="W"/>
    <tag k="tiger:name_type" v="St"/>
    <tag k="tiger:name_type_1" v="St"/>
    <tag k="tiger:reviewed" v="no"/>
    <tag k="tiger:zip_left" v="10024"/>
    <tag k="tiger:zip_right" v="10024"/>
    <tag k="wikidata" v="Q4644949"/>
    <tag k="wikipedia" v="en:86th Street (Manhattan)"/>
  </way>
  <way id="320516789">
    <bounds minlat="40.7889354" minlon="-73.9758801" maxlat="40.7920649" maxlon="-73.9735644"/>
    <nd ref="1061531637" lat="40.7889354" lon="-73.9758801"/>
    <nd ref="8699239267" lat="40.7889976" lon="-73.9758341"/>
    <nd ref="8699239300" lat="40.7895076" lon="-73.9754568"/>
    <nd ref="1061531810" lat="40.7895628" lon="-73.9754158"/>
    <nd ref="8699239297" lat="40.7896221" lon="-73.9753720"/>
    <nd ref="8699249529" lat="40.7901367" lon="-73.9749912"/>
    <nd ref="1061531768" lat="40.7901845" lon="-73.9749558"/>
    <nd ref="8699249526" lat="40.7902408" lon="-73.9749142"/>
    <nd ref="8699249553" lat="40.7907607" lon="-73.9745295"/>
    <nd ref="1061531682" lat="40.7908085" lon="-73.9744941"/>
    <nd ref="8699249556" lat="40.7908740" lon="-73.9744456"/>
    <nd ref="8687853808" lat="40.7913848" lon="-73.9740676"/>
    <nd ref="1061531731" lat="40.7914466" lon="-73.9740219"/>
    <nd ref="8687853806" lat="40.7914985" lon="-73.9739835"/>
    <nd ref="8687882621" lat="40.7920072" lon="-73.9736071"/>
    <nd ref="1061531736" lat="40.7920649" lon="-73.9735644"/>
    <tag k="cycleway:right" v="no"/>
    <tag k="hgv" v="local"/>
    <tag k="highway" v="primary"/>
    <tag k="lanes" v="4"/>
    <tag k="name" v="Broadway"/>
    <tag k="name:en" v="Broadway"/>
    <tag k="name:ja" v="ブロードウェイ"/>
    <tag k="name:ru" v="Бродвей"/>
    <tag k="oneway" v="yes"/>
    <tag k="surface" v="asphalt"/>
    <tag k="tiger:cfcc" v="A21"/>
    <tag k="tiger:county" v="New York, NY"/>
    <tag k="tiger:name_base" v="Broadway"/>
    <tag k="tiger:name_base_1" v="United States Highway 9"/>
    <tag k="tiger:reviewed" v="no"/>
    <tag k="wikidata" v="Q11260"/>
    <tag k="wikipedia" v="en:Broadway (Manhattan)"/>
  </way>
  <way id="320516790">
    <bounds minlat="40.7895635" minlon="-73.9773679" maxlat="40.7901949" maxlon="-73.9769096"/>
    <nd ref="42431039" lat="40.7895635" lon="-73.9773679"/>
    <nd ref="11670601660" lat="40.7896217" lon="-73.9773258"/>
    <nd ref="11670622969" lat="40.7901349" lon="-73.9769532"/>
    <nd ref="42431044" lat="40.7901949" lon="-73.9769096"/>
    <tag k="goods" v="no"/>
    <tag k="highway" v="tertiary"/>
    <tag k="lanes" v="2"/>
    <tag k="maxspeed" v="25 mph"/>
    <tag k="name" v="West End Avenue"/>
    <tag k="name:ru" v="Вест-Энд-авеню"/>
    <tag k="network" v="lcn"/>
    <tag k="oneway" v="no"/>
    <tag k="postal_code" v="10024"/>
    <tag k="route" v="bicycle"/>
    <tag k="sidewalk" v="both"/>
    <tag k="surface" v="asphalt"/>
    <tag k="tiger:cfcc" v="A41"/>
    <tag k="tiger:county" v="New York, NY"/>
    <tag k="tiger:name_base" v="End"/>
    <tag k="tiger:name_direction_prefix" v="W"/>
    <tag k="tiger:name_type" v="Ave"/>
    <tag k="tiger:reviewed" v="no"/>
    <tag k="wikidata" v="Q130405"/>
    <tag k="wikipedia" v="en:Eleventh Avenue (Manhattan)"/>
  </way>
  <way id="400334766">
    <bounds minlat="40.7852901" minlon="-73.9840936" maxlat="40.7856022" maxlon="-73.9833865"/>
    <nd ref="42425188" lat="40.7856022" lon="-73.9840936"/>
    <nd ref="42422366" lat="40.7853718" lon="-73.9835715"/>
    <nd ref="4205820213" lat="40.7852901" lon="-73.9833865"/>
    <tag k="bicycle" v="no"/>
    <tag k="fixme" v="bicycle=no and oneway=yes are temporary during construction; restore oneway=no and cycleway tags after survey once construction is complete"/>
    <tag k="hgv" v="no"/>
    <tag k="highway" v="secondary"/>
    <tag k="lanes" v="1"/>
    <tag k="maxspeed" v="25 mph"/>
    <tag k="name" v="West 79th Street"/>
    <tag k="name:ru" v="Западная 79-я стрит"/>
    <tag k="name_1" v="West 79 Street"/>
    <tag k="oneway" v="yes"/>
    <tag k="surface" v="asphalt"/>
    <tag k="tiger:cfcc" v="A41"/>
    <tag k="tiger:county" v="New York, NY"/>
    <tag k="tiger:name_base" v="79th"/>
    <tag k="tiger:name_direction_prefix" v="W"/>
    <tag k="tiger:name_type" v="St"/>
    <tag k="tiger:zip_left" v="10024"/>
    <tag k="tiger:zip_right" v="10024"/>
    <tag k="wikidata" v="Q2818314"/>
    <tag k="wikipedia" v="en:79th Street (Manhattan)"/>
  </way>
  <way id="404253364">
    <bounds minlat="40.7838930" minlon="-73.9800838" maxlat="40.7927728" maxlon="-73.9733006"/>
    <nd ref="42428705" lat="40.7927728" lon="-73.9733006"/>
    <nd ref="10061230054" lat="40.7927167" lon="-73.9733404"/>
    <nd ref="8687882618" lat="40.7921973" lon="-73.9737054"/>
    <nd ref="42428701" lat="40.7921405" lon="-73.9737451"/>
    <nd ref="8687882623" lat="40.7920838" lon="-73.9737894"/>
    <nd ref="8687853804" lat="40.7915731" lon="-73.9741670"/>
    <nd ref="42428695" lat="40.7915225" lon="-73.9742027"/>
    <nd ref="8687853810" lat="40.7914604" lon="-73.9742489"/>
    <nd ref="10060611745" lat="40.7909484" lon="-73.9746251"/>
    <nd ref="42428689" lat="40.7908834" lon="-73.9746726"/>
    <nd ref="8699249551" lat="40.7908357" lon="-73.9747078"/>
    <nd ref="8699249524" lat="40.7903192" lon="-73.9750853"/>
    <nd ref="42422006" lat="40.7902583" lon="-73.9751294"/>
    <nd ref="8699249531" lat="40.7902073" lon="-73.9751671"/>
    <nd ref="8699239295" lat="40.7896948" lon="-73.9755427"/>
    <nd ref="42428682" lat="40.7896363" lon="-73.9755873"/>
    <nd ref="8699239302" lat="40.7895794" lon="-73.9756276"/>
    <nd ref="8699239265" lat="40.7890686" lon="-73.9760068"/>
    <nd ref="42428678" lat="40.7890078" lon="-73.9760520"/>
    <nd ref="8699239272" lat="40.7889548" lon="-73.9760952"/>
    <nd ref="8699239246" lat="40.7884608" lon="-73.9765217"/>
    <nd ref="42428674" lat="40.7883617" lon="-73.9766064"/>
    <nd ref="10039783371" lat="40.7882693" lon="-73.9766834"/>
    <nd ref="8699239233" lat="40.7877619" lon="-73.9771219"/>
    <nd ref="42428670" lat="40.7877015" lon="-73.9771707"/>
    <nd ref="8699239241" lat="40.7876542" lon="-73.9772110"/>
    <nd ref="7182103216" lat="40.7871552" lon="-73.9776371"/>
    <nd ref="42421809" lat="40.7870876" lon="-73.9776916"/>
    <nd ref="7182103213" lat="40.7870401" lon="-73.9777297"/>
    <nd ref="7182045960" lat="40.7865226" lon="-73.9781277"/>
    <nd ref="42428663" lat="40.7864652" lon="-73.9781723"/>
    <nd ref="7182045958" lat="40.7864084" lon="-73.9782121"/>
    <nd ref="8709397322" lat="40.7858956" lon="-73.9785926"/>
    <nd ref="42428661" lat="40.7858381" lon="-73.9786335"/>
    <nd ref="8709397330" lat="40.7857815" lon="-73.9786777"/>
    <nd ref="5533554871" lat="40.7856230" lon="-73.9787992"/>
    <nd ref="8709392104" lat="40.7852671" lon="-73.9790719"/>
    <nd ref="42428657" lat="40.7852101" lon="-73.9791163"/>
    <nd ref="8709392112" lat="40.7851451" lon="-73.9791635"/>
    <nd ref="8709392088" lat="40.7846357" lon="-73.9795342"/>
    <nd ref="42421775" lat="40.7845691" lon="-73.9795827"/>
    <nd ref="8709392096" lat="40.7845198" lon="-73.9796193"/>
    <nd ref="8709392068" lat="40.7839918" lon="-73.9800106"/>
    <nd ref="42428653" lat="40.7838930" lon="-73.9800838"/>
    <tag k="hgv" v="local"/>
    <tag k="highway" v="primary"/>
    <tag k="lanes" v="4"/>
    <tag k="maxspeed" v="25 mph"/>
    <tag k="name" v="Broadway"/>
    <tag k="name:en" v="Broadway"/>
    <tag k="name:ja" v="ブロードウェイ"/>
    <tag k="name:ru" v="Бродвей"/>
    <tag k="oneway" v="yes"/>
    <tag k="surface" v="asphalt"/>
    <tag k="tiger:cfcc" v="A21"/>
    <tag k="tiger:county" v="New York, NY"/>
    <tag k="tiger:name_base" v="Broadway"/>
    <tag k="tiger:name_base_1" v="United States Highway 9"/>
    <tag k="tiger:reviewed" v="no"/>
    <tag k="wikidata" v="Q11260"/>
    <tag k="wikipedia" v="en:Broadway (Manhattan)"/>
  </way>
  <way id="420623118">
    <bounds minlat="40.7835117" minlon="-73.9773536" maxlat="40.7844692" maxlon="-73.9751019"/>
    <nd ref="42442469" lat="40.7844692" lon="-73.9773536"/>
    <nd ref="9193943841" lat="40.7844208" lon="-73.9772404"/>
    <nd ref="9906904519" lat="40.7835942" lon="-73.9752785"/>
    <nd ref="4205805391" lat="40.7835117" lon="-73.9751019"/>
    <tag k="highway" v="secondary"/>
    <tag k="lanes" v="1"/>
    <tag k="maxspeed" v="25 mph"/>
    <tag k="name" v="West 81st Street"/>
    <tag k="name:ru" v="Западная 81-я стрит"/>
    <tag k="oneway" v="yes"/>
    <tag k="sidewalk:both" v="separate"/>
    <tag k="surface" v="asphalt"/>
    <tag k="tiger:cfcc" v="A41"/>
    <tag k="tiger:county" v="New York, NY"/>
    <tag k="tiger:name_base" v="81st"/>
    <tag k="tiger:name_base_1" v="81"/>
    <tag k="tiger:name_direction_prefix" v="W"/>
    <tag k="tiger:name_direction_prefix_1" v="W"/>
    <tag k="tiger:name_type" v="St"/>
    <tag k="tiger:name_type_1" v="St"/>
    <tag k="tiger:reviewed" v="no"/>
    <tag k="tiger:zip_left" v="10024"/>
    <tag k="tiger:zip_right" v="10024"/>
  </way>
  <way id="420895733">
    <bounds minlat="40.7800179" minlon="-73.9856862" maxlat="40.7803110" maxlon="-73.9849613"/>
    <nd ref="4207865790" lat="40.7800179" lon="-73.9849613"/>
    <nd ref="9899952551" lat="40.7802698" lon="-73.9855826"/>
    <nd ref="42424032" lat="40.7803110" lon="-73.9856862"/>
    <tag k="alt_name" v="West 72 Street"/>
    <tag k="cycleway:both" v="no"/>
    <tag k="hgv" v="destination"/>
    <tag k="highway" v="secondary"/>
    <tag k="lanes" v="4"/>
    <tag k="lanes:backward" v="2"/>
    <tag k="lanes:forward" v="2"/>
    <tag k="maxspeed" v="25 mph"/>
    <tag k="name" v="West 72nd Street"/>
    <tag k="name:ru" v="Западная 72-я стрит"/>
    <tag k="sidewalk" v="separate"/>
    <tag k="surface" v="asphalt"/>
    <tag k="tiger:cfcc" v="A41"/>
    <tag k="tiger:county" v="New York, NY"/>
    <tag k="tiger:name_base" v="72nd"/>
    <tag k="tiger:name_base_1" v="72"/>
    <tag k="tiger:name_direction_prefix" v="W"/>
    <tag k="tiger:name_direction_prefix_1" v="W"/>
    <tag k="tiger:name_type" v="St"/>
    <tag k="tiger:name_type_1" v="St"/>
    <tag k="tiger:reviewed" v="no"/>
    <tag k="tiger:zip_left" v="10023"/>
    <tag k="tiger:zip_right" v="10023"/>
    <tag k="turn:lanes:forward" v="through|right"/>
    <tag k="wikidata" v="Q264022"/>
    <tag k="wikipedia" v="en:72nd Street (Manhattan)"/>
  </way>
  <way id="420897875">
    <bounds minlat="40.7801617" minlon="-73.9767955" maxlat="40.7806719" maxlon="-73.9764438"/>
    <nd ref="42438859" lat="40.7806719" lon="-73.9764438"/>
    <nd ref="11609159429" lat="40.7805930" lon="-73.9764982"/>
    <nd ref="12565590590" lat="40.7803620" lon="-73.9766574"/>
    <nd ref="4207881094" lat="40.7801617" lon="-73.9767955"/>
    <tag k="cycleway:left" v="track"/>
    <tag k="cycleway:left:oneway" v="yes"/>
    <tag k="hgv" v="local"/>
    <tag k="highway" v="primary"/>
    <tag k="lanes" v="4"/>
    <tag k="lit" v="yes"/>
    <tag k="maxspeed" v="25 mph"/>
    <tag k="maxspeed:type" v="sign"/>
    <tag k="name" v="Columbus Avenue"/>
    <tag k="name:ru" v="Коламбус-авеню"/>
    <tag k="oneway" v="yes"/>
    <tag k="sidewalk:both" v="separate"/>
    <tag k="surface" v="asphalt"/>
    <tag k="tiger:cfcc" v="A41"/>
    <tag k="tiger:county" v="New York, NY"/>
    <tag k="tiger:name_base" v="Columbus"/>
    <tag k="tiger:name_type" v="Ave"/>
    <tag k="tiger:reviewed" v="no"/>
    <tag k="tiger:zip_left" v="10025"/>
    <tag k="tiger:zip_right" v="10025"/>
    <tag k="wikidata" v="Q130378"/>
    <tag k="wikipedia" v="en:Ninth Avenue (Manhattan)"/>
  </way>
  <way id="420897876">
    <bounds minlat="40.7799947" minlon="-73.9769106" maxlat="40.7801617" maxlon="-73.9767955"/>
    <nd ref="4207881094" lat="40.7801617" lon="-73.9767955"/>
    <nd ref="3875114041" lat="40.7800597" lon="-73.9768658"/>
    <nd ref="42443346" lat="40.7799947" lon="-73.9769106"/>
    <tag k="cycleway:left" v="shared_lane"/>
    <tag k="cycleway:left:lane" v="pictogram"/>
    <tag k="cycleway:left:oneway" v="yes"/>
    <tag k="cycleway:right" v="no"/>
    <tag k="hgv" v="local"/>
    <tag k="highway" v="primary"/>
    <tag k="lanes" v="4"/>
    <tag k="lit" v="yes"/>
    <tag k="maxspeed" v="25 mph"/>
    <tag k="maxspeed:type" v="sign"/>
    <tag k="name" v="Columbus Avenue"/>
    <tag k="name:ru" v="Коламбус-авеню"/>
    <tag k="oneway" v="yes"/>
    <tag k="sidewalk:both" v="separate"/>
    <tag k="surface" v="asphalt"/>
    <tag k="tiger:cfcc" v="A41"/>
    <tag k="tiger:county" v="New York, NY"/>
    <tag k="tiger:name_base" v="Columbus"/>
    <tag k="tiger:name_type" v="Ave"/>
    <tag k="tiger:reviewed" v="no"/>
    <tag k="tiger:zip_left" v="10025"/>
    <tag k="tiger:zip_right" v="10025"/>
    <tag k="turn:lanes" v="left|through|through|through"/>
    <tag k="wikidata" v="Q130378"/>
    <tag k="wikipedia" v="en:Ninth Avenue (Manhattan)"/>
  </way>
  <way id="421853633">
    <bounds minlat="40.7806719" minlon="-73.9764438" maxlat="40.7810636" maxlon="-73.9761556"/>
    <nd ref="9675339211" lat="40.7810636" lon="-73.9761556"/>
    <nd ref="11609159428" lat="40.7807311" lon="-73.9764003"/>
    <nd ref="42438859" lat="40.7806719" lon="-73.9764438"/>
    <tag k="cycleway:left" v="lane"/>
    <tag k="cycleway:left:oneway" v="yes"/>
    <tag k="cycleway:right" v="no"/>
    <tag k="hgv" v="local"/>
    <tag k="highway" v="primary"/>
    <tag k="lanes" v="4"/>
    <tag k="maxspeed" v="25 mph"/>
    <tag k="maxspeed:type" v="sign"/>
    <tag k="name" v="Columbus Avenue"/>
    <tag k="name:ru" v="Коламбус-авеню"/>
    <tag k="oneway" v="yes"/>
    <tag k="sidewalk:both" v="separate"/>
    <tag k="surface" v="asphalt"/>
    <tag k="tiger:cfcc" v="A41"/>
    <tag k="tiger:county" v="New York, NY"/>
    <tag k="tiger:name_base" v="Columbus"/>
    <tag k="tiger:name_type" v="Ave"/>
    <tag k="tiger:reviewed" v="no"/>
    <tag k="tiger:zip_left" v="10025"/>
    <tag k="tiger:zip_right" v="10025"/>
    <tag k="turn:lanes" v="left|through|through|through"/>
    <tag k="wikidata" v="Q130378"/>
    <tag k="wikipedia" v="en:Ninth Avenue (Manhattan)"/>
  </way>
  <way id="421853643">
    <bounds minlat="40.7864968" minlon="-73.9750103" maxlat="40.7876861" maxlon="-73.9721811"/>
    <nd ref="42443353" lat="40.7864968" lon="-73.9721811"/>
    <nd ref="9906904530" lat="40.7865479" lon="-73.9723031"/>
    <nd ref="9547662378" lat="40.7876371" lon="-73.9748909"/>
    <nd ref="42442480" lat="40.7876861" lon="-73.9750103"/>
    <tag k="hgv" v="local"/>
    <tag k="highway" v="secondary"/>
    <tag k="lanes" v="4"/>
    <tag k="maxspeed" v="25 mph"/>
    <tag k="name" v="West 86th Street"/>
    <tag k="name:ru" v="Западная 86-я стрит"/>
    <tag k="name_1" v="West 86 Street"/>
    <tag k="surface" v="asphalt"/>
    <tag k="tiger:cfcc" v="A41"/>
    <tag k="tiger:county" v="New York, NY"/>
    <tag k="tiger:name_base" v="86th"/>
    <tag k="tiger:name_base_1" v="86"/>
    <tag k="tiger:name_direction_prefix" v="W"/>
    <tag k="tiger:name_direction_prefix_1" v="W"/>
    <tag k="tiger:name_type" v="St"/>
    <tag k="tiger:name_type_1" v="St"/>
    <tag k="tiger:reviewed" v="no"/>
    <tag k="tiger:zip_left" v="10024"/>
    <tag k="tiger:zip_right" v="10024"/>
    <tag k="wikidata" v="Q4644949"/>
    <tag k="wikipedia" v="en:86th Street (Manhattan)"/>
  </way>
  <way id="439801907">
    <bounds minlat="40.7803110" minlon="-73.9856862" maxlat="40.7837916" maxlon="-73.9838929"/>
    <nd ref="42438867" lat="40.7837916" lon="-73.9838929"/>
    <nd ref="9177505601" lat="40.7834305" lon="-73.9842545"/>
    <nd ref="9168918190" lat="40.7833511" lon="-73.9843321"/>
    <nd ref="2346800742" lat="40.7832948" lon="-73.9843830"/>
    <nd ref="2346800741" lat="40.7832443" lon="-73.9844242"/>
    <nd ref="42441668" lat="40.7831868" lon="-73.9844643"/>
    <nd ref="9168918189" lat="40.7831257" lon="-73.9844988"/>
    <nd ref="2346800740" lat="40.7830724" lon="-73.9845256"/>
    <nd ref="42441670" lat="40.7824893" lon="-73.9847754"/>
    <nd ref="9895633503" lat="40.7818454" lon="-73.9850490"/>
    <nd ref="42441654" lat="40.7817710" lon="-73.9850810"/>
    <nd ref="9895633504" lat="40.7817126" lon="-73.9851056"/>
    <nd ref="5115922042" lat="40.7811415" lon="-73.9853425"/>
    <nd ref="42432572" lat="40.7810707" lon="-73.9853731"/>
    <nd ref="5115922047" lat="40.7809994" lon="-73.9854032"/>
    <nd ref="1329122504" lat="40.7804438" lon="-73.9856318"/>
    <nd ref="42424032" lat="40.7803110" lon="-73.9856862"/>
    <tag k="hgv" v="no"/>
    <tag k="highway" v="secondary"/>
    <tag k="name" v="Riverside Drive"/>
    <tag k="name:ru" v="Риверсайд-драйв"/>
    <tag k="tiger:cfcc" v="A41"/>
    <tag k="tiger:county" v="New York, NY"/>
    <tag k="tiger:name_base" v="Riverside"/>
    <tag k="tiger:name_type" v="Dr"/>
    <tag k="tiger:reviewed" v="no"/>
    <tag k="wikidata" v="Q2589766"/>
    <tag k="wikipedia" v="en:Riverside Drive (Manhattan)"/>
  </way>
  <way id="439801908">
    <bounds minlat="40.7843551" minlon="-73.9832997" maxlat="40.7849764" maxlon="-73.9826519"/>
    <nd ref="42422592" lat="40.7849764" lon="-73.9826519"/>
    <nd ref="10039612941" lat="40.7848843" lon="-73.9827472"/>
    <nd ref="4906056162" lat="40.7848744" lon="-73.9827575"/>
    <nd ref="10160791137" lat="40.7844184" lon="-73.9832342"/>
    <nd ref="42428072" lat="40.7843551" lon="-73.9832997"/>
    <tag k="cycleway" v="shared_lane"/>
    <tag k="hgv" v="no"/>
    <tag k="highway" v="secondary"/>
    <tag k="lanes" v="2"/>
    <tag k="name" v="Riverside Drive"/>
    <tag k="name:ru" v="Риверсайд-драйв"/>
    <tag k="surface" v="asphalt"/>
    <tag k="tiger:cfcc" v="A41"/>
    <tag k="tiger:county" v="New York, NY"/>
    <tag k="tiger:name_base" v="Riverside"/>
    <tag k="tiger:name_type" v="Dr"/>
    <tag k="tiger:reviewed" v="no"/>
    <tag k="wikidata" v="Q2589766"/>
    <tag k="wikipedia" v="en:Riverside Drive (Manhattan)"/>
  </way>
  <way id="485755181">
    <bounds minlat="40.7837916" minlon="-73.9838929" maxlat="40.7843551" maxlon="-73.9832997"/>
    <nd ref="42428072" lat="40.7843551" lon="-73.9832997"/>
    <nd ref="10160791154" lat="40.7843050" lon="-73.9833530"/>
    <nd ref="42438867" lat="40.7837916" lon="-73.9838929"/>
    <tag k="cycleway:left" v="shared_lane"/>
    <tag k="hgv" v="no"/>
    <tag k="highway" v="secondary"/>
    <tag k="lanes" v="2"/>
    <tag k="name" v="Riverside Drive"/>
    <tag k="name:ru" v="Риверсайд-драйв"/>
    <tag k="tiger:cfcc" v="A41"/>
    <tag k="tiger:county" v="New York, NY"/>
    <tag k="tiger:name_base" v="Riverside"/>
    <tag k="tiger:name_type" v="Dr"/>
    <tag k="tiger:reviewed" v="no"/>
    <tag k="wikidata" v="Q2589766"/>
    <tag k="wikipedia" v="en:Riverside Drive (Manhattan)"/>
  </way>
  <way id="584971432">
    <bounds minlat="40.7831527" minlon="-73.9798812" maxlat="40.7838080" maxlon="-73.9783277"/>
    <nd ref="42442463" lat="40.7831527" lon="-73.9783277"/>
    <nd ref="9897810876" lat="40.7832077" lon="-73.9784567"/>
    <nd ref="12060299581" lat="40.7833371" lon="-73.9787638"/>
    <nd ref="8709392072" lat="40.7837695" lon="-73.9797901"/>
    <nd ref="1061531454" lat="40.7838080" lon="-73.9798812"/>
    <tag k="alt_name" v="West 79 Street"/>
    <tag k="bicycle" v="yes"/>
    <tag k="hgv" v="local"/>
    <tag k="highway" v="secondary"/>
    <tag k="lanes" v="4"/>
    <tag k="maxspeed" v="25 mph"/>
    <tag k="name" v="West 79th Street"/>
    <tag k="name:ru" v="Западная 79-я стрит"/>
    <tag k="sidewalk:both" v="separate"/>
    <tag k="tiger:cfcc" v="A41"/>
    <tag k="tiger:county" v="New York, NY"/>
    <tag k="tiger:name_base" v="79th"/>
    <tag k="tiger:name_base_1" v="79"/>
    <tag k="tiger:name_direction_prefix" v="W"/>
    <tag k="tiger:name_direction_prefix_1" v="W"/>
    <tag k="tiger:name_type" v="St"/>
    <tag k="tiger:name_type_1" v="St"/>
    <tag k="tiger:reviewed" v="no"/>
    <tag k="tiger:zip_left" v="10024"/>
    <tag k="tiger:zip_right" v="10024"/>
    <tag k="wikidata" v="Q2818314"/>
    <tag k="wikipedia" v="en:79th Street (Manhattan)"/>
  </way>
  <way id="740085319">
    <bounds minlat="40.7857321" minlon="-73.9811521" maxlat="40.7876839" maxlon="-73.9764355"/>
    <nd ref="42437305" lat="40.7857321" lon="-73.9764355"/>
    <nd ref="6929267035" lat="40.7857621" lon="-73.9765064"/>
    <nd ref="6207264919" lat="40.7857730" lon="-73.9765323"/>
    <nd ref="10039927883" lat="40.7857881" lon="-73.9765681"/>
    <nd ref="7182045954" lat="40.7863399" lon="-73.9778746"/>
    <nd ref="1061531550" lat="40.7863807" lon="-73.9779716"/>
    <nd ref="42428663" lat="40.7864652" lon="-73.9781723"/>
    <nd ref="7182045940" lat="40.7865059" lon="-73.9782654"/>
    <nd ref="8727756068" lat="40.7868804" lon="-73.9791535"/>
    <nd ref="42431030" lat="40.7869367" lon="-73.9792880"/>
    <nd ref="8727756065" lat="40.7869891" lon="-73.9794135"/>
    <nd ref="9168918197" lat="40.7876519" lon="-73.9809840"/>
    <nd ref="9168918198" lat="40.7876616" lon="-73.9810147"/>
    <nd ref="10039656209" lat="40.7876684" lon="-73.9810394"/>
    <nd ref="9168918199" lat="40.7876741" lon="-73.9810600"/>
    <nd ref="9168918200" lat="40.7876795" lon="-73.9811029"/>
    <nd ref="42437312" lat="40.7876839" lon="-73.9811521"/>
    <tag k="alt_name" v="West 83 Street"/>
    <tag k="highway" v="residential"/>
    <tag k="name" v="West 83rd Street"/>
    <tag k="name:ru" v="Западная 83-я стрит"/>
    <tag k="oneway" v="yes"/>
    <tag k="tiger:cfcc" v="A41"/>
    <tag k="tiger:county" v="New York, NY"/>
    <tag k="tiger:name_base" v="83rd"/>
    <tag k="tiger:name_base_1" v="83"/>
    <tag k="tiger:name_direction_prefix" v="W"/>
    <tag k="tiger:name_direction_prefix_1" v="W"/>
    <tag k="tiger:name_type" v="St"/>
    <tag k="tiger:name_type_1" v="St"/>
    <tag k="tiger:reviewed" v="no"/>
    <tag k="tiger:zip_left" v="10024"/>
    <tag k="tiger:zip_right" v="10024"/>
  </way>
  <way id="740085321">
    <bounds minlat="40.7857321" minlon="-73.9764355" maxlat="40.7870011" maxlon="-73.9755093"/>
    <nd ref="42437305" lat="40.7857321" lon="-73.9764355"/>
    <nd ref="10039927891" lat="40.7857951" lon="-73.9763895"/>
    <nd ref="10039932487" lat="40.7863135" lon="-73.9760112"/>
    <nd ref="42421806" lat="40.7863627" lon="-73.9759753"/>
    <nd ref="10039932485" lat="40.7864303" lon="-73.9759259"/>
    <nd ref="10039932497" lat="40.7869515" lon="-73.9755455"/>
    <nd ref="42442475" lat="40.7870011" lon="-73.9755093"/>
    <tag k="cycleway:left" v="track"/>
    <tag k="cycleway:left:oneway" v="yes"/>
    <tag k="hgv" v="local"/>
    <tag k="highway" v="primary"/>
    <tag k="lanes" v="3"/>
    <tag k="name" v="Amsterdam Avenue"/>
    <tag k="name:ru" v="Амстердам-авеню"/>
    <tag k="oneway" v="yes"/>
    <tag k="surface" v="asphalt"/>
    <tag k="tiger:cfcc" v="A41"/>
    <tag k="tiger:county" v="New York, NY"/>
    <tag k="tiger:name_base" v="Amsterdam"/>
    <tag k="tiger:name_type" v="Ave"/>
    <tag k="tiger:reviewed" v="no"/>
    <tag k="tiger:zip_left" v="10040"/>
    <tag k="tiger:zip_left_1" v="10040"/>
    <tag k="turn:lanes" v="left;through|through|through"/>
    <tag k="wikidata" v="Q130388"/>
    <tag k="wikipedia" v="en:Tenth Avenue (Manhattan)"/>
  </way>
  <way id="763299975">
    <bounds minlat="40.7849764" minlon="-73.9826519" maxlat="40.7850613" maxlon="-73.9825605"/>
    <nd ref="4906056159" lat="40.7850613" lon="-73.9825605"/>
    <nd ref="42422592" lat="40.7849764" lon="-73.9826519"/>
    <tag k="hgv" v="no"/>
    <tag k="highway" v="secondary"/>
    <tag k="name" v="Riverside Drive"/>
    <tag k="name:ru" v="Риверсайд-драйв"/>
    <tag k="tiger:cfcc" v="A41"/>
    <tag k="tiger:county" v="New York, NY"/>
    <tag k="tiger:name_base" v="Riverside"/>
    <tag k="tiger:name_type" v="Dr"/>
    <tag k="tiger:reviewed" v="no"/>
    <tag k="wikidata" v="Q2589766"/>
    <tag k="wikipedia" v="en:Riverside Drive (Manhattan)"/>
  </way>
  <way id="781311947">
    <bounds minlat="40.7876861" minlon="-73.9764311" maxlat="40.7882886" maxlon="-73.9750103"/>
    <nd ref="42442480" lat="40.7876861" lon="-73.9750103"/>
    <nd ref="6207264917" lat="40.7877475" lon="-73.9751496"/>
    <nd ref="10039783370" lat="40.7882390" lon="-73.9763107"/>
    <nd ref="1061531603" lat="40.7882886" lon="-73.9764311"/>
    <tag k="hgv" v="local"/>
    <tag k="highway" v="secondary"/>
    <tag k="lanes" v="4"/>
    <tag k="maxspeed" v="25 mph"/>
    <tag k="name" v="West 86th Street"/>
    <tag k="name:ru" v="Западная 86-я стрит"/>
    <tag k="name_1" v="West 86 Street"/>
    <tag k="surface" v="asphalt"/>
    <tag k="tiger:cfcc" v="A41"/>
    <tag k="tiger:county" v="New York, NY"/>
    <tag k="tiger:name_base" v="86th"/>
    <tag k="tiger:name_base_1" v="86"/>
    <tag k="tiger:name_direction_prefix" v="W"/>
    <tag k="tiger:name_direction_prefix_1" v="W"/>
    <tag k="tiger:name_type" v="St"/>
    <tag k="tiger:name_type_1" v="St"/>
    <tag k="tiger:reviewed" v="no"/>
    <tag k="tiger:zip_left" v="10024"/>
    <tag k="tiger:zip_right" v="10024"/>
    <tag k="wikidata" v="Q4644949"/>
    <tag k="wikipedia" v="en:86th Street (Manhattan)"/>
  </way>
  <way id="837696043">
    <bounds minlat="40.7801950" minlon="-73.9842013" maxlat="40.7804948" maxlon="-73.9839842"/>
    <nd ref="7818397388" lat="40.7801950" lon="-73.9842013"/>
    <nd ref="9492556588" lat="40.7804377" lon="-73.9840251"/>
    <nd ref="42431005" lat="40.7804948" lon="-73.9839842"/>
    <tag k="cycleway:both" v="no"/>
    <tag k="goods" v="no"/>
    <tag k="highway" v="tertiary"/>
    <tag k="lanes" v="3"/>
    <tag k="lanes:backward" v="1"/>
    <tag k="lanes:forward" v="2"/>
    <tag k="name" v="West End Avenue"/>
    <tag k="name:ru" v="Вест-Энд-авеню"/>
    <tag k="network" v="lcn"/>
    <tag k="route" v="bicycle"/>
    <tag k="sidewalk" v="both"/>
    <tag k="surface" v="asphalt"/>
    <tag k="tiger:cfcc" v="A41"/>
    <tag k="tiger:county" v="New York, NY"/>
    <tag k="tiger:name_base" v="End"/>
    <tag k="tiger:name_direction_prefix" v="W"/>
    <tag k="tiger:name_type" v="Ave"/>
    <tag k="tiger:reviewed" v="no"/>
    <tag k="turn:lanes:forward" v="left|"/>
    <tag k="wikidata" v="Q130405"/>
    <tag k="wikipedia" v="en:Eleventh Avenue (Manhattan)"/>
  </way>
  <way id="837696044">
    <bounds minlat="40.7804948" minlon="-73.9839842" maxlat="40.7811287" maxlon="-73.9835232"/>
    <nd ref="42431005" lat="40.7804948" lon="-73.9839842"/>
    <nd ref="9177400764" lat="40.7805529" lon="-73.9839426"/>
    <nd ref="9492556579" lat="40.7810752" lon="-73.9835605"/>
    <nd ref="42431007" lat="40.7811287" lon="-73.9835232"/>
    <tag k="goods" v="no"/>
    <tag k="highway" v="tertiary"/>
    <tag k="lanes" v="2"/>
    <tag k="maxspeed" v="25 mph"/>
    <tag k="name" v="West End Avenue"/>
    <tag k="name:ru" v="Вест-Энд-авеню"/>
    <tag k="network" v="lcn"/>
    <tag k="oneway" v="no"/>
    <tag k="route" v="bicycle"/>
    <tag k="sidewalk" v="both"/>
    <tag k="surface" v="asphalt"/>
    <tag k="tiger:cfcc" v="A41"/>
    <tag k="tiger:county" v="New York, NY"/>
    <tag k="tiger:name_base" v="End"/>
    <tag k="tiger:name_direction_prefix" v="W"/>
    <tag k="tiger:name_type" v="Ave"/>
    <tag k="tiger:reviewed" v="no"/>
    <tag k="wikidata" v="Q130405"/>
    <tag k="wikipedia" v="en:Eleventh Avenue (Manhattan)"/>
  </way>
  <way id="837696045">
    <bounds minlat="40.7811287" minlon="-73.9835232" maxlat="40.7814533" maxlon="-73.9832853"/>
    <nd ref="42431007" lat="40.7811287" lon="-73.9835232"/>
    <nd ref="9492556578" lat="40.7811875" lon="-73.9834796"/>
    <nd ref="7818397389" lat="40.7814533" lon="-73.9832853"/>
    <tag k="goods" v="no"/>
    <tag k="highway" v="tertiary"/>
    <tag k="lanes" v="3"/>
    <tag k="lanes:backward" v="2"/>
    <tag k="lanes:forward" v="1"/>
    <tag k="maxspeed" v="25 mph"/>
    <tag k="name" v="West End Avenue"/>
    <tag k="name:ru" v="Вест-Энд-авеню"/>
    <tag k="network" v="lcn"/>
    <tag k="oneway" v="no"/>
    <tag k="route" v="bicycle"/>
    <tag k="sidewalk" v="both"/>
    <tag k="surface" v="asphalt"/>
    <tag k="tiger:cfcc" v="A41"/>
    <tag k="tiger:county" v="New York, NY"/>
    <tag k="tiger:name_base" v="End"/>
    <tag k="tiger:name_direction_prefix" v="W"/>
    <tag k="tiger:name_type" v="Ave"/>
    <tag k="tiger:reviewed" v="no"/>
    <tag k="turn:lanes:backward" v="left|"/>
    <tag k="wikidata" v="Q130405"/>
    <tag k="wikipedia" v="en:Eleventh Avenue (Manhattan)"/>
  </way>
  <way id="837696046">
    <bounds minlat="40.7814533" minlon="-73.9832853" maxlat="40.7817655" maxlon="-73.9830559"/>
    <nd ref="7818397389" lat="40.7814533" lon="-73.9832853"/>
    <nd ref="9492556562" lat="40.7817089" lon="-73.9830976"/>
    <nd ref="42431008" lat="40.7817655" lon="-73.9830559"/>
    <tag k="goods" v="no"/>
    <tag k="highway" v="tertiary"/>
    <tag k="lanes" v="3"/>
    <tag k="lanes:backward" v="1"/>
    <tag k="lanes:forward" v="2"/>
    <tag k="maxspeed" v="25 mph"/>
    <tag k="name" v="West End Avenue"/>
    <tag k="name:ru" v="Вест-Энд-авеню"/>
    <tag k="network" v="lcn"/>
    <tag k="route" v="bicycle"/>
    <tag k="sidewalk" v="both"/>
    <tag k="surface" v="asphalt"/>
    <tag k="tiger:cfcc" v="A41"/>
    <tag k="tiger:county" v="New York, NY"/>
    <tag k="tiger:name_base" v="End"/>
    <tag k="tiger:name_direction_prefix" v="W"/>
    <tag k="tiger:name_type" v="Ave"/>
    <tag k="tiger:reviewed" v="no"/>
    <tag k="turn:lanes:forward" v="left|"/>
    <tag k="wikidata" v="Q130405"/>
    <tag k="wikipedia" v="en:Eleventh Avenue (Manhattan)"/>
  </way>
  <way id="837696047">
    <bounds minlat="40.7817655" minlon="-73.9830559" maxlat="40.7824008" maxlon="-73.9825964"/>
    <nd ref="42431008" lat="40.7817655" lon="-73.9830559"/>
    <nd ref="9492556531" lat="40.7818228" lon="-73.9830152"/>
    <nd ref="9492556546" lat="40.7823479" lon="-73.9826361"/>
    <nd ref="42431009" lat="40.7824008" lon="-73.9825964"/>
    <tag k="goods" v="no"/>
    <tag k="highway" v="tertiary"/>
    <tag k="lanes" v="2"/>
    <tag k="maxspeed" v="25 mph"/>
    <tag k="name" v="West End Avenue"/>
    <tag k="name:ru" v="Вест-Энд-авеню"/>
    <tag k="network" v="lcn"/>
    <tag k="oneway" v="no"/>
    <tag k="route" v="bicycle"/>
    <tag k="sidewalk" v="both"/>
    <tag k="surface" v="asphalt"/>
    <tag k="tiger:cfcc" v="A41"/>
    <tag k="tiger:county" v="New York, NY"/>
    <tag k="tiger:name_base" v="End"/>
    <tag k="tiger:name_direction_prefix" v="W"/>
    <tag k="tiger:name_type" v="Ave"/>
    <tag k="tiger:reviewed" v="no"/>
    <tag k="wikidata" v="Q130405"/>
    <tag k="wikipedia" v="en:Eleventh Avenue (Manhattan)"/>
  </way>
  <way id="837696048">
    <bounds minlat="40.7824008" minlon="-73.9825964" maxlat="40.7827338" maxlon="-73.9823496"/>
    <nd ref="42431009" lat="40.7824008" lon="-73.9825964"/>
    <nd ref="9492542185" lat="40.7824555" lon="-73.9825551"/>
    <nd ref="7818397390" lat="40.7827338" lon="-73.9823496"/>
    <tag k="goods" v="no"/>
    <tag k="highway" v="tertiary"/>
    <tag k="lanes" v="3"/>
    <tag k="lanes:backward" v="2"/>
    <tag k="lanes:forward" v="1"/>
    <tag k="name" v="West End Avenue"/>
    <tag k="name:ru" v="Вест-Энд-авеню"/>
    <tag k="network" v="lcn"/>
    <tag k="route" v="bicycle"/>
    <tag k="sidewalk" v="both"/>
    <tag k="surface" v="asphalt"/>
    <tag k="tiger:cfcc" v="A41"/>
    <tag k="tiger:county" v="New York, NY"/>
    <tag k="tiger:name_base" v="End"/>
    <tag k="tiger:name_direction_prefix" v="W"/>
    <tag k="tiger:name_type" v="Ave"/>
    <tag k="tiger:reviewed" v="no"/>
    <tag k="turn:lanes:backward" v="left|"/>
    <tag k="wikidata" v="Q130405"/>
    <tag k="wikipedia" v="en:Eleventh Avenue (Manhattan)"/>
  </way>
  <way id="837696049">
    <bounds minlat="40.7830455" minlon="-73.9821238" maxlat="40.7836663" maxlon="-73.9816706"/>
    <nd ref="42431015" lat="40.7830455" lon="-73.9821238"/>
    <nd ref="9492556557" lat="40.7830871" lon="-73.9820921"/>
    <nd ref="9492542184" lat="40.7836140" lon="-73.9817098"/>
    <nd ref="42428068" lat="40.7836663" lon="-73.9816706"/>
    <tag k="goods" v="no"/>
    <tag k="highway" v="tertiary"/>
    <tag k="lanes" v="2"/>
    <tag k="maxspeed" v="25 mph"/>
    <tag k="name" v="West End Avenue"/>
    <tag k="name:ru" v="Вест-Энд-авеню"/>
    <tag k="network" v="lcn"/>
    <tag k="oneway" v="no"/>
    <tag k="route" v="bicycle"/>
    <tag k="sidewalk" v="both"/>
    <tag k="surface" v="asphalt"/>
    <tag k="tiger:cfcc" v="A41"/>
    <tag k="tiger:county" v="New York, NY"/>
    <tag k="tiger:name_base" v="End"/>
    <tag k="tiger:name_direction_prefix" v="W"/>
    <tag k="tiger:name_type" v="Ave"/>
    <tag k="tiger:reviewed" v="no"/>
    <tag k="wikidata" v="Q130405"/>
    <tag k="wikipedia" v="en:Eleventh Avenue (Manhattan)"/>
  </way>
  <way id="837696050">
    <bounds minlat="40.7827338" minlon="-73.9823496" maxlat="40.7830455" maxlon="-73.9821238"/>
    <nd ref="7818397390" lat="40.7827338" lon="-73.9823496"/>
    <nd ref="9492556527" lat="40.7829726" lon="-73.9821790"/>
    <nd ref="42431015" lat="40.7830455" lon="-73.9821238"/>
    <tag k="goods" v="no"/>
    <tag k="highway" v="tertiary"/>
    <tag k="lanes" v="3"/>
    <tag k="lanes:backward" v="1"/>
    <tag k="lanes:forward" v="2"/>
    <tag k="maxspeed" v="25 mph"/>
    <tag k="name" v="West End Avenue"/>
    <tag k="name:ru" v="Вест-Энд-авеню"/>
    <tag k="network" v="lcn"/>
    <tag k="oneway" v="no"/>
    <tag k="route" v="bicycle"/>
    <tag k="sidewalk" v="both"/>
    <tag k="surface" v="asphalt"/>
    <tag k="tiger:cfcc" v="A41"/>
    <tag k="tiger:county" v="New York, NY"/>
    <tag k="tiger:name_base" v="End"/>
    <tag k="tiger:name_direction_prefix" v="W"/>
    <tag k="tiger:name_type" v="Ave"/>
    <tag k="tiger:reviewed" v="no"/>
    <tag k="turn:lanes:forward" v="left|"/>
    <tag k="wikidata" v="Q130405"/>
    <tag k="wikipedia" v="en:Eleventh Avenue (Manhattan)"/>
  </way>
  <way id="837696051">
    <bounds minlat="40.7836663" minlon="-73.9816706" maxlat="40.7840225" maxlon="-73.9814104"/>
    <nd ref="42428068" lat="40.7836663" lon="-73.9816706"/>
    <nd ref="9492556572" lat="40.7837252" lon="-73.9816267"/>
    <nd ref="7818397391" lat="40.7840225" lon="-73.9814104"/>
    <tag k="goods" v="no"/>
    <tag k="highway" v="tertiary"/>
    <tag k="lanes" v="3"/>
    <tag k="lanes:backward" v="2"/>
    <tag k="lanes:forward" v="1"/>
    <tag k="maxspeed" v="25 mph"/>
    <tag k="name" v="West End Avenue"/>
    <tag k="name:ru" v="Вест-Энд-авеню"/>
    <tag k="network" v="lcn"/>
    <tag k="oneway" v="no"/>
    <tag k="route" v="bicycle"/>
    <tag k="sidewalk" v="both"/>
    <tag k="surface" v="asphalt"/>
    <tag k="tiger:cfcc" v="A41"/>
    <tag k="tiger:county" v="New York, NY"/>
    <tag k="tiger:name_base" v="End"/>
    <tag k="tiger:name_direction_prefix" v="W"/>
    <tag k="tiger:name_type" v="Ave"/>
    <tag k="tiger:reviewed" v="no"/>
    <tag k="turn:lanes:backward" v="left|"/>
    <tag k="wikidata" v="Q130405"/>
    <tag k="wikipedia" v="en:Eleventh Avenue (Manhattan)"/>
  </way>
  <way id="837696052">
    <bounds minlat="40.7843536" minlon="-73.9811697" maxlat="40.7846542" maxlon="-73.9809518"/>
    <nd ref="42431019" lat="40.7843536" lon="-73.9811697"/>
    <nd ref="8727756096" lat="40.7844501" lon="-73.9810985"/>
    <nd ref="7818397392" lat="40.7846542" lon="-73.9809518"/>
    <tag k="goods" v="no"/>
    <tag k="highway" v="tertiary"/>
    <tag k="lanes" v="3"/>
    <tag k="lanes:backward" v="2"/>
    <tag k="lanes:forward" v="1"/>
    <tag k="maxspeed" v="25 mph"/>
    <tag k="name" v="West End Avenue"/>
    <tag k="name:ru" v="Вест-Энд-авеню"/>
    <tag k="network" v="lcn"/>
    <tag k="oneway" v="no"/>
    <tag k="route" v="bicycle"/>
    <tag k="sidewalk" v="separate"/>
    <tag k="surface" v="asphalt"/>
    <tag k="tiger:cfcc" v="A41"/>
    <tag k="tiger:county" v="New York, NY"/>
    <tag k="tiger:name_base" v="End"/>
    <tag k="tiger:name_direction_prefix" v="W"/>
    <tag k="tiger:name_type" v="Ave"/>
    <tag k="tiger:reviewed" v="no"/>
    <tag k="turn:lanes:backward" v="left|"/>
    <tag k="wikidata" v="Q130405"/>
    <tag k="wikipedia" v="en:Eleventh Avenue (Manhattan)"/>
  </way>
  <way id="837696053">
    <bounds minlat="40.7840225" minlon="-73.9814104" maxlat="40.7842620" maxlon="-73.9812367"/>
    <nd ref="7818397391" lat="40.7840225" lon="-73.9814104"/>
    <nd ref="8727756099" lat="40.7842620" lon="-73.9812367"/>
    <tag k="goods" v="no"/>
    <tag k="highway" v="tertiary"/>
    <tag k="lanes" v="3"/>
    <tag k="lanes:backward" v="1"/>
    <tag k="lanes:forward" v="2"/>
    <tag k="maxspeed" v="25 mph"/>
    <tag k="name" v="West End Avenue"/>
    <tag k="name:ru" v="Вест-Энд-авеню"/>
    <tag k="network" v="lcn"/>
    <tag k="oneway" v="no"/>
    <tag k="route" v="bicycle"/>
    <tag k="sidewalk" v="both"/>
    <tag k="surface" v="asphalt"/>
    <tag k="tiger:cfcc" v="A41"/>
    <tag k="tiger:county" v="New York, NY"/>
    <tag k="tiger:name_base" v="End"/>
    <tag k="tiger:name_direction_prefix" v="W"/>
    <tag k="tiger:name_type" v="Ave"/>
    <tag k="tiger:reviewed" v="no"/>
    <tag k="turn:lanes:forward" v="left|"/>
    <tag k="wikidata" v="Q130405"/>
    <tag k="wikipedia" v="en:Eleventh Avenue (Manhattan)"/>
  </way>
  <way id="837696054">
    <bounds minlat="40.7850352" minlon="-73.9806732" maxlat="40.7853625" maxlon="-73.9804315"/>
    <nd ref="42421776" lat="40.7850352" lon="-73.9806732"/>
    <nd ref="8727756088" lat="40.7850908" lon="-73.9806326"/>
    <nd ref="7818397393" lat="40.7853625" lon="-73.9804315"/>
    <tag k="goods" v="no"/>
    <tag k="highway" v="tertiary"/>
    <tag k="lanes" v="3"/>
    <tag k="lanes:backward" v="2"/>
    <tag k="lanes:forward" v="1"/>
    <tag k="maxspeed" v="25 mph"/>
    <tag k="name" v="West End Avenue"/>
    <tag k="name:ru" v="Вест-Энд-авеню"/>
    <tag k="network" v="lcn"/>
    <tag k="oneway" v="no"/>
    <tag k="route" v="bicycle"/>
    <tag k="sidewalk" v="separate"/>
    <tag k="surface" v="asphalt"/>
    <tag k="tiger:cfcc" v="A41"/>
    <tag k="tiger:county" v="New York, NY"/>
    <tag k="tiger:name_base" v="End"/>
    <tag k="tiger:name_direction_prefix" v="W"/>
    <tag k="tiger:name_type" v="Ave"/>
    <tag k="tiger:reviewed" v="no"/>
    <tag k="turn:lanes:backward" v="left|"/>
    <tag k="wikidata" v="Q130405"/>
    <tag k="wikipedia" v="en:Eleventh Avenue (Manhattan)"/>
  </way>
  <way id="837696055">
    <bounds minlat="40.7846542" minlon="-73.9809518" maxlat="40.7850352" maxlon="-73.9806732"/>
    <nd ref="7818397392" lat="40.7846542" lon="-73.9809518"/>
    <nd ref="8727756092" lat="40.7849827" lon="-73.9807116"/>
    <nd ref="42421776" lat="40.7850352" lon="-73.9806732"/>
    <tag k="goods" v="no"/>
    <tag k="highway" v="tertiary"/>
    <tag k="lanes" v="2"/>
    <tag k="maxspeed" v="25 mph"/>
    <tag k="name" v="West End Avenue"/>
    <tag k="name:ru" v="Вест-Энд-авеню"/>
    <tag k="network" v="lcn"/>
    <tag k="oneway" v="no"/>
    <tag k="route" v="bicycle"/>
    <tag k="sidewalk" v="separate"/>
    <tag k="surface" v="asphalt"/>
    <tag k="tiger:cfcc" v="A41"/>
    <tag k="tiger:county" v="New York, NY"/>
    <tag k="tiger:name_base" v="End"/>
    <tag k="tiger:name_direction_prefix" v="W"/>
    <tag k="tiger:name_type" v="Ave"/>
    <tag k="tiger:reviewed" v="no"/>
    <tag k="wikidata" v="Q130405"/>
    <tag k="wikipedia" v="en:Eleventh Avenue (Manhattan)"/>
  </way>
  <way id="837696056">
    <bounds minlat="40.7853625" minlon="-73.9804315" maxlat="40.7856725" maxlon="-73.9802092"/>
    <nd ref="7818397393" lat="40.7853625" lon="-73.9804315"/>
    <nd ref="8727756084" lat="40.7856105" lon="-73.9802518"/>
    <nd ref="42431024" lat="40.7856725" lon="-73.9802092"/>
    <tag k="goods" v="no"/>
    <tag k="highway" v="tertiary"/>
    <tag k="lanes" v="3"/>
    <tag k="lanes:backward" v="1"/>
    <tag k="lanes:forward" v="2"/>
    <tag k="maxspeed" v="25 mph"/>
    <tag k="name" v="West End Avenue"/>
    <tag k="name:ru" v="Вест-Энд-авеню"/>
    <tag k="network" v="lcn"/>
    <tag k="oneway" v="no"/>
    <tag k="route" v="bicycle"/>
    <tag k="sidewalk" v="separate"/>
    <tag k="surface" v="asphalt"/>
    <tag k="tiger:cfcc" v="A41"/>
    <tag k="tiger:county" v="New York, NY"/>
    <tag k="tiger:name_base" v="End"/>
    <tag k="tiger:name_direction_prefix" v="W"/>
    <tag k="tiger:name_type" v="Ave"/>
    <tag k="tiger:reviewed" v="no"/>
    <tag k="turn:lanes:forward" v="left|"/>
    <tag k="wikidata" v="Q130405"/>
    <tag k="wikipedia" v="en:Eleventh Avenue (Manhattan)"/>
  </way>
  <way id="837696057">
    <bounds minlat="40.7856725" minlon="-73.9802092" maxlat="40.7863040" maxlon="-73.9797464"/>
    <nd ref="42431024" lat="40.7856725" lon="-73.9802092"/>
    <nd ref="8727756080" lat="40.7857292" lon="-73.9801689"/>
    <nd ref="8727756076" lat="40.7862488" lon="-73.9797865"/>
    <nd ref="42431027" lat="40.7863040" lon="-73.9797464"/>
    <tag k="goods" v="no"/>
    <tag k="highway" v="tertiary"/>
    <tag k="lanes" v="2"/>
    <tag k="maxspeed" v="25 mph"/>
    <tag k="name" v="West End Avenue"/>
    <tag k="name:ru" v="Вест-Энд-авеню"/>
    <tag k="network" v="lcn"/>
    <tag k="oneway" v="no"/>
    <tag k="route" v="bicycle"/>
    <tag k="sidewalk" v="separate"/>
    <tag k="surface" v="asphalt"/>
    <tag k="tiger:cfcc" v="A41"/>
    <tag k="tiger:county" v="New York, NY"/>
    <tag k="tiger:name_base" v="End"/>
    <tag k="tiger:name_direction_prefix" v="W"/>
    <tag k="tiger:name_type" v="Ave"/>
    <tag k="tiger:reviewed" v="no"/>
    <tag k="wikidata" v="Q130405"/>
    <tag k="wikipedia" v="en:Eleventh Avenue (Manhattan)"/>
  </way>
  <way id="837696058">
    <bounds minlat="40.7863040" minlon="-73.9797464" maxlat="40.7866211" maxlon="-73.9795131"/>
    <nd ref="42431027" lat="40.7863040" lon="-73.9797464"/>
    <nd ref="8727756072" lat="40.7863577" lon="-73.9797070"/>
    <nd ref="7818397394" lat="40.7866211" lon="-73.9795131"/>
    <tag k="goods" v="no"/>
    <tag k="highway" v="tertiary"/>
    <tag k="lanes" v="3"/>
    <tag k="lanes:backward" v="2"/>
    <tag k="lanes:forward" v="1"/>
    <tag k="maxspeed" v="25 mph"/>
    <tag k="name" v="West End Avenue"/>
    <tag k="name:ru" v="Вест-Энд-авеню"/>
    <tag k="network" v="lcn"/>
    <tag k="oneway" v="no"/>
    <tag k="route" v="bicycle"/>
    <tag k="sidewalk" v="separate"/>
    <tag k="surface" v="asphalt"/>
    <tag k="tiger:cfcc" v="A41"/>
    <tag k="tiger:county" v="New York, NY"/>
    <tag k="tiger:name_base" v="End"/>
    <tag k="tiger:name_direction_prefix" v="W"/>
    <tag k="tiger:name_type" v="Ave"/>
    <tag k="tiger:reviewed" v="no"/>
    <tag k="turn:lanes:backward" v="left|"/>
    <tag k="wikidata" v="Q130405"/>
    <tag k="wikipedia" v="en:Eleventh Avenue (Manhattan)"/>
  </way>
  <way id="837696059">
    <bounds minlat="40.7869367" minlon="-73.9792880" maxlat="40.7875711" maxlon="-73.9788225"/>
    <nd ref="42431030" lat="40.7869367" lon="-73.9792880"/>
    <nd ref="8727756067" lat="40.7869983" lon="-73.9792438"/>
    <nd ref="8727756061" lat="40.7875201" lon="-73.9788613"/>
    <nd ref="42421810" lat="40.7875711" lon="-73.9788225"/>
    <tag k="goods" v="no"/>
    <tag k="highway" v="tertiary"/>
    <tag k="lanes" v="2"/>
    <tag k="maxspeed" v="25 mph"/>
    <tag k="name" v="West End Avenue"/>
    <tag k="name:ru" v="Вест-Энд-авеню"/>
    <tag k="network" v="lcn"/>
    <tag k="oneway" v="no"/>
    <tag k="route" v="bicycle"/>
    <tag k="sidewalk" v="separate"/>
    <tag k="surface" v="asphalt"/>
    <tag k="tiger:cfcc" v="A41"/>
    <tag k="tiger:county" v="New York, NY"/>
    <tag k="tiger:name_base" v="End"/>
    <tag k="tiger:name_direction_prefix" v="W"/>
    <tag k="tiger:name_type" v="Ave"/>
    <tag k="tiger:reviewed" v="no"/>
    <tag k="wikidata" v="Q130405"/>
    <tag k="wikipedia" v="en:Eleventh Avenue (Manhattan)"/>
  </way>
  <way id="837696060">
    <bounds minlat="40.7866211" minlon="-73.9795131" maxlat="40.7869367" maxlon="-73.9792880"/>
    <nd ref="7818397394" lat="40.7866211" lon="-73.9795131"/>
    <nd ref="8727756070" lat="40.7868819" lon="-73.9793262"/>
    <nd ref="42431030" lat="40.7869367" lon="-73.9792880"/>
    <tag k="goods" v="no"/>
    <tag k="highway" v="tertiary"/>
    <tag k="lanes" v="3"/>
    <tag k="lanes:backward" v="1"/>
    <tag k="lanes:forward" v="2"/>
    <tag k="maxspeed" v="25 mph"/>
    <tag k="name" v="West End Avenue"/>
    <tag k="name:ru" v="Вест-Энд-авеню"/>
    <tag k="network" v="lcn"/>
    <tag k="route" v="bicycle"/>
    <tag k="sidewalk" v="separate"/>
    <tag k="surface" v="asphalt"/>
    <tag k="tiger:cfcc" v="A41"/>
    <tag k="tiger:county" v="New York, NY"/>
    <tag k="tiger:name_base" v="End"/>
    <tag k="tiger:name_direction_prefix" v="W"/>
    <tag k="tiger:name_type" v="Ave"/>
    <tag k="tiger:reviewed" v="no"/>
    <tag k="turn:lanes:forward" v="left|"/>
    <tag k="wikidata" v="Q130405"/>
    <tag k="wikipedia" v="en:Eleventh Avenue (Manhattan)"/>
  </way>
  <way id="837696061">
    <bounds minlat="40.7875711" minlon="-73.9788225" maxlat="40.7878976" maxlon="-73.9785833"/>
    <nd ref="42421810" lat="40.7875711" lon="-73.9788225"/>
    <nd ref="8727756058" lat="40.7876326" lon="-73.9787769"/>
    <nd ref="7818397395" lat="40.7878976" lon="-73.9785833"/>
    <tag k="goods" v="no"/>
    <tag k="highway" v="tertiary"/>
    <tag k="lanes" v="3"/>
    <tag k="lanes:backward" v="1"/>
    <tag k="lanes:forward" v="2"/>
    <tag k="maxspeed" v="25 mph"/>
    <tag k="name" v="West End Avenue"/>
    <tag k="name:ru" v="Вест-Энд-авеню"/>
    <tag k="network" v="lcn"/>
    <tag k="oneway" v="no"/>
    <tag k="route" v="bicycle"/>
    <tag k="sidewalk" v="separate"/>
    <tag k="surface" v="asphalt"/>
    <tag k="tiger:cfcc" v="A41"/>
    <tag k="tiger:county" v="New York, NY"/>
    <tag k="tiger:name_base" v="End"/>
    <tag k="tiger:name_direction_prefix" v="W"/>
    <tag k="tiger:name_type" v="Ave"/>
    <tag k="tiger:reviewed" v="no"/>
    <tag k="turn:lanes:forward" v="left|"/>
    <tag k="wikidata" v="Q130405"/>
    <tag k="wikipedia" v="en:Eleventh Avenue (Manhattan)"/>
  </way>
  <way id="837696062">
    <bounds minlat="40.7878976" minlon="-73.9785833" maxlat="40.7882037" maxlon="-73.9783631"/>
    <nd ref="7818397395" lat="40.7878976" lon="-73.9785833"/>
    <nd ref="8727756056" lat="40.7881546" lon="-73.9784000"/>
    <nd ref="42431034" lat="40.7882037" lon="-73.9783631"/>
    <tag k="goods" v="no"/>
    <tag k="highway" v="tertiary"/>
    <tag k="lanes" v="3"/>
    <tag k="lanes:backward" v="1"/>
    <tag k="lanes:forward" v="2"/>
    <tag k="maxspeed" v="25 mph"/>
    <tag k="name" v="West End Avenue"/>
    <tag k="name:ru" v="Вест-Энд-авеню"/>
    <tag k="network" v="lcn"/>
    <tag k="route" v="bicycle"/>
    <tag k="sidewalk" v="separate"/>
    <tag k="surface" v="asphalt"/>
    <tag k="tiger:cfcc" v="A41"/>
    <tag k="tiger:county" v="New York, NY"/>
    <tag k="tiger:name_base" v="End"/>
    <tag k="tiger:name_direction_prefix" v="W"/>
    <tag k="tiger:name_type" v="Ave"/>
    <tag k="tiger:reviewed" v="no"/>
    <tag k="turn:lanes:forward" v="left|"/>
    <tag k="wikidata" v="Q130405"/>
    <tag k="wikipedia" v="en:Eleventh Avenue (Manhattan)"/>
  </way>
  <way id="837696063">
    <bounds minlat="40.7882660" minlon="-73.9783146" maxlat="40.7885891" maxlon="-73.9780790"/>
    <nd ref="8727756052" lat="40.7882660" lon="-73.9783146"/>
    <nd ref="7818397396" lat="40.7885891" lon="-73.9780790"/>
    <tag k="goods" v="no"/>
    <tag k="highway" v="tertiary"/>
    <tag k="lanes" v="3"/>
    <tag k="lanes:backward" v="1"/>
    <tag k="lanes:forward" v="2"/>
    <tag k="maxspeed" v="25 mph"/>
    <tag k="name" v="West End Avenue"/>
    <tag k="name:ru" v="Вест-Энд-авеню"/>
    <tag k="network" v="lcn"/>
    <tag k="oneway" v="no"/>
    <tag k="route" v="bicycle"/>
    <tag k="sidewalk" v="both"/>
    <tag k="surface" v="asphalt"/>
    <tag k="tiger:cfcc" v="A41"/>
    <tag k="tiger:county" v="New York, NY"/>
    <tag k="tiger:name_base" v="End"/>
    <tag k="tiger:name_direction_prefix" v="W"/>
    <tag k="tiger:name_type" v="Ave"/>
    <tag k="tiger:reviewed" v="no"/>
    <tag k="wikidata" v="Q130405"/>
    <tag k="wikipedia" v="en:Eleventh Avenue (Manhattan)"/>
  </way>
  <way id="837696064">
    <bounds minlat="40.7885891" minlon="-73.9780790" maxlat="40.7888916" maxlon="-73.9778597"/>
    <nd ref="7818397396" lat="40.7885891" lon="-73.9780790"/>
    <nd ref="9492556528" lat="40.7887974" lon="-73.9779274"/>
    <nd ref="42431037" lat="40.7888916" lon="-73.9778597"/>
    <tag k="goods" v="no"/>
    <tag k="highway" v="tertiary"/>
    <tag k="lanes" v="4"/>
    <tag k="lanes:backward" v="1"/>
    <tag k="lanes:forward" v="3"/>
    <tag k="maxspeed" v="25 mph"/>
    <tag k="name" v="West End Avenue"/>
    <tag k="name:ru" v="Вест-Энд-авеню"/>
    <tag k="network" v="lcn"/>
    <tag k="oneway" v="no"/>
    <tag k="route" v="bicycle"/>
    <tag k="sidewalk" v="both"/>
    <tag k="surface" v="asphalt"/>
    <tag k="tiger:cfcc" v="A41"/>
    <tag k="tiger:county" v="New York, NY"/>
    <tag k="tiger:name_base" v="End"/>
    <tag k="tiger:name_direction_prefix" v="W"/>
    <tag k="tiger:name_type" v="Ave"/>
    <tag k="tiger:reviewed" v="no"/>
    <tag k="turn:lanes:forward" v="left|through|right"/>
    <tag k="wikidata" v="Q130405"/>
    <tag k="wikipedia" v="en:Eleventh Avenue (Manhattan)"/>
  </way>
  <way id="837696065">
    <bounds minlat="40.7892539" minlon="-73.9775934" maxlat="40.7895635" maxlon="-73.9773679"/>
    <nd ref="7818397397" lat="40.7892539" lon="-73.9775934"/>
    <nd ref="11670601659" lat="40.7895101" lon="-73.9774068"/>
    <nd ref="42431039" lat="40.7895635" lon="-73.9773679"/>
    <tag k="goods" v="no"/>
    <tag k="highway" v="tertiary"/>
    <tag k="lanes" v="3"/>
    <tag k="lanes:backward" v="1"/>
    <tag k="lanes:forward" v="2"/>
    <tag k="name" v="West End Avenue"/>
    <tag k="name:ru" v="Вест-Энд-авеню"/>
    <tag k="network" v="lcn"/>
    <tag k="oneway" v="no"/>
    <tag k="route" v="bicycle"/>
    <tag k="sidewalk" v="both"/>
    <tag k="surface" v="asphalt"/>
    <tag k="tiger:cfcc" v="A41"/>
    <tag k="tiger:county" v="New York, NY"/>
    <tag k="tiger:name_base" v="End"/>
    <tag k="tiger:name_direction_prefix" v="W"/>
    <tag k="tiger:name_type" v="Ave"/>
    <tag k="tiger:reviewed" v="no"/>
    <tag k="turn:lanes:forward" v="left|"/>
    <tag k="wikidata" v="Q130405"/>
    <tag k="wikipedia" v="en:Eleventh Avenue (Manhattan)"/>
  </way>
  <way id="895398381">
    <bounds minlat="40.7804048" minlon="-73.9803202" maxlat="40.7805610" maxlon="-73.9802100"/>
    <nd ref="8323051889" lat="40.7804048" lon="-73.9803202"/>
    <nd ref="11135523287" lat="40.7805014" lon="-73.9802520"/>
    <nd ref="42442451" lat="40.7805610" lon="-73.9802100"/>
    <tag k="cycleway:left" v="shared_lane"/>
    <tag k="cycleway:left:lane" v="pictogram"/>
    <tag k="cycleway:left:oneway" v="yes"/>
    <tag k="cycleway:right" v="no"/>
    <tag k="hgv" v="local"/>
    <tag k="highway" v="primary"/>
    <tag k="lanes" v="4"/>
    <tag k="name" v="Amsterdam Avenue"/>
    <tag k="name:ru" v="Амстердам-авеню"/>
    <tag k="oneway" v="yes"/>
    <tag k="surface" v="asphalt"/>
    <tag k="tiger:cfcc" v="A41"/>
    <tag k="tiger:county" v="New York, NY"/>
    <tag k="tiger:name_base" v="Amsterdam"/>
    <tag k="tiger:name_type" v="Ave"/>
    <tag k="tiger:reviewed" v="no"/>
    <tag k="tiger:zip_left" v="10040"/>
    <tag k="tiger:zip_left_1" v="10040"/>
    <tag k="turn:lanes" v="left|through|through|through"/>
    <tag k="wikidata" v="Q130388"/>
    <tag k="wikipedia" v="en:Tenth Avenue (Manhattan)"/>
  </way>
  <way id="895398382">
    <bounds minlat="40.7805610" minlon="-73.9802100" maxlat="40.7816871" maxlon="-73.9793878"/>
    <nd ref="42442451" lat="40.7805610" lon="-73.9802100"/>
    <nd ref="9897616167" lat="40.7806170" lon="-73.9801691"/>
    <nd ref="9611179676" lat="40.7811445" lon="-73.9797842"/>
    <nd ref="42442459" lat="40.7811846" lon="-73.9797549"/>
    <nd ref="9611179678" lat="40.7812541" lon="-73.9797040"/>
    <nd ref="8323051890" lat="40.7816871" lon="-73.9793878"/>
    <tag k="cycleway:left" v="track"/>
    <tag k="cycleway:left:oneway" v="yes"/>
    <tag k="hgv" v="local"/>
    <tag k="highway" v="primary"/>
    <tag k="lanes" v="3"/>
    <tag k="name" v="Amsterdam Avenue"/>
    <tag k="name:ru" v="Амстердам-авеню"/>
    <tag k="oneway" v="yes"/>
    <tag k="surface" v="asphalt"/>
    <tag k="tiger:cfcc" v="A41"/>
    <tag k="tiger:county" v="New York, NY"/>
    <tag k="tiger:name_base" v="Amsterdam"/>
    <tag k="tiger:name_type" v="Ave"/>
    <tag k="tiger:reviewed" v="no"/>
    <tag k="tiger:zip_left" v="10040"/>
    <tag k="tiger:zip_left_1" v="10040"/>
    <tag k="wikidata" v="Q130388"/>
    <tag k="wikipedia" v="en:Tenth Avenue (Manhattan)"/>
  </way>
  <way id="895398383">
    <bounds minlat="40.7816871" minlon="-73.9793878" maxlat="40.7818426" maxlon="-73.9792740"/>
    <nd ref="8323051890" lat="40.7816871" lon="-73.9793878"/>
    <nd ref="9611179680" lat="40.7817779" lon="-73.9793219"/>
    <nd ref="42438862" lat="40.7818426" lon="-73.9792740"/>
    <tag k="cycleway:left" v="shared_lane"/>
    <tag k="cycleway:left:lane" v="pictogram"/>
    <tag k="cycleway:left:oneway" v="yes"/>
    <tag k="cycleway:right" v="no"/>
    <tag k="hgv" v="local"/>
    <tag k="highway" v="primary"/>
    <tag k="lanes" v="4"/>
    <tag k="name" v="Amsterdam Avenue"/>
    <tag k="name:ru" v="Амстердам-авеню"/>
    <tag k="oneway" v="yes"/>
    <tag k="surface" v="asphalt"/>
    <tag k="tiger:cfcc" v="A41"/>
    <tag k="tiger:county" v="New York, NY"/>
    <tag k="tiger:name_base" v="Amsterdam"/>
    <tag k="tiger:name_type" v="Ave"/>
    <tag k="tiger:reviewed" v="no"/>
    <tag k="tiger:zip_left" v="10040"/>
    <tag k="tiger:zip_left_1" v="10040"/>
    <tag k="turn:lanes" v="left|through|through|through"/>
    <tag k="wikidata" v="Q130388"/>
    <tag k="wikipedia" v="en:Tenth Avenue (Manhattan)"/>
  </way>
  <way id="895398384">
    <bounds minlat="40.7818426" minlon="-73.9792740" maxlat="40.7827373" maxlon="-73.9786255"/>
    <nd ref="42438862" lat="40.7818426" lon="-73.9792740"/>
    <nd ref="9611179672" lat="40.7818902" lon="-73.9792398"/>
    <nd ref="9897654913" lat="40.7824125" lon="-73.9788587"/>
    <nd ref="42428063" lat="40.7824641" lon="-73.9788209"/>
    <nd ref="9897654915" lat="40.7825253" lon="-73.9787771"/>
    <nd ref="6929267036" lat="40.7827373" lon="-73.9786255"/>
    <tag k="cycleway:left" v="track"/>
    <tag k="cycleway:left:oneway" v="yes"/>
    <tag k="hgv" v="local"/>
    <tag k="highway" v="primary"/>
    <tag k="lanes" v="3"/>
    <tag k="name" v="Amsterdam Avenue"/>
    <tag k="name:ru" v="Амстердам-авеню"/>
    <tag k="oneway" v="yes"/>
    <tag k="surface" v="asphalt"/>
    <tag k="tiger:cfcc" v="A41"/>
    <tag k="tiger:county" v="New York, NY"/>
    <tag k="tiger:name_base" v="Amsterdam"/>
    <tag k="tiger:name_type" v="Ave"/>
    <tag k="tiger:reviewed" v="no"/>
    <tag k="tiger:zip_left" v="10040"/>
    <tag k="tiger:zip_left_1" v="10040"/>
    <tag k="wikidata" v="Q130388"/>
    <tag k="wikipedia" v="en:Tenth Avenue (Manhattan)"/>
  </way>
  <way id="895398385">
    <bounds minlat="40.7827373" minlon="-73.9786255" maxlat="40.7831527" maxlon="-73.9783277"/>
    <nd ref="6929267036" lat="40.7827373" lon="-73.9786255"/>
    <nd ref="9897806736" lat="40.7830613" lon="-73.9783939"/>
    <nd ref="42442463" lat="40.7831527" lon="-73.9783277"/>
    <tag k="cycleway:left" v="lane"/>
    <tag k="cycleway:left:oneway" v="yes"/>
    <tag k="hgv" v="local"/>
    <tag k="highway" v="primary"/>
    <tag k="lanes" v="5"/>
    <tag k="name" v="Amsterdam Avenue"/>
    <tag k="name:ru" v="Амстердам-авеню"/>
    <tag k="oneway" v="yes"/>
    <tag k="surface" v="asphalt"/>
    <tag k="tiger:cfcc" v="A41"/>
    <tag k="tiger:county" v="New York, NY"/>
    <tag k="tiger:name_base" v="Amsterdam"/>
    <tag k="tiger:name_type" v="Ave"/>
    <tag k="tiger:reviewed" v="no"/>
    <tag k="tiger:zip_left" v="10040"/>
    <tag k="tiger:zip_left_1" v="10040"/>
    <tag k="turn:lanes" v="left|through|through|through|right"/>
    <tag k="wikidata" v="Q130388"/>
    <tag k="wikipedia" v="en:Tenth Avenue (Manhattan)"/>
  </way>
  <way id="945375289">
    <bounds minlat="40.7895635" minlon="-73.9798657" maxlat="40.7906175" maxlon="-73.9773679"/>
    <nd ref="42431039" lat="40.7895635" lon="-73.9773679"/>
    <nd ref="9492556613" lat="40.7896179" lon="-73.9774930"/>
    <nd ref="10039795805" lat="40.7905766" lon="-73.9797685"/>
    <nd ref="42434161" lat="40.7906175" lon="-73.9798657"/>
    <tag k="alt_name" v="West 87 Street"/>
    <tag k="highway" v="residential"/>
    <tag k="lanes" v="2"/>
    <tag k="name" v="West 87th Street"/>
    <tag k="name:ru" v="Западная 87-я стрит"/>
    <tag k="oneway" v="yes"/>
    <tag k="surface" v="asphalt"/>
    <tag k="tiger:cfcc" v="A41"/>
    <tag k="tiger:county" v="New York, NY"/>
    <tag k="tiger:name_base" v="87th"/>
    <tag k="tiger:name_base_1" v="87"/>
    <tag k="tiger:name_direction_prefix" v="W"/>
    <tag k="tiger:name_direction_prefix_1" v="W"/>
    <tag k="tiger:name_type" v="St"/>
    <tag k="tiger:name_type_1" v="St"/>
    <tag k="tiger:reviewed" v="no"/>
    <tag k="tiger:zip_left" v="10024"/>
    <tag k="tiger:zip_right" v="10024"/>
  </way>
  <way id="945375290">
    <bounds minlat="40.7889354" minlon="-73.9773679" maxlat="40.7895635" maxlon="-73.9758801"/>
    <nd ref="1061531637" lat="40.7889354" lon="-73.9758801"/>
    <nd ref="42428678" lat="40.7890078" lon="-73.9760520"/>
    <nd ref="8699239274" lat="40.7890479" lon="-73.9761472"/>
    <nd ref="9492542199" lat="40.7895121" lon="-73.9772484"/>
    <nd ref="42431039" lat="40.7895635" lon="-73.9773679"/>
    <tag k="alt_name" v="West 87 Street"/>
    <tag k="highway" v="residential"/>
    <tag k="lanes" v="2"/>
    <tag k="name" v="West 87th Street"/>
    <tag k="name:ru" v="Западная 87-я стрит"/>
    <tag k="oneway" v="yes"/>
    <tag k="surface" v="asphalt"/>
    <tag k="tiger:cfcc" v="A41"/>
    <tag k="tiger:county" v="New York, NY"/>
    <tag k="tiger:name_base" v="87th"/>
    <tag k="tiger:name_base_1" v="87"/>
    <tag k="tiger:name_direction_prefix" v="W"/>
    <tag k="tiger:name_direction_prefix_1" v="W"/>
    <tag k="tiger:name_type" v="St"/>
    <tag k="tiger:name_type_1" v="St"/>
    <tag k="tiger:reviewed" v="no"/>
    <tag k="tiger:zip_left" v="10024"/>
    <tag k="tiger:zip_right" v="10024"/>
  </way>
  <way id="954503819">
    <bounds minlat="40.7870011" minlon="-73.9808538" maxlat="40.7892552" maxlon="-73.9755093"/>
    <nd ref="42442475" lat="40.7870011" lon="-73.9755093"/>
    <nd ref="6207264904" lat="40.7870421" lon="-73.9756066"/>
    <nd ref="10039932500" lat="40.7870571" lon="-73.9756421"/>
    <nd ref="8699239237" lat="40.7875802" lon="-73.9768786"/>
    <nd ref="1061531839" lat="40.7876288" lon="-73.9769983"/>
    <nd ref="42428670" lat="40.7877015" lon="-73.9771707"/>
    <nd ref="8699239243" lat="40.7877423" lon="-73.9772675"/>
    <nd ref="10039741683" lat="40.7881487" lon="-73.9782289"/>
    <nd ref="42431034" lat="40.7882037" lon="-73.9783631"/>
    <nd ref="8727756050" lat="40.7882555" lon="-73.9784850"/>
    <nd ref="10039741695" lat="40.7892135" lon="-73.9807551"/>
    <nd ref="42441569" lat="40.7892552" lon="-73.9808538"/>
    <tag k="alt_name" v="West 85 Street"/>
    <tag k="highway" v="residential"/>
    <tag k="name" v="West 85th Street"/>
    <tag k="name:ru" v="Западная 85-я стрит"/>
    <tag k="oneway" v="yes"/>
    <tag k="tiger:cfcc" v="A41"/>
    <tag k="tiger:county" v="New York, NY"/>
    <tag k="tiger:name_base" v="85th"/>
    <tag k="tiger:name_base_1" v="85"/>
    <tag k="tiger:name_direction_prefix" v="W"/>
    <tag k="tiger:name_direction_prefix_1" v="W"/>
    <tag k="tiger:name_type" v="St"/>
    <tag k="tiger:name_type_1" v="St"/>
    <tag k="tiger:reviewed" v="no"/>
    <tag k="tiger:zip_left" v="10024"/>
    <tag k="tiger:zip_right" v="10024"/>
    <tag k="wikidata" v="Q4644879"/>
    <tag k="wikipedia" v="en:85th Street (Manhattan)"/>
  </way>
  <way id="954503820">
    <bounds minlat="40.7872801" minlon="-73.9753024" maxlat="40.7876861" maxlon="-73.9750103"/>
    <nd ref="7194269381" lat="40.7872801" lon="-73.9753024"/>
    <nd ref="9547662379" lat="40.7875910" lon="-73.9750779"/>
    <nd ref="42442480" lat="40.7876861" lon="-73.9750103"/>
    <tag k="cycleway:left" v="lane"/>
    <tag k="cycleway:left:oneway" v="yes"/>
    <tag k="hgv" v="local"/>
    <tag k="highway" v="primary"/>
    <tag k="lanes" v="4"/>
    <tag k="name" v="Amsterdam Avenue"/>
    <tag k="name:ru" v="Амстердам-авеню"/>
    <tag k="oneway" v="yes"/>
    <tag k="surface" v="asphalt"/>
    <tag k="tiger:cfcc" v="A41"/>
    <tag k="tiger:county" v="New York, NY"/>
    <tag k="tiger:name_base" v="Amsterdam"/>
    <tag k="tiger:name_type" v="Ave"/>
    <tag k="tiger:reviewed" v="no"/>
    <tag k="tiger:zip_left" v="10040"/>
    <tag k="tiger:zip_left_1" v="10040"/>
    <tag k="turn:lanes" v="left|through|none|none"/>
    <tag k="wikidata" v="Q130388"/>
    <tag k="wikipedia" v="en:Tenth Avenue (Manhattan)"/>
  </way>
  <way id="955259023">
    <bounds minlat="40.7855632" minlon="-73.9765601" maxlat="40.7857321" maxlon="-73.9764355"/>
    <nd ref="6929267014" lat="40.7855632" lon="-73.9765601"/>
    <nd ref="10039927885" lat="40.7856737" lon="-73.9764786"/>
    <nd ref="42437305" lat="40.7857321" lon="-73.9764355"/>
    <tag k="cycleway:left" v="shared_lane"/>
    <tag k="cycleway:left:lane" v="pictogram"/>
    <tag k="cycleway:left:oneway" v="yes"/>
    <tag k="cycleway:right" v="no"/>
    <tag k="hgv" v="local"/>
    <tag k="highway" v="primary"/>
    <tag k="lanes" v="4"/>
    <tag k="name" v="Amsterdam Avenue"/>
    <tag k="name:ru" v="Амстердам-авеню"/>
    <tag k="oneway" v="yes"/>
    <tag k="surface" v="asphalt"/>
    <tag k="tiger:cfcc" v="A41"/>
    <tag k="tiger:county" v="New York, NY"/>
    <tag k="tiger:name_base" v="Amsterdam"/>
    <tag k="tiger:name_type" v="Ave"/>
    <tag k="tiger:reviewed" v="no"/>
    <tag k="tiger:zip_left" v="10040"/>
    <tag k="tiger:zip_left_1" v="10040"/>
    <tag k="turn:lanes" v="left|through|through|through"/>
    <tag k="wikidata" v="Q130388"/>
    <tag k="wikipedia" v="en:Tenth Avenue (Manhattan)"/>
  </way>
  <way id="957532385">
    <bounds minlat="40.7856546" minlon="-73.9840057" maxlat="40.7873443" maxlon="-73.9831775"/>
    <nd ref="61269400" lat="40.7873443" lon="-73.9831775"/>
    <nd ref="7910007162" lat="40.7871288" lon="-73.9832538"/>
    <nd ref="61269401" lat="40.7869280" lon="-73.9833322"/>
    <nd ref="61269402" lat="40.7867243" lon="-73.9834154"/>
    <nd ref="12162590069" lat="40.7865613" lon="-73.9834899"/>
    <nd ref="61269403" lat="40.7864075" lon="-73.9835640"/>
    <nd ref="61269404" lat="40.7862527" lon="-73.9836377"/>
    <nd ref="61269405" lat="40.7860978" lon="-73.9837232"/>
    <nd ref="12162590068" lat="40.7859560" lon="-73.9838100"/>
    <nd ref="61269406" lat="40.7858194" lon="-73.9838949"/>
    <nd ref="595295436" lat="40.7856546" lon="-73.9840057"/>
    <tag k="goods" v="no"/>
    <tag k="hgv" v="no"/>
    <tag k="highway" v="motorway"/>
    <tag k="lanes" v="3"/>
    <tag k="maxspeed" v="50 mph"/>
    <tag k="motorcar" v="designated"/>
    <tag k="name" v="Henry Hudson Parkway"/>
    <tag k="not:name" v="West Side Highway"/>
    <tag k="oneway" v="yes"/>
    <tag k="ref" v="HH;NY 9A"/>
    <tag k="surface" v="asphalt"/>
    <tag k="unsigned_ref" v="NY 907V"/>
  </way>
  <way id="957873160">
    <bounds minlat="40.7835314" minlon="-73.9853322" maxlat="40.7854386" maxlon="-73.9839963"/>
    <nd ref="42423070" lat="40.7835314" lon="-73.9853322"/>
    <nd ref="42422545" lat="40.7851229" lon="-73.9842014"/>
    <nd ref="595295538" lat="40.7854386" lon="-73.9839963"/>
    <tag k="goods" v="no"/>
    <tag k="hgv" v="no"/>
    <tag k="highway" v="motorway"/>
    <tag k="lanes" v="3"/>
    <tag k="maxspeed" v="50 mph"/>
    <tag k="motorcar" v="designated"/>
    <tag k="name" v="Henry Hudson Parkway"/>
    <tag k="not:name" v="West Side Highway"/>
    <tag k="oneway" v="yes"/>
    <tag k="ref" v="HH;NY 9A"/>
    <tag k="surface" v="asphalt"/>
    <tag k="unsigned_ref" v="NY 907V"/>
  </way>
  <way id="1025731514">
    <bounds minlat="40.7843100" minlon="-73.9774740" maxlat="40.7844692" maxlon="-73.9773536"/>
    <nd ref="9457151133" lat="40.7843100" lon="-73.9774740"/>
    <nd ref="9906904520" lat="40.7844124" lon="-73.9773960"/>
    <nd ref="42442469" lat="40.7844692" lon="-73.9773536"/>
    <tag k="cycleway:left" v="shared_lane"/>
    <tag k="cycleway:left:lane" v="pictogram"/>
    <tag k="cycleway:left:oneway" v="yes"/>
    <tag k="cycleway:right" v="no"/>
    <tag k="hgv" v="local"/>
    <tag k="highway" v="primary"/>
    <tag k="lanes" v="4"/>
    <tag k="name" v="Amsterdam Avenue"/>
    <tag k="name:ru" v="Амстердам-авеню"/>
    <tag k="oneway" v="yes"/>
    <tag k="sidewalk:both" v="separate"/>
    <tag k="surface" v="asphalt"/>
    <tag k="tiger:cfcc" v="A41"/>
    <tag k="tiger:county" v="New York, NY"/>
    <tag k="tiger:name_base" v="Amsterdam"/>
    <tag k="tiger:name_type" v="Ave"/>
    <tag k="tiger:reviewed" v="no"/>
    <tag k="tiger:zip_left" v="10040"/>
    <tag k="tiger:zip_left_1" v="10040"/>
    <tag k="turn:lanes" v="left|through||"/>
    <tag k="wikidata" v="Q130388"/>
    <tag k="wikipedia" v="en:Tenth Avenue (Manhattan)"/>
  </way>
  <way id="1025731515">
    <bounds minlat="40.7870011" minlon="-73.9755093" maxlat="40.7872801" maxlon="-73.9753024"/>
    <nd ref="42442475" lat="40.7870011" lon="-73.9755093"/>
    <nd ref="10039932503" lat="40.7870641" lon="-73.9754626"/>
    <nd ref="7194269381" lat="40.7872801" lon="-73.9753024"/>
    <tag k="cycleway:left" v="track"/>
    <tag k="cycleway:left:oneway" v="yes"/>
    <tag k="hgv" v="local"/>
    <tag k="highway" v="primary"/>
    <tag k="lanes" v="3"/>
    <tag k="name" v="Amsterdam Avenue"/>
    <tag k="name:ru" v="Амстердам-авеню"/>
    <tag k="oneway" v="yes"/>
    <tag k="surface" v="asphalt"/>
    <tag k="tiger:cfcc" v="A41"/>
    <tag k="tiger:county" v="New York, NY"/>
    <tag k="tiger:name_base" v="Amsterdam"/>
    <tag k="tiger:name_type" v="Ave"/>
    <tag k="tiger:reviewed" v="no"/>
    <tag k="tiger:zip_left" v="10040"/>
    <tag k="tiger:zip_left_1" v="10040"/>
    <tag k="turn:lanes" v="through|none|none"/>
    <tag k="wikidata" v="Q130388"/>
    <tag k="wikipedia" v="en:Tenth Avenue (Manhattan)"/>
  </way>
  <way id="1025731516">
    <bounds minlat="40.7876861" minlon="-73.9750103" maxlat="40.7882053" maxlon="-73.9746302"/>
    <nd ref="42442480" lat="40.7876861" lon="-73.9750103"/>
    <nd ref="9547662380" lat="40.7877828" lon="-73.9749385"/>
    <nd ref="9457151134" lat="40.7882053" lon="-73.9746302"/>
    <tag k="cycleway:left" v="track"/>
    <tag k="cycleway:left:oneway" v="yes"/>
    <tag k="hgv" v="local"/>
    <tag k="highway" v="primary"/>
    <tag k="name" v="Amsterdam Avenue"/>
    <tag k="name:ru" v="Амстердам-авеню"/>
    <tag k="oneway" v="yes"/>
    <tag k="surface" v="asphalt"/>
    <tag k="tiger:cfcc" v="A41"/>
    <tag k="tiger:county" v="New York, NY"/>
    <tag k="tiger:name_base" v="Amsterdam"/>
    <tag k="tiger:name_type" v="Ave"/>
    <tag k="tiger:reviewed" v="no"/>
    <tag k="tiger:zip_left" v="10040"/>
    <tag k="tiger:zip_left_1" v="10040"/>
    <tag k="wikidata" v="Q130388"/>
    <tag k="wikipedia" v="en:Tenth Avenue (Manhattan)"/>
  </way>
  <way id="1052799032">
    <bounds minlat="40.7810636" minlon="-73.9761556" maxlat="40.7812798" maxlon="-73.9759984"/>
    <nd ref="42428061" lat="40.7812798" lon="-73.9759984"/>
    <nd ref="10156924787" lat="40.7812240" lon="-73.9760389"/>
    <nd ref="10172954506" lat="40.7811325" lon="-73.9761055"/>
    <nd ref="9675339211" lat="40.7810636" lon="-73.9761556"/>
    <tag k="cycleway:left" v="track"/>
    <tag k="cycleway:left:oneway" v="yes"/>
    <tag k="hgv" v="local"/>
    <tag k="highway" v="primary"/>
    <tag k="lanes" v="3"/>
    <tag k="lit" v="yes"/>
    <tag k="maxspeed" v="25 mph"/>
    <tag k="maxspeed:type" v="sign"/>
    <tag k="name" v="Columbus Avenue"/>
    <tag k="name:ru" v="Коламбус-авеню"/>
    <tag k="oneway" v="yes"/>
    <tag k="sidewalk" v="separate"/>
    <tag k="surface" v="asphalt"/>
    <tag k="tiger:cfcc" v="A41"/>
    <tag k="tiger:county" v="New York, NY"/>
    <tag k="tiger:name_base" v="Columbus"/>
    <tag k="tiger:name_type" v="Ave"/>
    <tag k="tiger:reviewed" v="no"/>
    <tag k="tiger:zip_left" v="10025"/>
    <tag k="tiger:zip_right" v="10025"/>
    <tag k="wikidata" v="Q130378"/>
    <tag k="wikipedia" v="en:Ninth Avenue (Manhattan)"/>
  </way>
  <way id="1053628248">
    <bounds minlat="40.7826383" minlon="-73.9750067" maxlat="40.7832589" maxlon="-73.9745499"/>
    <nd ref="42443280" lat="40.7832589" lon="-73.9745499"/>
    <nd ref="4689234438" lat="40.7831881" lon="-73.9746071"/>
    <nd ref="9897810860" lat="40.7826966" lon="-73.9749624"/>
    <nd ref="42421769" lat="40.7826383" lon="-73.9750067"/>
    <tag k="cycleway:left" v="track"/>
    <tag k="cycleway:left:oneway" v="yes"/>
    <tag k="hgv" v="local"/>
    <tag k="highway" v="primary"/>
    <tag k="lanes" v="4"/>
    <tag k="lit" v="yes"/>
    <tag k="maxspeed" v="25 mph"/>
    <tag k="maxspeed:type" v="sign"/>
    <tag k="name" v="Columbus Avenue"/>
    <tag k="name:ru" v="Коламбус-авеню"/>
    <tag k="oneway" v="yes"/>
    <tag k="sidewalk" v="separate"/>
    <tag k="surface" v="asphalt"/>
    <tag k="tiger:cfcc" v="A41"/>
    <tag k="tiger:county" v="New York, NY"/>
    <tag k="tiger:name_base" v="Columbus"/>
    <tag k="tiger:name_type" v="Ave"/>
    <tag k="tiger:reviewed" v="no"/>
    <tag k="tiger:zip_left" v="10025"/>
    <tag k="tiger:zip_right" v="10025"/>
    <tag k="wikidata" v="Q130378"/>
    <tag k="wikipedia" v="en:Ninth Avenue (Manhattan)"/>
  </way>
  <way id="1080864179">
    <bounds minlat="40.7819606" minlon="-73.9761686" maxlat="40.7822414" maxlon="-73.9754991"/>
    <nd ref="42443347" lat="40.7819606" lon="-73.9754991"/>
    <nd ref="9897810840" lat="40.7820115" lon="-73.9756177"/>
    <nd ref="5316108106" lat="40.7822414" lon="-73.9761686"/>
    <tag k="bicycle" v="yes"/>
    <tag k="hgv" v="local"/>
    <tag k="highway" v="secondary"/>
    <tag k="lanes" v="4"/>
    <tag k="maxspeed" v="25 mph"/>
    <tag k="name" v="West 79th Street"/>
    <tag k="name:ru" v="Западная 79-я стрит"/>
    <tag k="name_1" v="West 79 Street"/>
    <tag k="sidewalk:both" v="separate"/>
    <tag k="surface" v="asphalt"/>
    <tag k="tiger:cfcc" v="A41"/>
    <tag k="tiger:county" v="New York, NY"/>
    <tag k="tiger:name_base" v="79th"/>
    <tag k="tiger:name_base_1" v="79"/>
    <tag k="tiger:name_direction_prefix" v="W"/>
    <tag k="tiger:name_direction_prefix_1" v="W"/>
    <tag k="tiger:name_type" v="St"/>
    <tag k="tiger:name_type_1" v="St"/>
    <tag k="tiger:reviewed" v="no"/>
    <tag k="tiger:zip_left" v="10024"/>
    <tag k="tiger:zip_right" v="10024"/>
    <tag k="turn:lanes:backward" v="right|right"/>
    <tag k="wikidata" v="Q2818314"/>
    <tag k="wikipedia" v="en:79th Street (Manhattan)"/>
  </way>
  <way id="1080864180">
    <bounds minlat="40.7847833" minlon="-73.9826519" maxlat="40.7849764" maxlon="-73.9821955"/>
    <nd ref="9906904523" lat="40.7847833" lon="-73.9821955"/>
    <nd ref="4906056158" lat="40.7849307" lon="-73.9825457"/>
    <nd ref="42422592" lat="40.7849764" lon="-73.9826519"/>
    <tag k="alt_name" v="West 79 Street"/>
    <tag k="bicycle" v="yes"/>
    <tag k="hgv" v="destination"/>
    <tag k="highway" v="secondary"/>
    <tag k="lanes" v="4"/>
    <tag k="maxspeed" v="25 mph"/>
    <tag k="name" v="West 79th Street"/>
    <tag k="name:ru" v="Западная 79-я стрит"/>
    <tag k="surface" v="asphalt"/>
    <tag k="tiger:cfcc" v="A41"/>
    <tag k="tiger:county" v="New York, NY"/>
    <tag k="tiger:name_base" v="79th"/>
    <tag k="tiger:name_base_1" v="79"/>
    <tag k="tiger:name_direction_prefix" v="W"/>
    <tag k="tiger:name_direction_prefix_1" v="W"/>
    <tag k="tiger:name_type" v="St"/>
    <tag k="tiger:name_type_1" v="St"/>
    <tag k="tiger:reviewed" v="no"/>
    <tag k="tiger:zip_left" v="10024"/>
    <tag k="tiger:zip_right" v="10024"/>
    <tag k="turn:lanes:forward" v="through|through;right"/>
    <tag k="wikidata" v="Q2818314"/>
    <tag k="wikipedia" v="en:79th Street (Manhattan)"/>
  </way>
  <way id="1080864181">
    <bounds minlat="40.7850603" minlon="-73.9833865" maxlat="40.7852901" maxlon="-73.9828455"/>
    <nd ref="4205820213" lat="40.7852901" lon="-73.9833865"/>
    <nd ref="9906904524" lat="40.7851596" lon="-73.9830841"/>
    <nd ref="7912855687" lat="40.7850603" lon="-73.9828455"/>
    <tag k="bicycle" v="no"/>
    <tag k="fixme" v="bicycle=no and oneway=yes are temporary during construction; restore oneway=no and cycleway tags after survey once construction is complete"/>
    <tag k="hgv" v="no"/>
    <tag k="highway" v="secondary"/>
    <tag k="lanes" v="2"/>
    <tag k="maxspeed" v="25 mph"/>
    <tag k="name" v="West 79th Street"/>
    <tag k="name:ru" v="Западная 79-я стрит"/>
    <tag k="name_1" v="West 79 Street"/>
    <tag k="oneway" v="yes"/>
    <tag k="surface" v="asphalt"/>
    <tag k="tiger:cfcc" v="A41"/>
    <tag k="tiger:county" v="New York, NY"/>
    <tag k="tiger:name_base" v="79th"/>
    <tag k="tiger:name_direction_prefix" v="W"/>
    <tag k="tiger:name_type" v="St"/>
    <tag k="tiger:zip_left" v="10024"/>
    <tag k="tiger:zip_right" v="10024"/>
    <tag k="turn:lanes" v="through|through;right"/>
    <tag k="wikidata" v="Q2818314"/>
    <tag k="wikipedia" v="en:79th Street (Manhattan)"/>
  </way>
  <way id="1081978812">
    <bounds minlat="40.7882037" minlon="-73.9783631" maxlat="40.7882660" maxlon="-73.9783146"/>
    <nd ref="42431034" lat="40.7882037" lon="-73.9783631"/>
    <nd ref="8727756052" lat="40.7882660" lon="-73.9783146"/>
    <tag k="goods" v="no"/>
    <tag k="highway" v="tertiary"/>
    <tag k="lanes" v="3"/>
    <tag k="lanes:backward" v="1"/>
    <tag k="lanes:forward" v="2"/>
    <tag k="maxspeed" v="25 mph"/>
    <tag k="name" v="West End Avenue"/>
    <tag k="name:ru" v="Вест-Энд-авеню"/>
    <tag k="network" v="lcn"/>
    <tag k="oneway" v="no"/>
    <tag k="route" v="bicycle"/>
    <tag k="sidewalk" v="separate"/>
    <tag k="surface" v="asphalt"/>
    <tag k="tiger:cfcc" v="A41"/>
    <tag k="tiger:county" v="New York, NY"/>
    <tag k="tiger:name_base" v="End"/>
    <tag k="tiger:name_direction_prefix" v="W"/>
    <tag k="tiger:name_type" v="Ave"/>
    <tag k="tiger:reviewed" v="no"/>
    <tag k="wikidata" v="Q130405"/>
    <tag k="wikipedia" v="en:Eleventh Avenue (Manhattan)"/>
  </way>
  <way id="1081978814">
    <bounds minlat="40.7842620" minlon="-73.9812367" maxlat="40.7843536" maxlon="-73.9811697"/>
    <nd ref="8727756099" lat="40.7842620" lon="-73.9812367"/>
    <nd ref="42431019" lat="40.7843536" lon="-73.9811697"/>
    <tag k="goods" v="no"/>
    <tag k="highway" v="tertiary"/>
    <tag k="lanes" v="3"/>
    <tag k="lanes:backward" v="1"/>
    <tag k="lanes:forward" v="2"/>
    <tag k="maxspeed" v="25 mph"/>
    <tag k="name" v="West End Avenue"/>
    <tag k="name:ru" v="Вест-Энд-авеню"/>
    <tag k="network" v="lcn"/>
    <tag k="oneway" v="no"/>
    <tag k="route" v="bicycle"/>
    <tag k="sidewalk" v="separate"/>
    <tag k="surface" v="asphalt"/>
    <tag k="tiger:cfcc" v="A41"/>
    <tag k="tiger:county" v="New York, NY"/>
    <tag k="tiger:name_base" v="End"/>
    <tag k="tiger:name_direction_prefix" v="W"/>
    <tag k="tiger:name_type" v="Ave"/>
    <tag k="tiger:reviewed" v="no"/>
    <tag k="turn:lanes:forward" v="left|"/>
    <tag k="wikidata" v="Q130405"/>
    <tag k="wikipedia" v="en:Eleventh Avenue (Manhattan)"/>
  </way>
  <way id="1123883121">
    <bounds minlat="40.7795842" minlon="-73.9818317" maxlat="40.7838930" maxlon="-73.9800838"/>
    <nd ref="42428653" lat="40.7838930" lon="-73.9800838"/>
    <nd ref="8709392076" lat="40.7837949" lon="-73.9801555"/>
    <nd ref="8709392047" lat="40.7832716" lon="-73.9805379"/>
    <nd ref="2240269290" lat="40.7832495" lon="-73.9805543"/>
    <nd ref="42428065" lat="40.7832069" lon="-73.9805809"/>
    <nd ref="8709392055" lat="40.7831487" lon="-73.9806103"/>
    <nd ref="2047267756" lat="40.7826159" lon="-73.9808743"/>
    <nd ref="8709392029" lat="40.7825881" lon="-73.9808874"/>
    <nd ref="42428648" lat="40.7825317" lon="-73.9809157"/>
    <nd ref="8709392036" lat="40.7824616" lon="-73.9809447"/>
    <nd ref="2047267754" lat="40.7824376" lon="-73.9809523"/>
    <nd ref="8727756115" lat="40.7818702" lon="-73.9811530"/>
    <nd ref="42428645" lat="40.7818019" lon="-73.9811764"/>
    <nd ref="10039477580" lat="40.7817416" lon="-73.9811976"/>
    <nd ref="8727756103" lat="40.7811432" lon="-73.9813988"/>
    <nd ref="11655721360" lat="40.7810772" lon="-73.9814187"/>
    <nd ref="10039484255" lat="40.7810130" lon="-73.9814396"/>
    <nd ref="8727756037" lat="40.7804027" lon="-73.9816160"/>
    <nd ref="42428640" lat="40.7803341" lon="-73.9816325"/>
    <nd ref="11655743729" lat="40.7802760" lon="-73.9816476"/>
    <nd ref="5115916416" lat="40.7796588" lon="-73.9818074"/>
    <nd ref="42428637" lat="40.7795842" lon="-73.9818317"/>
    <tag k="hgv" v="local"/>
    <tag k="highway" v="primary"/>
    <tag k="lanes" v="3"/>
    <tag k="maxspeed" v="25 mph"/>
    <tag k="name" v="Broadway"/>
    <tag k="name:en" v="Broadway"/>
    <tag k="name:ja" v="ブロードウェイ"/>
    <tag k="name:ru" v="Бродвей"/>
    <tag k="oneway" v="yes"/>
    <tag k="surface" v="asphalt"/>
    <tag k="tiger:cfcc" v="A21"/>
    <tag k="tiger:county" v="New York, NY"/>
    <tag k="tiger:name_base" v="Broadway"/>
    <tag k="tiger:name_base_1" v="United States Highway 9"/>
    <tag k="tiger:reviewed" v="no"/>
    <tag k="wikidata" v="Q11260"/>
    <tag k="wikipedia" v="en:Broadway (Manhattan)"/>
  </way>
  <way id="1123883122">
    <bounds minlat="40.7838080" minlon="-73.9800838" maxlat="40.7838930" maxlon="-73.9798812"/>
    <nd ref="1061531454" lat="40.7838080" lon="-73.9798812"/>
    <nd ref="42428653" lat="40.7838930" lon="-73.9800838"/>
    <tag k="alt_name" v="West 79 Street"/>
    <tag k="bicycle" v="yes"/>
    <tag k="hgv" v="local"/>
    <tag k="highway" v="secondary"/>
    <tag k="lanes" v="4"/>
    <tag k="maxspeed" v="25 mph"/>
    <tag k="name" v="West 79th Street"/>
    <tag k="name:ru" v="Западная 79-я стрит"/>
    <tag k="surface" v="asphalt"/>
    <tag k="tiger:cfcc" v="A41"/>
    <tag k="tiger:county" v="New York, NY"/>
    <tag k="tiger:name_base" v="79th"/>
    <tag k="tiger:name_base_1" v="79"/>
    <tag k="tiger:name_direction_prefix" v="W"/>
    <tag k="tiger:name_direction_prefix_1" v="W"/>
    <tag k="tiger:name_type" v="St"/>
    <tag k="tiger:name_type_1" v="St"/>
    <tag k="tiger:reviewed" v="no"/>
    <tag k="tiger:zip_left" v="10024"/>
    <tag k="tiger:zip_right" v="10024"/>
    <tag k="wikidata" v="Q2818314"/>
    <tag k="wikipedia" v="en:79th Street (Manhattan)"/>
  </way>
  <way id="1123883123">
    <bounds minlat="40.7838080" minlon="-73.9798812" maxlat="40.7882886" maxlon="-73.9764311"/>
    <nd ref="1061531454" lat="40.7838080" lon="-73.9798812"/>
    <nd ref="11655721342" lat="40.7839072" lon="-73.9798090"/>
    <nd ref="11655721344" lat="40.7844321" lon="-73.9794213"/>
    <nd ref="11655721345" lat="40.7844847" lon="-73.9793825"/>
    <nd ref="11655721343" lat="40.7845497" lon="-73.9793345"/>
    <nd ref="11655721346" lat="40.7850614" lon="-73.9789502"/>
    <nd ref="11655721348" lat="40.7851211" lon="-73.9789064"/>
    <nd ref="11655721347" lat="40.7851803" lon="-73.9788630"/>
    <nd ref="11655721349" lat="40.7856965" lon="-73.9784804"/>
    <nd ref="11655721350" lat="40.7857555" lon="-73.9784379"/>
    <nd ref="11655721351" lat="40.7858127" lon="-73.9783938"/>
    <nd ref="5533554870" lat="40.7860117" lon="-73.9782403"/>
    <nd ref="11655721352" lat="40.7863291" lon="-73.9780092"/>
    <nd ref="1061531550" lat="40.7863807" lon="-73.9779716"/>
    <nd ref="11655721353" lat="40.7864441" lon="-73.9779266"/>
    <nd ref="11655721354" lat="40.7869640" lon="-73.9775521"/>
    <nd ref="11655721355" lat="40.7870124" lon="-73.9775145"/>
    <nd ref="7182103209" lat="40.7870796" lon="-73.9774623"/>
    <nd ref="8699239239" lat="40.7875779" lon="-73.9770407"/>
    <nd ref="1061531839" lat="40.7876288" lon="-73.9769983"/>
    <nd ref="8699239235" lat="40.7876904" lon="-73.9769454"/>
    <nd ref="8699239251" lat="40.7881939" lon="-73.9765143"/>
    <nd ref="1061531603" lat="40.7882886" lon="-73.9764311"/>
    <tag k="hgv" v="local"/>
    <tag k="highway" v="primary"/>
    <tag k="lanes" v="4"/>
    <tag k="name" v="Broadway"/>
    <tag k="name:en" v="Broadway"/>
    <tag k="name:ja" v="ブロードウェイ"/>
    <tag k="name:ru" v="Бродвей"/>
    <tag k="oneway" v="yes"/>
    <tag k="surface" v="asphalt"/>
    <tag k="tiger:cfcc" v="A21"/>
    <tag k="tiger:county" v="New York, NY"/>
    <tag k="tiger:name_base" v="Broadway"/>
    <tag k="tiger:name_base_1" v="United States Highway 9"/>
    <tag k="tiger:reviewed" v="no"/>
    <tag k="wikidata" v="Q11260"/>
    <tag k="wikipedia" v="en:Broadway (Manhattan)"/>
  </way>
  <way id="1169395572">
    <bounds minlat="40.7835849" minlon="-73.9854512" maxlat="40.7854887" maxlon="-73.9841179"/>
    <nd ref="595295438" lat="40.7854887" lon="-73.9841179"/>
    <nd ref="9168918178" lat="40.7852267" lon="-73.9842875"/>
    <nd ref="9168918177" lat="40.7850319" lon="-73.9844219"/>
    <nd ref="61269407" lat="40.7848363" lon="-73.9845549"/>
    <nd ref="7910096915" lat="40.7846469" lon="-73.9846867"/>
    <nd ref="7908017351" lat="40.7844556" lon="-73.9848209"/>
    <nd ref="7910096910" lat="40.7842652" lon="-73.9849556"/>
    <nd ref="61269408" lat="40.7840794" lon="-73.9850932"/>
    <nd ref="9168918176" lat="40.7838886" lon="-73.9852317"/>
    <nd ref="61271527" lat="40.7836911" lon="-73.9853737"/>
    <nd ref="10873903275" lat="40.7835849" lon="-73.9854512"/>
    <tag k="goods" v="no"/>
    <tag k="hgv" v="no"/>
    <tag k="highway" v="motorway"/>
    <tag k="lanes" v="3"/>
    <tag k="maxspeed" v="55 mph"/>
    <tag k="motorcar" v="designated"/>
    <tag k="name" v="Henry Hudson Parkway"/>
    <tag k="not:name" v="West Side Highway"/>
    <tag k="oneway" v="yes"/>
    <tag k="ref" v="HH;NY 9A"/>
    <tag k="surface" v="asphalt"/>
    <tag k="unsigned_ref" v="NY 907V"/>
  </way>

</osm>
